{"type":"FeatureCollection","features":[{"type":"Feature","properties":{"b":"lbj","band":"undercroft","lyr":"solid","cap":0,"wd":"#78736b","wg":"#8e7f6f","wn":"#15161d","base":0.0,"h":4.25},"geometry":{"type":"Polygon","coordinates":[[[-97.7294581,30.2857214],[-97.7292325,30.2856705],[-97.7291122,30.2860682],[-97.7293379,30.2861191],[-97.7294581,30.2857214]]]}},{"type":"Feature","properties":{"b":"lbj","band":"batterA","lyr":"solid","cap":0,"wd":"#f0e9dd","wg":"#f2e2ce","wn":"#222329","base":4.25,"h":11.89},"geometry":{"type":"Polygon","coordinates":[[[-97.7294645,30.2857182],[-97.7292288,30.285665],[-97.7291058,30.2860714],[-97.7293416,30.2861245],[-97.7294645,30.2857182]]]}},{"type":"Feature","properties":{"b":"lbj","band":"batterB","lyr":"solid","cap":0,"wd":"#f0e9dd","wg":"#f2e2ce","wn":"#222329","base":11.89,"h":18.11},"geometry":{"type":"Polygon","coordinates":[[[-97.7294759,30.2857124],[-97.7292221,30.2856551],[-97.7290944,30.2860772],[-97.7293483,30.2861344],[-97.7294759,30.2857124]]]}},{"type":"Feature","properties":{"b":"lbj","band":"batterC","lyr":"solid","cap":0,"wd":"#f0e9dd","wg":"#f2e2ce","wn":"#222329","base":18.11,"h":22.98},"geometry":{"type":"Polygon","coordinates":[[[-97.7294873,30.2857066],[-97.7292154,30.2856452],[-97.729083,30.286083],[-97.729355,30.2861443],[-97.7294873,30.2857066]]]}},{"type":"Feature","properties":{"b":"lbj","band":"reveal","lyr":"solid","cap":0,"wd":"#6b6154","wg":"#83705b","wn":"#13141a","base":22.98,"h":24.79},"geometry":{"type":"Polygon","coordinates":[[[-97.7294543,30.2857233],[-97.7292347,30.2856737],[-97.729116,30.2860663],[-97.7293357,30.2861158],[-97.7294543,30.2857233]]]}},{"type":"Feature","properties":{"b":"lbj","band":"cantilever","lyr":"solid","cap":1,"wd":"#f0e9dd","wg":"#f2e2ce","wn":"#222329","base":24.79,"h":28.3,"rd":"#dee4e1","rg":"#e3ded2","rn":"#20222a"},"geometry":{"type":"Polygon","coordinates":[[[-97.7295457,30.2856771],[-97.7291812,30.2855948],[-97.7290246,30.2861125],[-97.7293892,30.2861947],[-97.7295457,30.2856771]]]}},{"type":"Feature","properties":{"b":"kelly","band":"wall","lyr":"solid","cap":0,"wd":"#dfe1e3","wg":"#e4dbd3","wn":"#20222a","base":0.0,"h":4.62},"geometry":{"type":"Polygon","coordinates":[[[-97.7378533,30.2817379],[-97.7379185,30.2817424],[-97.7379248,30.2816734],[-97.7378651,30.2816694],[-97.7378728,30.2815854],[-97.7378732,30.2815792],[-97.7378351,30.2815764],[-97.7378169,30.2815751],[-97.7377945,30.2815735],[-97.737794,30.2815789],[-97.7377858,30.2816661],[-97.7377207,30.2816617],[-97.7377146,30.2817271],[-97.7377778,30.2817314],[-97.7377736,30.2817769],[-97.7378492,30.2817821],[-97.7378533,30.2817379]]]}},{"type":"Feature","properties":{"b":"kelly","band":"vaultN0","lyr":"solid","cap":0,"wd":"#dfe1e3","wg":"#e4dbd3","wn":"#20222a","base":4.62,"h":5.62},"geometry":{"type":"Polygon","coordinates":[[[-97.7377209,30.2816591],[-97.7377145,30.2817281],[-97.7379185,30.2817424],[-97.737925,30.2816734],[-97.7377209,30.2816591]]]}},{"type":"Feature","properties":{"b":"kelly","band":"vaultE0","lyr":"solid","cap":0,"wd":"#dfe1e3","wg":"#e4dbd3","wn":"#20222a","base":4.62,"h":5.66},"geometry":{"type":"Polygon","coordinates":[[[-97.7377927,30.2815734],[-97.7377736,30.2817769],[-97.7378543,30.2817826],[-97.7378734,30.281579],[-97.7377927,30.2815734]]]}},{"type":"Feature","properties":{"b":"kelly","band":"vaultN1","lyr":"solid","cap":0,"wd":"#dfe1e3","wg":"#e4dbd3","wn":"#20222a","base":5.62,"h":6.5},"geometry":{"type":"Polygon","coordinates":[[[-97.73772,30.281669],[-97.7377154,30.2817182],[-97.7379194,30.2817326],[-97.7379241,30.2816833],[-97.73772,30.281669]]]}},{"type":"Feature","properties":{"b":"kelly","band":"vaultE1","lyr":"solid","cap":0,"wd":"#dfe1e3","wg":"#e4dbd3","wn":"#20222a","base":5.62,"h":6.54},"geometry":{"type":"Polygon","coordinates":[[[-97.7378041,30.2815742],[-97.737785,30.2817777],[-97.7378429,30.2817818],[-97.737862,30.2815782],[-97.7378041,30.2815742]]]}},{"type":"Feature","properties":{"b":"kelly","band":"vaultN2","lyr":"solid","cap":0,"wd":"#dfe1e3","wg":"#e4dbd3","wn":"#20222a","base":6.5,"h":7.31},"geometry":{"type":"Polygon","coordinates":[[[-97.7377192,30.2816779],[-97.7377162,30.2817093],[-97.7379203,30.2817236],[-97.7379232,30.2816922],[-97.7377192,30.2816779]]]}},{"type":"Feature","properties":{"b":"kelly","band":"vaultE2","lyr":"solid","cap":0,"wd":"#dfe1e3","wg":"#e4dbd3","wn":"#20222a","base":6.5,"h":7.35},"geometry":{"type":"Polygon","coordinates":[[[-97.7378145,30.2815749],[-97.7377954,30.2817784],[-97.7378325,30.281781],[-97.7378516,30.2815775],[-97.7378145,30.2815749]]]}},{"type":"Feature","properties":{"b":"kelly","band":"vaultN3","lyr":"solid","cap":0,"wd":"#dfe1e3","wg":"#e4dbd3","wn":"#20222a","base":7.31,"h":8.03},"geometry":{"type":"Polygon","coordinates":[[[-97.7377183,30.2816869],[-97.7377171,30.2817003],[-97.7379211,30.2817146],[-97.7379224,30.2817012],[-97.7377183,30.2816869]]]}},{"type":"Feature","properties":{"b":"kelly","band":"vaultE3","lyr":"solid","cap":0,"wd":"#dfe1e3","wg":"#e4dbd3","wn":"#20222a","base":7.31,"h":8.07},"geometry":{"type":"Polygon","coordinates":[[[-97.7378249,30.2815756],[-97.7378057,30.2817792],[-97.7378221,30.2817803],[-97.7378413,30.2815768],[-97.7378249,30.2815756]]]}},{"type":"Feature","properties":{"b":"blanton","band":"arcade","lyr":"solid","cap":0,"wd":"#4d4535","wg":"#695841","wn":"#101117","base":0.0,"h":4.93},"geometry":{"type":"Polygon","coordinates":[[[-97.7370817,30.2811354],[-97.7370396,30.281278],[-97.7377051,30.2813278],[-97.73774,30.2813304],[-97.7377466,30.2813309],[-97.7377472,30.2813246],[-97.7377983,30.2807866],[-97.7377998,30.2807718],[-97.737768,30.2807645],[-97.7372312,30.2806407],[-97.7370817,30.2811354]]]}},{"type":"Feature","properties":{"b":"blanton","band":"wall","lyr":"solid","cap":0,"wd":"#e8dac9","wg":"#ecd6be","wn":"#212127","base":4.93,"h":13.3},"geometry":{"type":"Polygon","coordinates":[[[-97.7370706,30.281133],[-97.7370252,30.2812868],[-97.7377041,30.2813377],[-97.737739,30.2813403],[-97.7377571,30.2813416],[-97.7377586,30.2813254],[-97.7378097,30.2807874],[-97.737812,30.2807644],[-97.737771,30.2807549],[-97.737223,30.2806286],[-97.7370706,30.281133]]]}},{"type":"Feature","properties":{"b":"blanton","band":"frieze","lyr":"solid","cap":1,"wd":"#f0e4d5","wg":"#f2dec8","wn":"#222228","base":13.3,"h":14.3,"rd":"#d0d0c8","rg":"#d8cdbd","rn":"#1e2027"},"geometry":{"type":"Polygon","coordinates":[[[-97.7370676,30.2811323],[-97.7370212,30.2812893],[-97.7377039,30.2813404],[-97.7377388,30.281343],[-97.73776,30.2813445],[-97.7377618,30.2813256],[-97.7378129,30.2807876],[-97.7378153,30.2807624],[-97.7377718,30.2807523],[-97.7372208,30.2806253],[-97.7370676,30.2811323]]]}},{"type":"Feature","properties":{"b":"smith","band":"arcade","lyr":"solid","cap":0,"wd":"#4d4535","wg":"#695841","wn":"#101117","base":0.0,"h":4.9},"geometry":{"type":"Polygon","coordinates":[[[-97.7380078,30.2813395],[-97.7383534,30.2813739],[-97.7383986,30.2809124],[-97.7381707,30.2808572],[-97.7381656,30.2808733],[-97.738015,30.2813486],[-97.7380176,30.2813405],[-97.7380078,30.2813395]]]}},{"type":"Feature","properties":{"b":"smith","band":"wall","lyr":"solid","cap":0,"wd":"#e8dac9","wg":"#ecd6be","wn":"#212127","base":4.9,"h":13.21},"geometry":{"type":"Polygon","coordinates":[[[-97.7380065,30.2813493],[-97.7383638,30.2813849],[-97.7384108,30.2809051],[-97.7381627,30.280845],[-97.7381545,30.2808707],[-97.738004,30.281346],[-97.738003,30.281349],[-97.7380065,30.2813493]]]}},{"type":"Feature","properties":{"b":"smith","band":"frieze","lyr":"solid","cap":1,"wd":"#f0e4d5","wg":"#f2dec8","wn":"#222228","base":13.21,"h":14.2,"rd":"#d0d0c8","rg":"#d8cdbd","rn":"#1e2027"},"geometry":{"type":"Polygon","coordinates":[[[-97.7380061,30.281352],[-97.7383666,30.2813879],[-97.7384141,30.2809031],[-97.7381605,30.2808417],[-97.7381515,30.2808699],[-97.7380009,30.2813453],[-97.7379991,30.2813513],[-97.7380061,30.281352]]]}},{"type":"Feature","properties":{"b":"ransom","band":"base","lyr":"solid","cap":0,"wd":"#4a463f","wg":"#67594a","wn":"#101118","base":0.0,"h":5.22},"geometry":{"type":"Polygon","coordinates":[[[-97.7409326,30.2845791],[-97.7414798,30.2846193],[-97.7415318,30.2840914],[-97.7409787,30.2840507],[-97.7409558,30.2842831],[-97.7409296,30.2845493],[-97.7409267,30.2845787],[-97.7409326,30.2845791]]]}},{"type":"Feature","properties":{"b":"ransom","band":"fins","lyr":"solid","cap":0,"wd":"#8f8a82","wg":"#a19282","wn":"#17181f","base":5.22,"h":8.61},"geometry":{"type":"Polygon","coordinates":[[[-97.7409318,30.2845872],[-97.7414884,30.284628],[-97.7415419,30.284084],[-97.7409701,30.284042],[-97.7409464,30.2842824],[-97.7409202,30.2845486],[-97.7409166,30.284586],[-97.7409318,30.2845872]]]}},{"type":"Feature","properties":{"b":"ransom","band":"panels","lyr":"panel","cap":0,"wd":"#a4a4a1","wg":"#b3a89c","wn":"#1a1b23","base":8.61,"h":28.99},"geometry":{"type":"Polygon","coordinates":[[[-97.7409318,30.2845872],[-97.7414884,30.284628],[-97.7415419,30.284084],[-97.7409701,30.284042],[-97.7409464,30.2842824],[-97.7409202,30.2845486],[-97.7409166,30.284586],[-97.7409318,30.2845872]]]}},{"type":"Feature","properties":{"b":"ransom","band":"cornice","lyr":"solid","cap":1,"wd":"#b2a99e","wg":"#beac9a","wn":"#1b1c22","base":28.99,"h":32.0,"rd":"#a7a394","rg":"#b5a791","rn":"#1a1b21"},"geometry":{"type":"Polygon","coordinates":[[[-97.7409305,30.2846006],[-97.7415026,30.2846426],[-97.7415588,30.2840717],[-97.7409559,30.2840274],[-97.7409309,30.2842813],[-97.7409047,30.2845475],[-97.7408997,30.2845983],[-97.7409305,30.2846006]]]}},{"type":"Feature","properties":{"b":"bass","band":"plinth","lyr":"solid","cap":0,"wd":"#a98b73","wg":"#b79375","wn":"#1a191d","base":0.0,"h":4.38},"geometry":{"type":"Polygon","coordinates":[[[-97.7315464,30.2867226],[-97.7315605,30.2865796],[-97.7315221,30.2865768],[-97.7314552,30.2865719],[-97.7315165,30.2859545],[-97.7315176,30.2859416],[-97.7315297,30.2858185],[-97.7315295,30.2858205],[-97.7314786,30.2858169],[-97.7314804,30.2857982],[-97.7310928,30.28577],[-97.7310905,30.2857933],[-97.7310403,30.2857897],[-97.7310277,30.285919],[-97.7309697,30.2865292],[-97.7305214,30.2864962],[-97.730496,30.2867535],[-97.7308824,30.2867819],[-97.7309916,30.28679],[-97.7314274,30.286822],[-97.7314381,30.2867146],[-97.7315464,30.2867226]]]}},{"type":"Feature","properties":{"b":"bass","band":"body","lyr":"solid","cap":1,"wd":"#dab596","wg":"#e0b693","wn":"#201d21","base":4.38,"h":14.6,"rd":"#9f9d91","rg":"#aea28f","rn":"#191b21"},"geometry":{"type":"Polygon","coordinates":[[[-97.7315578,30.2867343],[-97.731574,30.2865698],[-97.7315232,30.2865661],[-97.7314687,30.2865621],[-97.7315289,30.2859554],[-97.73153,30.2859425],[-97.7315421,30.2858194],[-97.731543,30.2858106],[-97.7314921,30.285807],[-97.7314939,30.2857884],[-97.7310814,30.2857584],[-97.7310791,30.2857817],[-97.7310289,30.2857781],[-97.7310153,30.2859181],[-97.7309583,30.2865175],[-97.73051,30.2864845],[-97.7304825,30.2867633],[-97.7308813,30.2867926],[-97.7309905,30.2868007],[-97.7314388,30.2868337],[-97.7314495,30.2867263],[-97.7315578,30.2867343]]]}},{"type":"Feature","properties":{"b":"bass","band":"hall","lyr":"solid","cap":0,"wd":"#dab596","wg":"#e0b693","wn":"#201d21","base":0.0,"h":21.96},"geometry":{"type":"Polygon","coordinates":[[[-97.731449,30.2859518],[-97.7310513,30.2859734],[-97.7310742,30.286288],[-97.7314719,30.2862664],[-97.731449,30.2859518]]]}},{"type":"Feature","properties":{"b":"bass","band":"hallcap","lyr":"solid","cap":1,"wd":"#a98b73","wg":"#b79375","wn":"#1a191d","base":21.96,"h":23.0,"rd":"#9f9d91","rg":"#aea28f","rn":"#191b21"},"geometry":{"type":"Polygon","coordinates":[[[-97.731449,30.2859518],[-97.7310513,30.2859734],[-97.7310742,30.286288],[-97.7314719,30.2862664],[-97.731449,30.2859518]]]}},{"type":"Feature","properties":{"b":"bass","band":"lobby","lyr":"glass","cap":0,"wd":"#6b93b6","wg":"#839aae","wn":"#131925","base":0.0,"h":15.8},"geometry":{"type":"Polygon","coordinates":[[[-97.7314739,30.2856843],[-97.731126,30.2857032],[-97.7311345,30.2858197],[-97.7314824,30.2858008],[-97.7314739,30.2856843]]]}},{"type":"Feature","properties":{"b":"bass","band":"sunshade","lyr":"solid","cap":0,"wd":"#cfcac2","wg":"#d7c8b8","wn":"#1e2026","base":15.8,"h":16.7},"geometry":{"type":"Polygon","coordinates":[[[-97.7314914,30.2856671],[-97.7311062,30.2856881],[-97.731117,30.2858369],[-97.7315022,30.2858159],[-97.7314914,30.2856671]]]}},{"type":"Feature","properties":{"b":"petal","band":"0.15","lyr":"solid","cap":0,"wd":"#c8c2b6","wg":"#d1c1ae","wn":"#1e1f25","base":0.0,"h":7.56,"src":"snapshot"},"geometry":{"type":"Polygon","coordinates":[[[-97.7378923,30.280974],[-97.7378928,30.280972],[-97.7378925,30.2809699],[-97.7378915,30.280968],[-97.7378898,30.2809665],[-97.7378877,30.2809655],[-97.7378853,30.2809652],[-97.7378829,30.2809656],[-97.7378808,30.2809667],[-97.7378792,30.2809682],[-97.7378782,30.2809702],[-97.7378781,30.2809723],[-97.7378788,30.2809743],[-97.7378801,30.280976],[-97.7378821,30.2809773],[-97.7378844,30.2809779],[-97.7378868,30.2809779],[-97.7378891,30.2809771],[-97.737891,30.2809758],[-97.7378923,30.280974]]]}},{"type":"Feature","properties":{"b":"petal","band":"0.34","lyr":"solid","cap":0,"wd":"#c8c2b6","wg":"#d1c1ae","wn":"#1e1f25","base":7.56,"h":9.64,"src":"snapshot"},"geometry":{"type":"Polygon","coordinates":[[[-97.7379004,30.2809769],[-97.7379016,30.2809724],[-97.737901,30.2809678],[-97.7378988,30.2809637],[-97.7378951,30.2809603],[-97.7378903,30.2809583],[-97.7378851,30.2809576],[-97.7378798,30.2809585],[-97.7378752,30.2809608],[-97.7378717,30.2809642],[-97.7378696,30.2809685],[-97.7378693,30.2809731],[-97.7378708,30.2809775],[-97.7378738,30.2809813],[-97.7378781,30.280984],[-97.7378831,30.2809854],[-97.7378885,30.2809853],[-97.7378935,30.2809837],[-97.7378976,30.2809808],[-97.7379004,30.2809769]]]}},{"type":"Feature","properties":{"b":"petal","band":"0.65","lyr":"solid","cap":0,"wd":"#dcd7cf","wg":"#e2d3c3","wn":"#202128","base":9.64,"h":10.98,"src":"snapshot"},"geometry":{"type":"Polygon","coordinates":[[[-97.7379141,30.2809817],[-97.7379164,30.2809732],[-97.7379152,30.2809644],[-97.737911,30.2809565],[-97.7379039,30.2809501],[-97.7378948,30.2809461],[-97.7378847,30.2809449],[-97.7378747,30.2809465],[-97.7378658,30.2809509],[-97.7378591,30.2809575],[-97.7378553,30.2809657],[-97.7378547,30.2809745],[-97.7378574,30.2809829],[-97.7378632,30.2809902],[-97.7378714,30.2809954],[-97.7378811,30.2809981],[-97.7378913,30.2809979],[-97.7379008,30.2809948],[-97.7379087,30.2809892],[-97.7379141,30.2809817]]]}},{"type":"Feature","properties":{"b":"petal","band":"1.00","lyr":"solid","cap":0,"wd":"#dcd7cf","wg":"#e2d3c3","wn":"#202128","base":10.98,"h":12.2,"src":"snapshot"},"geometry":{"type":"Polygon","coordinates":[[[-97.7379295,30.2809872],[-97.737933,30.280974],[-97.7379313,30.2809605],[-97.7379247,30.2809483],[-97.7379138,30.2809385],[-97.7378998,30.2809324],[-97.7378843,30.2809305],[-97.7378689,30.280933],[-97.7378553,30.2809398],[-97.7378449,30.2809499],[-97.737839,30.2809625],[-97.7378381,30.280976],[-97.7378423,30.280989],[-97.7378512,30.2810002],[-97.7378638,30.2810082],[-97.7378787,30.2810123],[-97.7378944,30.281012],[-97.7379091,30.2810073],[-97.7379212,30.2809987],[-97.7379295,30.2809872]]]}},{"type":"Feature","properties":{"b":"petal","band":"0.15","lyr":"solid","cap":0,"wd":"#c8c2b6","wg":"#d1c1ae","wn":"#1e1f25","base":0.0,"h":7.56,"src":"snapshot"},"geometry":{"type":"Polygon","coordinates":[[[-97.7378659,30.280891],[-97.7378664,30.280889],[-97.7378661,30.2808869],[-97.7378651,30.280885],[-97.7378634,30.2808835],[-97.7378613,30.2808825],[-97.7378589,30.2808822],[-97.7378565,30.2808826],[-97.7378544,30.2808837],[-97.7378528,30.2808852],[-97.7378518,30.2808872],[-97.7378517,30.2808893],[-97.7378524,30.2808913],[-97.7378537,30.280893],[-97.7378557,30.2808943],[-97.737858,30.2808949],[-97.7378604,30.2808949],[-97.7378627,30.2808941],[-97.7378646,30.2808928],[-97.7378659,30.280891]]]}},{"type":"Feature","properties":{"b":"petal","band":"0.34","lyr":"solid","cap":0,"wd":"#c8c2b6","wg":"#d1c1ae","wn":"#1e1f25","base":7.56,"h":9.64,"src":"snapshot"},"geometry":{"type":"Polygon","coordinates":[[[-97.737874,30.2808939],[-97.7378752,30.2808894],[-97.7378746,30.2808848],[-97.7378724,30.2808807],[-97.7378687,30.2808773],[-97.7378639,30.2808753],[-97.7378587,30.2808746],[-97.7378534,30.2808755],[-97.7378488,30.2808778],[-97.7378453,30.2808812],[-97.7378432,30.2808855],[-97.7378429,30.2808901],[-97.7378444,30.2808945],[-97.7378474,30.2808983],[-97.7378517,30.280901],[-97.7378567,30.2809024],[-97.7378621,30.2809023],[-97.7378671,30.2809007],[-97.7378712,30.2808978],[-97.737874,30.2808939]]]}},{"type":"Feature","properties":{"b":"petal","band":"0.65","lyr":"solid","cap":0,"wd":"#dcd7cf","wg":"#e2d3c3","wn":"#202128","base":9.64,"h":10.98,"src":"snapshot"},"geometry":{"type":"Polygon","coordinates":[[[-97.7378877,30.2808987],[-97.73789,30.2808902],[-97.7378888,30.2808814],[-97.7378846,30.2808735],[-97.7378775,30.2808671],[-97.7378684,30.2808631],[-97.7378583,30.2808619],[-97.7378483,30.2808635],[-97.7378394,30.2808679],[-97.7378327,30.2808745],[-97.7378289,30.2808827],[-97.7378283,30.2808915],[-97.737831,30.2808999],[-97.7378368,30.2809072],[-97.737845,30.2809124],[-97.7378547,30.2809151],[-97.7378649,30.2809149],[-97.7378744,30.2809118],[-97.7378823,30.2809062],[-97.7378877,30.2808987]]]}},{"type":"Feature","properties":{"b":"petal","band":"1.00","lyr":"solid","cap":0,"wd":"#dcd7cf","wg":"#e2d3c3","wn":"#202128","base":10.98,"h":12.2,"src":"snapshot"},"geometry":{"type":"Polygon","coordinates":[[[-97.7379031,30.2809042],[-97.7379066,30.280891],[-97.7379049,30.2808775],[-97.7378983,30.2808653],[-97.7378874,30.2808555],[-97.7378734,30.2808494],[-97.7378579,30.2808475],[-97.7378425,30.28085],[-97.7378289,30.2808568],[-97.7378185,30.2808669],[-97.7378126,30.2808795],[-97.7378117,30.280893],[-97.7378159,30.280906],[-97.7378248,30.2809172],[-97.7378374,30.2809252],[-97.7378523,30.2809293],[-97.737868,30.280929],[-97.7378827,30.2809243],[-97.7378948,30.2809157],[-97.7379031,30.2809042]]]}},{"type":"Feature","properties":{"b":"petal","band":"0.15","lyr":"solid","cap":0,"wd":"#c8c2b6","wg":"#d1c1ae","wn":"#1e1f25","base":0.0,"h":7.56,"src":"snapshot"},"geometry":{"type":"Polygon","coordinates":[[[-97.737962,30.2809138],[-97.7379625,30.2809118],[-97.7379622,30.2809097],[-97.7379612,30.2809078],[-97.7379595,30.2809063],[-97.7379574,30.2809053],[-97.737955,30.280905],[-97.7379526,30.2809054],[-97.7379505,30.2809065],[-97.7379489,30.280908],[-97.7379479,30.28091],[-97.7379478,30.2809121],[-97.7379485,30.2809141],[-97.7379498,30.2809158],[-97.7379518,30.2809171],[-97.7379541,30.2809177],[-97.7379565,30.2809177],[-97.7379588,30.2809169],[-97.7379607,30.2809156],[-97.737962,30.2809138]]]}},{"type":"Feature","properties":{"b":"petal","band":"0.34","lyr":"solid","cap":0,"wd":"#c8c2b6","wg":"#d1c1ae","wn":"#1e1f25","base":7.56,"h":9.64,"src":"snapshot"},"geometry":{"type":"Polygon","coordinates":[[[-97.7379701,30.2809167],[-97.7379713,30.2809122],[-97.7379707,30.2809076],[-97.7379685,30.2809035],[-97.7379648,30.2809001],[-97.73796,30.2808981],[-97.7379548,30.2808974],[-97.7379495,30.2808983],[-97.7379449,30.2809006],[-97.7379414,30.280904],[-97.7379393,30.2809083],[-97.737939,30.2809129],[-97.7379405,30.2809173],[-97.7379435,30.2809211],[-97.7379478,30.2809238],[-97.7379528,30.2809252],[-97.7379582,30.2809251],[-97.7379632,30.2809235],[-97.7379673,30.2809206],[-97.7379701,30.2809167]]]}},{"type":"Feature","properties":{"b":"petal","band":"0.65","lyr":"solid","cap":0,"wd":"#dcd7cf","wg":"#e2d3c3","wn":"#202128","base":9.64,"h":10.98,"src":"snapshot"},"geometry":{"type":"Polygon","coordinates":[[[-97.7379838,30.2809215],[-97.7379861,30.280913],[-97.7379849,30.2809042],[-97.7379807,30.2808963],[-97.7379736,30.2808899],[-97.7379645,30.2808859],[-97.7379544,30.2808847],[-97.7379444,30.2808863],[-97.7379355,30.2808907],[-97.7379288,30.2808973],[-97.737925,30.2809055],[-97.7379244,30.2809143],[-97.7379271,30.2809227],[-97.7379329,30.28093],[-97.7379411,30.2809352],[-97.7379508,30.2809379],[-97.737961,30.2809377],[-97.7379705,30.2809346],[-97.7379784,30.280929],[-97.7379838,30.2809215]]]}},{"type":"Feature","properties":{"b":"petal","band":"1.00","lyr":"solid","cap":0,"wd":"#dcd7cf","wg":"#e2d3c3","wn":"#202128","base":10.98,"h":12.2,"src":"snapshot"},"geometry":{"type":"Polygon","coordinates":[[[-97.7379992,30.280927],[-97.7380027,30.2809138],[-97.738001,30.2809003],[-97.7379944,30.2808881],[-97.7379835,30.2808783],[-97.7379695,30.2808722],[-97.737954,30.2808703],[-97.7379386,30.2808728],[-97.737925,30.2808796],[-97.7379146,30.2808897],[-97.7379087,30.2809023],[-97.7379078,30.2809158],[-97.737912,30.2809288],[-97.7379209,30.28094],[-97.7379335,30.280948],[-97.7379484,30.2809521],[-97.7379641,30.2809518],[-97.7379788,30.2809471],[-97.7379909,30.2809385],[-97.7379992,30.280927]]]}},{"type":"Feature","properties":{"b":"petal","band":"0.15","lyr":"solid","cap":0,"wd":"#c8c2b6","wg":"#d1c1ae","wn":"#1e1f25","base":0.0,"h":7.56,"src":"snapshot"},"geometry":{"type":"Polygon","coordinates":[[[-97.7380335,30.2808534],[-97.738034,30.2808514],[-97.7380337,30.2808493],[-97.7380327,30.2808474],[-97.738031,30.2808459],[-97.7380289,30.2808449],[-97.7380265,30.2808446],[-97.7380241,30.280845],[-97.738022,30.2808461],[-97.7380204,30.2808476],[-97.7380194,30.2808496],[-97.7380193,30.2808517],[-97.73802,30.2808537],[-97.7380213,30.2808554],[-97.7380233,30.2808567],[-97.7380256,30.2808573],[-97.738028,30.2808573],[-97.7380303,30.2808565],[-97.7380322,30.2808552],[-97.7380335,30.2808534]]]}},{"type":"Feature","properties":{"b":"petal","band":"0.34","lyr":"solid","cap":0,"wd":"#c8c2b6","wg":"#d1c1ae","wn":"#1e1f25","base":7.56,"h":9.64,"src":"snapshot"},"geometry":{"type":"Polygon","coordinates":[[[-97.7380416,30.2808563],[-97.7380428,30.2808518],[-97.7380422,30.2808472],[-97.73804,30.2808431],[-97.7380363,30.2808397],[-97.7380315,30.2808377],[-97.7380263,30.280837],[-97.738021,30.2808379],[-97.7380164,30.2808402],[-97.7380129,30.2808436],[-97.7380108,30.2808479],[-97.7380105,30.2808525],[-97.738012,30.2808569],[-97.738015,30.2808607],[-97.7380193,30.2808634],[-97.7380243,30.2808648],[-97.7380297,30.2808647],[-97.7380347,30.2808631],[-97.7380388,30.2808602],[-97.7380416,30.2808563]]]}},{"type":"Feature","properties":{"b":"petal","band":"0.65","lyr":"solid","cap":0,"wd":"#dcd7cf","wg":"#e2d3c3","wn":"#202128","base":9.64,"h":10.98,"src":"snapshot"},"geometry":{"type":"Polygon","coordinates":[[[-97.7380553,30.2808611],[-97.7380576,30.2808526],[-97.7380564,30.2808438],[-97.7380522,30.2808359],[-97.7380451,30.2808295],[-97.738036,30.2808255],[-97.7380259,30.2808243],[-97.7380159,30.2808259],[-97.738007,30.2808303],[-97.7380003,30.2808369],[-97.7379965,30.2808451],[-97.7379959,30.2808539],[-97.7379986,30.2808623],[-97.7380044,30.2808696],[-97.7380126,30.2808748],[-97.7380223,30.2808775],[-97.7380325,30.2808773],[-97.738042,30.2808742],[-97.7380499,30.2808686],[-97.7380553,30.2808611]]]}},{"type":"Feature","properties":{"b":"petal","band":"1.00","lyr":"solid","cap":0,"wd":"#dcd7cf","wg":"#e2d3c3","wn":"#202128","base":10.98,"h":12.2,"src":"snapshot"},"geometry":{"type":"Polygon","coordinates":[[[-97.7380707,30.2808666],[-97.7380742,30.2808534],[-97.7380725,30.2808399],[-97.7380659,30.2808277],[-97.738055,30.2808179],[-97.738041,30.2808118],[-97.7380255,30.2808099],[-97.7380101,30.2808124],[-97.7379965,30.2808192],[-97.7379861,30.2808293],[-97.7379802,30.2808419],[-97.7379793,30.2808554],[-97.7379835,30.2808684],[-97.7379924,30.2808796],[-97.738005,30.2808876],[-97.7380199,30.2808917],[-97.7380356,30.2808914],[-97.7380503,30.2808867],[-97.7380624,30.2808781],[-97.7380707,30.2808666]]]}},{"type":"Feature","properties":{"b":"petal","band":"0.15","lyr":"solid","cap":0,"wd":"#c8c2b6","wg":"#d1c1ae","wn":"#1e1f25","base":0.0,"h":7.56,"src":"snapshot"},"geometry":{"type":"Polygon","coordinates":[[[-97.7379872,30.2809977],[-97.7379877,30.2809957],[-97.7379874,30.2809936],[-97.7379864,30.2809917],[-97.7379847,30.2809902],[-97.7379826,30.2809892],[-97.7379802,30.2809889],[-97.7379778,30.2809893],[-97.7379757,30.2809904],[-97.7379741,30.2809919],[-97.7379731,30.2809939],[-97.737973,30.280996],[-97.7379737,30.280998],[-97.737975,30.2809997],[-97.737977,30.281001],[-97.7379793,30.2810016],[-97.7379817,30.2810016],[-97.737984,30.2810008],[-97.7379859,30.2809995],[-97.7379872,30.2809977]]]}},{"type":"Feature","properties":{"b":"petal","band":"0.34","lyr":"solid","cap":0,"wd":"#c8c2b6","wg":"#d1c1ae","wn":"#1e1f25","base":7.56,"h":9.64,"src":"snapshot"},"geometry":{"type":"Polygon","coordinates":[[[-97.7379953,30.2810006],[-97.7379965,30.2809961],[-97.7379959,30.2809915],[-97.7379937,30.2809874],[-97.73799,30.280984],[-97.7379852,30.280982],[-97.73798,30.2809813],[-97.7379747,30.2809822],[-97.7379701,30.2809845],[-97.7379666,30.2809879],[-97.7379645,30.2809922],[-97.7379642,30.2809968],[-97.7379657,30.2810012],[-97.7379687,30.281005],[-97.737973,30.2810077],[-97.737978,30.2810091],[-97.7379834,30.281009],[-97.7379884,30.2810074],[-97.7379925,30.2810045],[-97.7379953,30.2810006]]]}},{"type":"Feature","properties":{"b":"petal","band":"0.65","lyr":"solid","cap":0,"wd":"#dcd7cf","wg":"#e2d3c3","wn":"#202128","base":9.64,"h":10.98,"src":"snapshot"},"geometry":{"type":"Polygon","coordinates":[[[-97.738009,30.2810054],[-97.7380113,30.2809969],[-97.7380101,30.2809881],[-97.7380059,30.2809802],[-97.7379988,30.2809738],[-97.7379897,30.2809698],[-97.7379796,30.2809686],[-97.7379696,30.2809702],[-97.7379607,30.2809746],[-97.737954,30.2809812],[-97.7379502,30.2809894],[-97.7379496,30.2809982],[-97.7379523,30.2810066],[-97.7379581,30.2810139],[-97.7379663,30.2810191],[-97.737976,30.2810218],[-97.7379862,30.2810216],[-97.7379957,30.2810185],[-97.7380036,30.2810129],[-97.738009,30.2810054]]]}},{"type":"Feature","properties":{"b":"petal","band":"1.00","lyr":"solid","cap":0,"wd":"#dcd7cf","wg":"#e2d3c3","wn":"#202128","base":10.98,"h":12.2,"src":"snapshot"},"geometry":{"type":"Polygon","coordinates":[[[-97.7380244,30.2810109],[-97.7380279,30.2809977],[-97.7380262,30.2809842],[-97.7380196,30.280972],[-97.7380087,30.2809622],[-97.7379947,30.2809561],[-97.7379792,30.2809542],[-97.7379638,30.2809567],[-97.7379502,30.2809635],[-97.7379398,30.2809736],[-97.7379339,30.2809862],[-97.737933,30.2809997],[-97.7379372,30.2810127],[-97.7379461,30.2810239],[-97.7379587,30.2810319],[-97.7379736,30.281036],[-97.7379893,30.2810357],[-97.738004,30.281031],[-97.7380161,30.2810224],[-97.7380244,30.2810109]]]}},{"type":"Feature","properties":{"b":"petal","band":"0.15","lyr":"solid","cap":0,"wd":"#c8c2b6","wg":"#d1c1ae","wn":"#1e1f25","base":0.0,"h":7.56,"src":"snapshot"},"geometry":{"type":"Polygon","coordinates":[[[-97.7380593,30.2809359],[-97.7380598,30.2809339],[-97.7380595,30.2809318],[-97.7380585,30.2809299],[-97.7380568,30.2809284],[-97.7380547,30.2809274],[-97.7380523,30.2809271],[-97.7380499,30.2809275],[-97.7380478,30.2809286],[-97.7380462,30.2809301],[-97.7380452,30.2809321],[-97.7380451,30.2809342],[-97.7380458,30.2809362],[-97.7380471,30.2809379],[-97.7380491,30.2809392],[-97.7380514,30.2809398],[-97.7380538,30.2809398],[-97.7380561,30.280939],[-97.738058,30.2809377],[-97.7380593,30.2809359]]]}},{"type":"Feature","properties":{"b":"petal","band":"0.34","lyr":"solid","cap":0,"wd":"#c8c2b6","wg":"#d1c1ae","wn":"#1e1f25","base":7.56,"h":9.64,"src":"snapshot"},"geometry":{"type":"Polygon","coordinates":[[[-97.7380674,30.2809388],[-97.7380686,30.2809343],[-97.738068,30.2809297],[-97.7380658,30.2809256],[-97.7380621,30.2809222],[-97.7380573,30.2809202],[-97.7380521,30.2809195],[-97.7380468,30.2809204],[-97.7380422,30.2809227],[-97.7380387,30.2809261],[-97.7380366,30.2809304],[-97.7380363,30.280935],[-97.7380378,30.2809394],[-97.7380408,30.2809432],[-97.7380451,30.2809459],[-97.7380501,30.2809473],[-97.7380555,30.2809472],[-97.7380605,30.2809456],[-97.7380646,30.2809427],[-97.7380674,30.2809388]]]}},{"type":"Feature","properties":{"b":"petal","band":"0.65","lyr":"solid","cap":0,"wd":"#dcd7cf","wg":"#e2d3c3","wn":"#202128","base":9.64,"h":10.98,"src":"snapshot"},"geometry":{"type":"Polygon","coordinates":[[[-97.7380811,30.2809436],[-97.7380834,30.2809351],[-97.7380822,30.2809263],[-97.738078,30.2809184],[-97.7380709,30.280912],[-97.7380618,30.280908],[-97.7380517,30.2809068],[-97.7380417,30.2809084],[-97.7380328,30.2809128],[-97.7380261,30.2809194],[-97.7380223,30.2809276],[-97.7380217,30.2809364],[-97.7380244,30.2809448],[-97.7380302,30.2809521],[-97.7380384,30.2809573],[-97.7380481,30.28096],[-97.7380583,30.2809598],[-97.7380678,30.2809567],[-97.7380757,30.2809511],[-97.7380811,30.2809436]]]}},{"type":"Feature","properties":{"b":"petal","band":"1.00","lyr":"solid","cap":0,"wd":"#dcd7cf","wg":"#e2d3c3","wn":"#202128","base":10.98,"h":12.2,"src":"snapshot"},"geometry":{"type":"Polygon","coordinates":[[[-97.7380965,30.2809491],[-97.7381,30.2809359],[-97.7380983,30.2809224],[-97.7380917,30.2809102],[-97.7380808,30.2809004],[-97.7380668,30.2808943],[-97.7380513,30.2808924],[-97.7380359,30.2808949],[-97.7380223,30.2809017],[-97.7380119,30.2809118],[-97.738006,30.2809244],[-97.7380051,30.2809379],[-97.7380093,30.2809509],[-97.7380182,30.2809621],[-97.7380308,30.2809701],[-97.7380457,30.2809742],[-97.7380614,30.2809739],[-97.7380761,30.2809692],[-97.7380882,30.2809606],[-97.7380965,30.2809491]]]}},{"type":"Feature","properties":{"b":"petal","band":"0.15","lyr":"solid","cap":0,"wd":"#c8c2b6","wg":"#d1c1ae","wn":"#1e1f25","base":0.0,"h":7.56,"src":"snapshot"},"geometry":{"type":"Polygon","coordinates":[[[-97.7381032,30.2807933],[-97.7381037,30.2807913],[-97.7381034,30.2807892],[-97.7381024,30.2807873],[-97.7381007,30.2807858],[-97.7380986,30.2807848],[-97.7380962,30.2807845],[-97.7380938,30.2807849],[-97.7380917,30.280786],[-97.7380901,30.2807875],[-97.7380891,30.2807895],[-97.738089,30.2807916],[-97.7380897,30.2807936],[-97.738091,30.2807953],[-97.738093,30.2807966],[-97.7380953,30.2807972],[-97.7380977,30.2807972],[-97.7381,30.2807964],[-97.7381019,30.2807951],[-97.7381032,30.2807933]]]}},{"type":"Feature","properties":{"b":"petal","band":"0.34","lyr":"solid","cap":0,"wd":"#c8c2b6","wg":"#d1c1ae","wn":"#1e1f25","base":7.56,"h":9.64,"src":"snapshot"},"geometry":{"type":"Polygon","coordinates":[[[-97.7381113,30.2807962],[-97.7381125,30.2807917],[-97.7381119,30.2807871],[-97.7381097,30.280783],[-97.738106,30.2807796],[-97.7381012,30.2807776],[-97.738096,30.2807769],[-97.7380907,30.2807778],[-97.7380861,30.2807801],[-97.7380826,30.2807835],[-97.7380805,30.2807878],[-97.7380802,30.2807924],[-97.7380817,30.2807968],[-97.7380847,30.2808006],[-97.738089,30.2808033],[-97.738094,30.2808047],[-97.7380994,30.2808046],[-97.7381044,30.280803],[-97.7381085,30.2808001],[-97.7381113,30.2807962]]]}},{"type":"Feature","properties":{"b":"petal","band":"0.65","lyr":"solid","cap":0,"wd":"#dcd7cf","wg":"#e2d3c3","wn":"#202128","base":9.64,"h":10.98,"src":"snapshot"},"geometry":{"type":"Polygon","coordinates":[[[-97.738125,30.280801],[-97.7381273,30.2807925],[-97.7381261,30.2807837],[-97.7381219,30.2807758],[-97.7381148,30.2807694],[-97.7381057,30.2807654],[-97.7380956,30.2807642],[-97.7380856,30.2807658],[-97.7380767,30.2807702],[-97.73807,30.2807768],[-97.7380662,30.280785],[-97.7380656,30.2807938],[-97.7380683,30.2808022],[-97.7380741,30.2808095],[-97.7380823,30.2808147],[-97.738092,30.2808174],[-97.7381022,30.2808172],[-97.7381117,30.2808141],[-97.7381196,30.2808085],[-97.738125,30.280801]]]}},{"type":"Feature","properties":{"b":"petal","band":"1.00","lyr":"solid","cap":0,"wd":"#dcd7cf","wg":"#e2d3c3","wn":"#202128","base":10.98,"h":12.2,"src":"snapshot"},"geometry":{"type":"Polygon","coordinates":[[[-97.7381404,30.2808065],[-97.7381439,30.2807933],[-97.7381422,30.2807798],[-97.7381356,30.2807676],[-97.7381247,30.2807578],[-97.7381107,30.2807517],[-97.7380952,30.2807498],[-97.7380798,30.2807523],[-97.7380662,30.2807591],[-97.7380558,30.2807692],[-97.7380499,30.2807818],[-97.738049,30.2807953],[-97.7380532,30.2808083],[-97.7380621,30.2808195],[-97.7380747,30.2808275],[-97.7380896,30.2808316],[-97.7381053,30.2808313],[-97.73812,30.2808266],[-97.7381321,30.280818],[-97.7381404,30.2808065]]]}},{"type":"Feature","properties":{"b":"petal","band":"0.15","lyr":"solid","cap":0,"wd":"#c8c2b6","wg":"#d1c1ae","wn":"#1e1f25","base":0.0,"h":7.56,"src":"snapshot"},"geometry":{"type":"Polygon","coordinates":[[[-97.7380084,30.2807693],[-97.7380089,30.2807673],[-97.7380086,30.2807652],[-97.7380076,30.2807633],[-97.7380059,30.2807618],[-97.7380038,30.2807608],[-97.7380014,30.2807605],[-97.737999,30.2807609],[-97.7379969,30.280762],[-97.7379953,30.2807635],[-97.7379943,30.2807655],[-97.7379942,30.2807676],[-97.7379949,30.2807696],[-97.7379962,30.2807713],[-97.7379982,30.2807726],[-97.7380005,30.2807732],[-97.7380029,30.2807732],[-97.7380052,30.2807724],[-97.7380071,30.2807711],[-97.7380084,30.2807693]]]}},{"type":"Feature","properties":{"b":"petal","band":"0.34","lyr":"solid","cap":0,"wd":"#c8c2b6","wg":"#d1c1ae","wn":"#1e1f25","base":7.56,"h":9.64,"src":"snapshot"},"geometry":{"type":"Polygon","coordinates":[[[-97.7380165,30.2807722],[-97.7380177,30.2807677],[-97.7380171,30.2807631],[-97.7380149,30.280759],[-97.7380112,30.2807556],[-97.7380064,30.2807536],[-97.7380012,30.2807529],[-97.7379959,30.2807538],[-97.7379913,30.2807561],[-97.7379878,30.2807595],[-97.7379857,30.2807638],[-97.7379854,30.2807684],[-97.7379869,30.2807728],[-97.7379899,30.2807766],[-97.7379942,30.2807793],[-97.7379992,30.2807807],[-97.7380046,30.2807806],[-97.7380096,30.280779],[-97.7380137,30.2807761],[-97.7380165,30.2807722]]]}},{"type":"Feature","properties":{"b":"petal","band":"0.65","lyr":"solid","cap":0,"wd":"#dcd7cf","wg":"#e2d3c3","wn":"#202128","base":9.64,"h":10.98,"src":"snapshot"},"geometry":{"type":"Polygon","coordinates":[[[-97.7380302,30.280777],[-97.7380325,30.2807685],[-97.7380313,30.2807597],[-97.7380271,30.2807518],[-97.73802,30.2807454],[-97.7380109,30.2807414],[-97.7380008,30.2807402],[-97.7379908,30.2807418],[-97.7379819,30.2807462],[-97.7379752,30.2807528],[-97.7379714,30.280761],[-97.7379708,30.2807698],[-97.7379735,30.2807782],[-97.7379793,30.2807855],[-97.7379875,30.2807907],[-97.7379972,30.2807934],[-97.7380074,30.2807932],[-97.7380169,30.2807901],[-97.7380248,30.2807845],[-97.7380302,30.280777]]]}},{"type":"Feature","properties":{"b":"petal","band":"1.00","lyr":"solid","cap":0,"wd":"#dcd7cf","wg":"#e2d3c3","wn":"#202128","base":10.98,"h":12.2,"src":"snapshot"},"geometry":{"type":"Polygon","coordinates":[[[-97.7380456,30.2807825],[-97.7380491,30.2807693],[-97.7380474,30.2807558],[-97.7380408,30.2807436],[-97.7380299,30.2807338],[-97.7380159,30.2807277],[-97.7380004,30.2807258],[-97.737985,30.2807283],[-97.7379714,30.2807351],[-97.737961,30.2807452],[-97.7379551,30.2807578],[-97.7379542,30.2807713],[-97.7379584,30.2807843],[-97.7379673,30.2807955],[-97.7379799,30.2808035],[-97.7379948,30.2808076],[-97.7380105,30.2808073],[-97.7380252,30.2808026],[-97.7380373,30.280794],[-97.7380456,30.2807825]]]}},{"type":"Feature","properties":{"b":"petal","band":"0.15","lyr":"solid","cap":0,"wd":"#c8c2b6","wg":"#d1c1ae","wn":"#1e1f25","base":0.0,"h":7.56,"src":"snapshot"},"geometry":{"type":"Polygon","coordinates":[[[-97.7379369,30.2808283],[-97.7379374,30.2808263],[-97.7379371,30.2808242],[-97.7379361,30.2808223],[-97.7379344,30.2808208],[-97.7379323,30.2808198],[-97.7379299,30.2808195],[-97.7379275,30.2808199],[-97.7379254,30.280821],[-97.7379238,30.2808225],[-97.7379228,30.2808245],[-97.7379227,30.2808266],[-97.7379234,30.2808286],[-97.7379247,30.2808303],[-97.7379267,30.2808316],[-97.737929,30.2808322],[-97.7379314,30.2808322],[-97.7379337,30.2808314],[-97.7379356,30.2808301],[-97.7379369,30.2808283]]]}},{"type":"Feature","properties":{"b":"petal","band":"0.34","lyr":"solid","cap":0,"wd":"#c8c2b6","wg":"#d1c1ae","wn":"#1e1f25","base":7.56,"h":9.64,"src":"snapshot"},"geometry":{"type":"Polygon","coordinates":[[[-97.737945,30.2808312],[-97.7379462,30.2808267],[-97.7379456,30.2808221],[-97.7379434,30.280818],[-97.7379397,30.2808146],[-97.7379349,30.2808126],[-97.7379297,30.2808119],[-97.7379244,30.2808128],[-97.7379198,30.2808151],[-97.7379163,30.2808185],[-97.7379142,30.2808228],[-97.7379139,30.2808274],[-97.7379154,30.2808318],[-97.7379184,30.2808356],[-97.7379227,30.2808383],[-97.7379277,30.2808397],[-97.7379331,30.2808396],[-97.7379381,30.280838],[-97.7379422,30.2808351],[-97.737945,30.2808312]]]}},{"type":"Feature","properties":{"b":"petal","band":"0.65","lyr":"solid","cap":0,"wd":"#dcd7cf","wg":"#e2d3c3","wn":"#202128","base":9.64,"h":10.98,"src":"snapshot"},"geometry":{"type":"Polygon","coordinates":[[[-97.7379587,30.280836],[-97.737961,30.2808275],[-97.7379598,30.2808187],[-97.7379556,30.2808108],[-97.7379485,30.2808044],[-97.7379394,30.2808004],[-97.7379293,30.2807992],[-97.7379193,30.2808008],[-97.7379104,30.2808052],[-97.7379037,30.2808118],[-97.7378999,30.28082],[-97.7378993,30.2808288],[-97.737902,30.2808372],[-97.7379078,30.2808445],[-97.737916,30.2808497],[-97.7379257,30.2808524],[-97.7379359,30.2808522],[-97.7379454,30.2808491],[-97.7379533,30.2808435],[-97.7379587,30.280836]]]}},{"type":"Feature","properties":{"b":"petal","band":"1.00","lyr":"solid","cap":0,"wd":"#dcd7cf","wg":"#e2d3c3","wn":"#202128","base":10.98,"h":12.2,"src":"snapshot"},"geometry":{"type":"Polygon","coordinates":[[[-97.7379741,30.2808415],[-97.7379776,30.2808283],[-97.7379759,30.2808148],[-97.7379693,30.2808026],[-97.7379584,30.2807928],[-97.7379444,30.2807867],[-97.7379289,30.2807848],[-97.7379135,30.2807873],[-97.7378999,30.2807941],[-97.7378895,30.2808042],[-97.7378836,30.2808168],[-97.7378827,30.2808303],[-97.7378869,30.2808433],[-97.7378958,30.2808545],[-97.7379084,30.2808625],[-97.7379233,30.2808666],[-97.737939,30.2808663],[-97.7379537,30.2808616],[-97.7379658,30.280853],[-97.7379741,30.2808415]]]}},{"type":"Feature","properties":{"b":"petal","band":"0.15","lyr":"solid","cap":0,"wd":"#c8c2b6","wg":"#d1c1ae","wn":"#1e1f25","base":0.0,"h":7.56,"src":"snapshot"},"geometry":{"type":"Polygon","coordinates":[[[-97.7379125,30.2807467],[-97.737913,30.2807447],[-97.7379127,30.2807426],[-97.7379117,30.2807407],[-97.73791,30.2807392],[-97.7379079,30.2807382],[-97.7379055,30.2807379],[-97.7379031,30.2807383],[-97.737901,30.2807394],[-97.7378994,30.2807409],[-97.7378984,30.2807429],[-97.7378983,30.280745],[-97.737899,30.280747],[-97.7379003,30.2807487],[-97.7379023,30.28075],[-97.7379046,30.2807506],[-97.737907,30.2807506],[-97.7379093,30.2807498],[-97.7379112,30.2807485],[-97.7379125,30.2807467]]]}},{"type":"Feature","properties":{"b":"petal","band":"0.34","lyr":"solid","cap":0,"wd":"#c8c2b6","wg":"#d1c1ae","wn":"#1e1f25","base":7.56,"h":9.64,"src":"snapshot"},"geometry":{"type":"Polygon","coordinates":[[[-97.7379206,30.2807496],[-97.7379218,30.2807451],[-97.7379212,30.2807405],[-97.737919,30.2807364],[-97.7379153,30.280733],[-97.7379105,30.280731],[-97.7379053,30.2807303],[-97.7379,30.2807312],[-97.7378954,30.2807335],[-97.7378919,30.2807369],[-97.7378898,30.2807412],[-97.7378895,30.2807458],[-97.737891,30.2807502],[-97.737894,30.280754],[-97.7378983,30.2807567],[-97.7379033,30.2807581],[-97.7379087,30.280758],[-97.7379137,30.2807564],[-97.7379178,30.2807535],[-97.7379206,30.2807496]]]}},{"type":"Feature","properties":{"b":"petal","band":"0.65","lyr":"solid","cap":0,"wd":"#dcd7cf","wg":"#e2d3c3","wn":"#202128","base":9.64,"h":10.98,"src":"snapshot"},"geometry":{"type":"Polygon","coordinates":[[[-97.7379343,30.2807544],[-97.7379366,30.2807459],[-97.7379354,30.2807371],[-97.7379312,30.2807292],[-97.7379241,30.2807228],[-97.737915,30.2807188],[-97.7379049,30.2807176],[-97.7378949,30.2807192],[-97.737886,30.2807236],[-97.7378793,30.2807302],[-97.7378755,30.2807384],[-97.7378749,30.2807472],[-97.7378776,30.2807556],[-97.7378834,30.2807629],[-97.7378916,30.2807681],[-97.7379013,30.2807708],[-97.7379115,30.2807706],[-97.737921,30.2807675],[-97.7379289,30.2807619],[-97.7379343,30.2807544]]]}},{"type":"Feature","properties":{"b":"petal","band":"1.00","lyr":"solid","cap":0,"wd":"#dcd7cf","wg":"#e2d3c3","wn":"#202128","base":10.98,"h":12.2,"src":"snapshot"},"geometry":{"type":"Polygon","coordinates":[[[-97.7379497,30.2807599],[-97.7379532,30.2807467],[-97.7379515,30.2807332],[-97.7379449,30.280721],[-97.737934,30.2807112],[-97.73792,30.2807051],[-97.7379045,30.2807032],[-97.7378891,30.2807057],[-97.7378755,30.2807125],[-97.7378651,30.2807226],[-97.7378592,30.2807352],[-97.7378583,30.2807487],[-97.7378625,30.2807617],[-97.7378714,30.2807729],[-97.737884,30.2807809],[-97.7378989,30.280785],[-97.7379146,30.2807847],[-97.7379293,30.28078],[-97.7379414,30.2807714],[-97.7379497,30.2807599]]]}},{"type":"Feature","properties":{"b":"petal","band":"0.15","lyr":"solid","cap":0,"wd":"#c8c2b6","wg":"#d1c1ae","wn":"#1e1f25","base":0.0,"h":7.56,"src":"aerial"},"geometry":{"type":"Polygon","coordinates":[[[-97.7371366,30.2806676],[-97.7371369,30.2806693],[-97.7371378,30.2806709],[-97.7371392,30.2806721],[-97.737141,30.2806729],[-97.737143,30.2806732],[-97.737145,30.2806729],[-97.7371468,30.2806721],[-97.7371482,30.2806709],[-97.7371491,30.2806693],[-97.7371494,30.2806676],[-97.7371491,30.2806659],[-97.7371482,30.2806643],[-97.7371468,30.2806631],[-97.737145,30.2806623],[-97.737143,30.280662],[-97.737141,30.2806623],[-97.7371392,30.2806631],[-97.7371378,30.2806643],[-97.7371369,30.2806659],[-97.7371366,30.2806676]]]}},{"type":"Feature","properties":{"b":"petal","band":"0.34","lyr":"solid","cap":0,"wd":"#c8c2b6","wg":"#d1c1ae","wn":"#1e1f25","base":7.56,"h":9.64,"src":"aerial"},"geometry":{"type":"Polygon","coordinates":[[[-97.7371289,30.2806676],[-97.7371295,30.2806714],[-97.7371315,30.2806748],[-97.7371347,30.2806775],[-97.7371386,30.2806792],[-97.737143,30.2806798],[-97.7371474,30.2806792],[-97.7371513,30.2806775],[-97.7371545,30.2806748],[-97.7371565,30.2806714],[-97.7371571,30.2806676],[-97.7371565,30.2806638],[-97.7371545,30.2806604],[-97.7371513,30.2806577],[-97.7371474,30.280656],[-97.737143,30.2806554],[-97.7371386,30.280656],[-97.7371347,30.2806577],[-97.7371315,30.2806604],[-97.7371295,30.2806638],[-97.7371289,30.2806676]]]}},{"type":"Feature","properties":{"b":"petal","band":"0.65","lyr":"solid","cap":0,"wd":"#dcd7cf","wg":"#e2d3c3","wn":"#202128","base":9.64,"h":10.98,"src":"aerial"},"geometry":{"type":"Polygon","coordinates":[[[-97.737116,30.2806676],[-97.7371173,30.2806748],[-97.7371211,30.2806813],[-97.7371271,30.2806865],[-97.7371346,30.2806898],[-97.737143,30.2806909],[-97.7371514,30.2806898],[-97.7371589,30.2806865],[-97.7371649,30.2806813],[-97.7371687,30.2806748],[-97.73717,30.2806676],[-97.7371687,30.2806604],[-97.7371649,30.2806539],[-97.7371589,30.2806487],[-97.7371514,30.2806454],[-97.737143,30.2806443],[-97.7371346,30.2806454],[-97.7371271,30.2806487],[-97.7371211,30.2806539],[-97.7371173,30.2806604],[-97.737116,30.2806676]]]}},{"type":"Feature","properties":{"b":"petal","band":"1.00","lyr":"solid","cap":0,"wd":"#dcd7cf","wg":"#e2d3c3","wn":"#202128","base":10.98,"h":12.2,"src":"aerial"},"geometry":{"type":"Polygon","coordinates":[[[-97.7371014,30.2806676],[-97.7371034,30.2806787],[-97.7371093,30.2806887],[-97.7371185,30.2806967],[-97.7371301,30.2807018],[-97.737143,30.2807035],[-97.7371559,30.2807018],[-97.7371675,30.2806967],[-97.7371767,30.2806887],[-97.7371826,30.2806787],[-97.7371846,30.2806676],[-97.7371826,30.2806565],[-97.7371767,30.2806465],[-97.7371675,30.2806385],[-97.7371559,30.2806334],[-97.737143,30.2806317],[-97.7371301,30.2806334],[-97.7371185,30.2806385],[-97.7371093,30.2806465],[-97.7371034,30.2806565],[-97.7371014,30.2806676]]]}},{"type":"Feature","properties":{"b":"petal","band":"0.15","lyr":"solid","cap":0,"wd":"#c8c2b6","wg":"#d1c1ae","wn":"#1e1f25","base":0.0,"h":7.56,"src":"aerial"},"geometry":{"type":"Polygon","coordinates":[[[-97.7370401,30.2806699],[-97.7370404,30.2806716],[-97.7370413,30.2806732],[-97.7370427,30.2806744],[-97.7370445,30.2806752],[-97.7370465,30.2806755],[-97.7370485,30.2806752],[-97.7370503,30.2806744],[-97.7370517,30.2806732],[-97.7370526,30.2806716],[-97.7370529,30.2806699],[-97.7370526,30.2806682],[-97.7370517,30.2806666],[-97.7370503,30.2806654],[-97.7370485,30.2806646],[-97.7370465,30.2806643],[-97.7370445,30.2806646],[-97.7370427,30.2806654],[-97.7370413,30.2806666],[-97.7370404,30.2806682],[-97.7370401,30.2806699]]]}},{"type":"Feature","properties":{"b":"petal","band":"0.34","lyr":"solid","cap":0,"wd":"#c8c2b6","wg":"#d1c1ae","wn":"#1e1f25","base":7.56,"h":9.64,"src":"aerial"},"geometry":{"type":"Polygon","coordinates":[[[-97.7370324,30.2806699],[-97.737033,30.2806737],[-97.737035,30.2806771],[-97.7370382,30.2806798],[-97.7370421,30.2806815],[-97.7370465,30.2806821],[-97.7370509,30.2806815],[-97.7370548,30.2806798],[-97.737058,30.2806771],[-97.73706,30.2806737],[-97.7370606,30.2806699],[-97.73706,30.2806661],[-97.737058,30.2806627],[-97.7370548,30.28066],[-97.7370509,30.2806583],[-97.7370465,30.2806577],[-97.7370421,30.2806583],[-97.7370382,30.28066],[-97.737035,30.2806627],[-97.737033,30.2806661],[-97.7370324,30.2806699]]]}},{"type":"Feature","properties":{"b":"petal","band":"0.65","lyr":"solid","cap":0,"wd":"#dcd7cf","wg":"#e2d3c3","wn":"#202128","base":9.64,"h":10.98,"src":"aerial"},"geometry":{"type":"Polygon","coordinates":[[[-97.7370195,30.2806699],[-97.7370208,30.2806771],[-97.7370246,30.2806836],[-97.7370306,30.2806888],[-97.7370381,30.2806921],[-97.7370465,30.2806932],[-97.7370549,30.2806921],[-97.7370624,30.2806888],[-97.7370684,30.2806836],[-97.7370722,30.2806771],[-97.7370735,30.2806699],[-97.7370722,30.2806627],[-97.7370684,30.2806562],[-97.7370624,30.280651],[-97.7370549,30.2806477],[-97.7370465,30.2806466],[-97.7370381,30.2806477],[-97.7370306,30.280651],[-97.7370246,30.2806562],[-97.7370208,30.2806627],[-97.7370195,30.2806699]]]}},{"type":"Feature","properties":{"b":"petal","band":"1.00","lyr":"solid","cap":0,"wd":"#dcd7cf","wg":"#e2d3c3","wn":"#202128","base":10.98,"h":12.2,"src":"aerial"},"geometry":{"type":"Polygon","coordinates":[[[-97.7370049,30.2806699],[-97.7370069,30.280681],[-97.7370128,30.280691],[-97.737022,30.280699],[-97.7370336,30.2807041],[-97.7370465,30.2807058],[-97.7370594,30.2807041],[-97.737071,30.280699],[-97.7370802,30.280691],[-97.7370861,30.280681],[-97.7370881,30.2806699],[-97.7370861,30.2806588],[-97.7370802,30.2806488],[-97.737071,30.2806408],[-97.7370594,30.2806357],[-97.7370465,30.280634],[-97.7370336,30.2806357],[-97.737022,30.2806408],[-97.7370128,30.2806488],[-97.7370069,30.2806588],[-97.7370049,30.2806699]]]}}],"replacedBuildingIds":["d997136f-049e-4769-be88-dab62a98fac6","a5ec01b5-8575-406d-9711-1b5486b71838","8a27170d-b961-40a6-830b-1073a83dabe2","8ceb5fdd-1db2-4332-8233-2ee514093b1c","4f12c48f-87c0-4928-9c50-1d73cc590e81","31901788-06c4-440c-8b95-bf8061f074cc","f6fbb1e7-945c-47ff-8071-17af0ea713cc","8dcd88b6-50db-40d6-8913-4faa582a191c","4a7b9425-3af6-4aed-b416-9b25ee6f1e2e","b8d14732-9d80-4ec1-ab35-117321242d3a","bab781de-605a-4df3-b7d3-3e1870ef9363","15499cfe-be58-4a75-81dd-001238a5538e","476da41f-4fb8-4ac4-88d0-da3862c84378","fe5816e6-a0eb-486c-981f-86c688e84153","6939670a-b74a-4f4d-b42f-4a87d60ce91f","44e5078e-9651-49f4-8e64-6737f39a9bfb"],"authoredRoofIds":["31901788-06c4-440c-8b95-bf8061f074cc","f6fbb1e7-945c-47ff-8071-17af0ea713cc","8dcd88b6-50db-40d6-8913-4faa582a191c","4a7b9425-3af6-4aed-b416-9b25ee6f1e2e","b8d14732-9d80-4ec1-ab35-117321242d3a","bab781de-605a-4df3-b7d3-3e1870ef9363","15499cfe-be58-4a75-81dd-001238a5538e","476da41f-4fb8-4ac4-88d0-da3862c84378","fe5816e6-a0eb-486c-981f-86c688e84153","6939670a-b74a-4f4d-b42f-4a87d60ce91f","44e5078e-9651-49f4-8e64-6737f39a9bfb"]}