{"type": "FeatureCollection", "features": [{"type": "Feature", "geometry": {"type": "Point", "coordinates": [-97.7393471, 30.2860172]}, "properties": {"osm_id": "way/27397894", "colour": null, "roof_colour": null, "material": null, "roof_shape": "quadruple_saltbox", "name": "Main Building"}}, {"type": "Feature", "geometry": {"type": "Point", "coordinates": [-97.7366592, 30.2857668]}, "properties": {"osm_id": "way/79457840", "colour": null, "roof_colour": null, "material": null, "roof_shape": "hipped", "name": "E. P. Schoch Building"}}, {"type": "Feature", "geometry": {"type": "Point", "coordinates": [-97.73667, 30.2852053]}, "properties": {"osm_id": "way/79457842", "colour": null, "roof_colour": null, "material": null, "roof_shape": "hipped", "name": "Bernard and Audre Rapoport Building"}}, {"type": "Feature", "geometry": {"type": "Point", "coordinates": [-97.7388236, 30.2830955]}, "properties": {"osm_id": "way/172047490", "colour": null, "roof_colour": null, "material": null, "roof_shape": "flat", "name": "University Teaching Center"}}, {"type": "Feature", "geometry": {"type": "Point", "coordinates": [-97.7407973, 30.2849438]}, "properties": {"osm_id": "way/656119772", "colour": "#deb887", "roof_colour": "#872e08", "material": null, "roof_shape": "hipped", "name": "Sutton Hall"}}]}