{"type":"FeatureCollection","features":[{"type":"Feature","geometry":{"type":"Polygon","coordinates":[[[-97.7401167,30.2748688],[-97.7401167,30.2748688],[-97.7401167,30.2748688],[-97.7401167,30.2748688],[-97.7401167,30.2748688],[-97.7401167,30.2748688],[-97.7401167,30.2748688],[-97.7401167,30.2748688],[-97.7401167,30.2748688],[-97.7401167,30.2748688],[-97.7405744,30.2748688],[-97.7405744,30.2748688],[-97.7405744,30.2748688],[-97.7405744,30.2748688],[-97.7405744,30.2748688],[-97.7405744,30.2748688],[-97.7405744,30.2748688],[-97.7405744,30.2748688],[-97.7405744,30.2748688],[-97.7405744,30.2748688],[-97.7405744,30.2744735],[-97.7405744,30.2744735],[-97.7405744,30.2744735],[-97.7405744,30.2744735],[-97.7405744,30.2744735],[-97.7405744,30.2744735],[-97.7405744,30.2744735],[-97.7405744,30.2744735],[-97.7405744,30.2744735],[-97.7405744,30.2744735],[-97.7401167,30.2744735],[-97.7401167,30.2744735],[-97.7401167,30.2744735],[-97.7401167,30.2744735],[-97.7401167,30.2744735],[-97.7401167,30.2744735],[-97.7401167,30.2744735],[-97.7401167,30.2744735],[-97.7401167,30.2744735],[-97.7401167,30.2744735],[-97.7401167,30.2748688]]]},"properties":{"wd":"#a4746a","wg":"#b37e6a","wn":"#c58759","rd":"#a4746a","rg":"#b8826a","rn":"#bc7c51","h":35.78,"base":35.0,"part":"skirt"}},{"type":"Feature","geometry":{"type":"Polygon","coordinates":[[[-97.7401244,30.2748326],[-97.7401248,30.2748372],[-97.7401261,30.2748417],[-97.7401281,30.274846],[-97.7401309,30.2748499],[-97.7401344,30.2748535],[-97.7401385,30.2748565],[-97.7401431,30.2748589],[-97.740148,30.2748607],[-97.7401532,30.2748617],[-97.7405325,30.2748621],[-97.7405379,30.2748617],[-97.7405431,30.2748607],[-97.740548,30.2748589],[-97.7405526,30.2748565],[-97.7405567,30.2748535],[-97.7405602,30.2748499],[-97.740563,30.274846],[-97.740565,30.2748417],[-97.7405663,30.2748372],[-97.7405667,30.2745097],[-97.7405663,30.2745051],[-97.740565,30.2745006],[-97.740563,30.2744963],[-97.7405602,30.2744924],[-97.7405567,30.2744888],[-97.7405526,30.2744858],[-97.740548,30.2744834],[-97.7405431,30.2744816],[-97.7405379,30.2744806],[-97.7401586,30.2744802],[-97.7401532,30.2744806],[-97.740148,30.2744816],[-97.7401431,30.2744834],[-97.7401385,30.2744858],[-97.7401344,30.2744888],[-97.7401309,30.2744924],[-97.7401281,30.2744963],[-97.7401261,30.2745006],[-97.7401248,30.2745051],[-97.7401244,30.2748326]]]},"properties":{"wd":"#a4746a","wg":"#b37e6a","wn":"#c58759","rd":"#a4746a","rg":"#b8826a","rn":"#bc7c51","h":36.56,"base":35.78,"part":"skirt"}},{"type":"Feature","geometry":{"type":"Polygon","coordinates":[[[-97.7401321,30.2748042],[-97.7401329,30.2748122],[-97.740135,30.27482],[-97.7401386,30.2748275],[-97.7401435,30.2748343],[-97.7401495,30.2748405],[-97.7401566,30.2748457],[-97.7401646,30.2748499],[-97.7401732,30.274853],[-97.7401823,30.2748549],[-97.7404996,30.2748555],[-97.7405088,30.2748549],[-97.7405179,30.274853],[-97.7405265,30.2748499],[-97.7405345,30.2748457],[-97.7405416,30.2748405],[-97.7405476,30.2748343],[-97.7405525,30.2748275],[-97.7405561,30.27482],[-97.7405583,30.2748122],[-97.740559,30.2745381],[-97.7405583,30.2745301],[-97.7405561,30.2745223],[-97.7405525,30.2745148],[-97.7405476,30.274508],[-97.7405416,30.2745018],[-97.7405345,30.2744966],[-97.7405265,30.2744924],[-97.7405179,30.2744893],[-97.7405088,30.2744874],[-97.7401916,30.2744868],[-97.7401823,30.2744874],[-97.7401732,30.2744893],[-97.7401646,30.2744924],[-97.7401566,30.2744966],[-97.7401495,30.2745018],[-97.7401435,30.274508],[-97.7401386,30.2745148],[-97.740135,30.2745223],[-97.7401329,30.2745301],[-97.7401321,30.2748042]]]},"properties":{"wd":"#a4746a","wg":"#b37e6a","wn":"#c58759","rd":"#a4746a","rg":"#b8826a","rn":"#bc7c51","h":37.33,"base":36.56,"part":"skirt"}},{"type":"Feature","geometry":{"type":"Polygon","coordinates":[[[-97.7401398,30.274779],[-97.7401408,30.2747899],[-97.7401438,30.2748006],[-97.7401486,30.2748107],[-97.7401552,30.27482],[-97.7401635,30.2748284],[-97.7401731,30.2748355],[-97.740184,30.2748412],[-97.7401957,30.2748454],[-97.740208,30.2748479],[-97.7404704,30.2748488],[-97.7404831,30.2748479],[-97.7404954,30.2748454],[-97.7405071,30.2748412],[-97.740518,30.2748355],[-97.7405276,30.2748284],[-97.7405359,30.27482],[-97.7405425,30.2748107],[-97.7405473,30.2748006],[-97.7405503,30.2747899],[-97.7405513,30.2745633],[-97.7405503,30.2745524],[-97.7405473,30.2745418],[-97.7405425,30.2745316],[-97.7405359,30.2745223],[-97.7405276,30.2745139],[-97.740518,30.2745068],[-97.7405071,30.2745011],[-97.7404954,30.2744969],[-97.7404831,30.2744944],[-97.7402207,30.2744935],[-97.740208,30.2744944],[-97.7401957,30.2744969],[-97.740184,30.2745011],[-97.7401731,30.2745068],[-97.7401635,30.2745139],[-97.7401552,30.2745223],[-97.7401486,30.2745316],[-97.7401438,30.2745418],[-97.7401408,30.2745524],[-97.7401398,30.274779]]]},"properties":{"wd":"#a4746a","wg":"#b37e6a","wn":"#c58759","rd":"#a4746a","rg":"#b8826a","rn":"#bc7c51","h":38.11,"base":37.33,"part":"skirt"}},{"type":"Feature","geometry":{"type":"Polygon","coordinates":[[[-97.7401475,30.2747564],[-97.7401488,30.2747698],[-97.7401524,30.2747829],[-97.7401583,30.2747953],[-97.7401665,30.2748068],[-97.7401766,30.2748171],[-97.7401885,30.2748258],[-97.7402018,30.2748328],[-97.7402162,30.274838],[-97.7402314,30.2748411],[-97.7404442,30.2748422],[-97.7404597,30.2748411],[-97.7404749,30.274838],[-97.7404893,30.2748328],[-97.7405026,30.2748258],[-97.7405145,30.2748171],[-97.7405246,30.2748068],[-97.7405328,30.2747953],[-97.7405387,30.2747829],[-97.7405423,30.2747698],[-97.7405436,30.274586],[-97.7405423,30.2745726],[-97.7405387,30.2745595],[-97.7405328,30.274547],[-97.7405246,30.2745355],[-97.7405145,30.2745253],[-97.7405026,30.2745166],[-97.7404893,30.2745095],[-97.7404749,30.2745044],[-97.7404597,30.2745013],[-97.7402469,30.2745002],[-97.7402314,30.2745013],[-97.7402162,30.2745044],[-97.7402018,30.2745095],[-97.7401885,30.2745166],[-97.7401766,30.2745253],[-97.7401665,30.2745355],[-97.7401583,30.274547],[-97.7401524,30.2745595],[-97.7401488,30.2745726],[-97.7401475,30.2747564]]]},"properties":{"wd":"#a4746a","wg":"#b37e6a","wn":"#c58759","rd":"#a4746a","rg":"#b8826a","rn":"#bc7c51","h":38.89,"base":38.11,"part":"skirt"}},{"type":"Feature","geometry":{"type":"Polygon","coordinates":[[[-97.7401553,30.2747358],[-97.7401567,30.2747514],[-97.7401609,30.2747666],[-97.7401679,30.2747811],[-97.7401773,30.2747944],[-97.7401891,30.2748063],[-97.7402029,30.2748164],[-97.7402183,30.2748246],[-97.7402351,30.2748306],[-97.7402527,30.2748343],[-97.7404204,30.2748355],[-97.7404385,30.2748343],[-97.7404561,30.2748306],[-97.7404729,30.2748246],[-97.7404883,30.2748164],[-97.740502,30.2748063],[-97.7405138,30.2747944],[-97.7405233,30.2747811],[-97.7405302,30.2747666],[-97.7405344,30.2747514],[-97.7405359,30.2746066],[-97.7405344,30.2745909],[-97.7405302,30.2745757],[-97.7405233,30.2745612],[-97.7405138,30.2745479],[-97.740502,30.274536],[-97.7404883,30.2745259],[-97.7404729,30.2745177],[-97.7404561,30.2745117],[-97.7404385,30.274508],[-97.7402708,30.2745068],[-97.7402527,30.274508],[-97.7402351,30.2745117],[-97.7402183,30.2745177],[-97.7402029,30.2745259],[-97.7401891,30.274536],[-97.7401773,30.2745479],[-97.7401679,30.2745612],[-97.7401609,30.2745757],[-97.7401567,30.2745909],[-97.7401553,30.2747358]]]},"properties":{"wd":"#a4746a","wg":"#b37e6a","wn":"#c58759","rd":"#a4746a","rg":"#b8826a","rn":"#bc7c51","h":39.67,"base":38.89,"part":"skirt"}},{"type":"Feature","geometry":{"type":"Polygon","coordinates":[[[-97.740163,30.2747171],[-97.7401646,30.2747346],[-97.7401693,30.2747516],[-97.7401771,30.2747678],[-97.7401877,30.2747827],[-97.7402008,30.2747961],[-97.7402163,30.2748075],[-97.7402336,30.2748167],[-97.7402523,30.2748233],[-97.7402721,30.2748275],[-97.7403988,30.2748288],[-97.740419,30.2748275],[-97.7404388,30.2748233],[-97.7404575,30.2748167],[-97.7404748,30.2748075],[-97.7404903,30.2747961],[-97.7405034,30.2747827],[-97.740514,30.2747678],[-97.7405218,30.2747516],[-97.7405265,30.2747346],[-97.7405281,30.2746252],[-97.7405265,30.2746077],[-97.7405218,30.2745907],[-97.740514,30.2745745],[-97.7405034,30.2745596],[-97.7404903,30.2745462],[-97.7404748,30.2745348],[-97.7404575,30.2745257],[-97.7404388,30.274519],[-97.740419,30.2745148],[-97.7402924,30.2745135],[-97.7402721,30.2745148],[-97.7402523,30.274519],[-97.7402336,30.2745257],[-97.7402163,30.2745348],[-97.7402008,30.2745462],[-97.7401877,30.2745596],[-97.7401771,30.2745745],[-97.7401693,30.2745907],[-97.7401646,30.2746077],[-97.740163,30.2747171]]]},"properties":{"wd":"#a4746a","wg":"#b37e6a","wn":"#c58759","rd":"#a4746a","rg":"#b8826a","rn":"#bc7c51","h":40.44,"base":39.67,"part":"skirt"}},{"type":"Feature","geometry":{"type":"Polygon","coordinates":[[[-97.7401707,30.2747002],[-97.7401724,30.2747193],[-97.7401776,30.2747379],[-97.740186,30.2747556],[-97.7401977,30.2747719],[-97.7402121,30.2747865],[-97.7402289,30.2747989],[-97.7402478,30.2748089],[-97.7402683,30.2748162],[-97.7402898,30.2748207],[-97.7403792,30.2748222],[-97.7404013,30.2748207],[-97.7404228,30.2748162],[-97.7404433,30.2748089],[-97.7404622,30.2747989],[-97.740479,30.2747865],[-97.7404934,30.2747719],[-97.7405051,30.2747556],[-97.7405135,30.2747379],[-97.7405187,30.2747193],[-97.7405204,30.2746421],[-97.7405187,30.274623],[-97.7405135,30.2746044],[-97.7405051,30.2745867],[-97.7404934,30.2745704],[-97.740479,30.2745559],[-97.7404622,30.2745434],[-97.7404433,30.2745334],[-97.7404228,30.2745261],[-97.7404013,30.2745216],[-97.740312,30.2745201],[-97.7402898,30.2745216],[-97.7402683,30.2745261],[-97.7402478,30.2745334],[-97.7402289,30.2745434],[-97.7402121,30.2745559],[-97.7401977,30.2745704],[-97.740186,30.2745867],[-97.7401776,30.2746044],[-97.7401724,30.274623],[-97.7401707,30.2747002]]]},"properties":{"wd":"#a4746a","wg":"#b37e6a","wn":"#c58759","rd":"#a4746a","rg":"#b8826a","rn":"#bc7c51","h":41.22,"base":40.44,"part":"skirt"}},{"type":"Feature","geometry":{"type":"Polygon","coordinates":[[[-97.7401784,30.2746849],[-97.7401802,30.2747053],[-97.7401858,30.2747253],[-97.7401949,30.2747442],[-97.7402073,30.2747617],[-97.7402226,30.2747772],[-97.7402407,30.2747906],[-97.740261,30.2748013],[-97.7402829,30.2748092],[-97.740306,30.274814],[-97.7403615,30.2748155],[-97.7403851,30.274814],[-97.7404082,30.2748092],[-97.7404302,30.2748013],[-97.7404504,30.2747906],[-97.7404685,30.2747772],[-97.7404838,30.2747617],[-97.7404962,30.2747442],[-97.7405054,30.2747253],[-97.7405109,30.2747053],[-97.7405127,30.2746574],[-97.7405109,30.274637],[-97.7405054,30.274617],[-97.7404962,30.2745981],[-97.7404838,30.2745806],[-97.7404685,30.2745651],[-97.7404504,30.2745518],[-97.7404302,30.274541],[-97.7404082,30.2745331],[-97.7403851,30.2745284],[-97.7403297,30.2745268],[-97.740306,30.2745284],[-97.7402829,30.2745331],[-97.740261,30.274541],[-97.7402407,30.2745518],[-97.7402226,30.2745651],[-97.7402073,30.2745806],[-97.7401949,30.2745981],[-97.7401858,30.274617],[-97.7401802,30.274637],[-97.7401784,30.2746849]]]},"properties":{"wd":"#a4746a","wg":"#b37e6a","wn":"#c58759","rd":"#a4746a","rg":"#b8826a","rn":"#bc7c51","h":42.0,"base":41.22,"part":"skirt"}},{"type":"Feature","geometry":{"type":"Polygon","coordinates":[[[-97.7402084,30.2746712],[-97.7402101,30.2746897],[-97.7402151,30.2747078],[-97.7402234,30.2747249],[-97.7402346,30.2747408],[-97.7402486,30.2747549],[-97.7402649,30.274767],[-97.7402833,30.2747767],[-97.7403032,30.2747838],[-97.7403241,30.2747881],[-97.7403456,30.2747896],[-97.740367,30.2747881],[-97.7403879,30.2747838],[-97.7404078,30.2747767],[-97.7404262,30.274767],[-97.7404425,30.2747549],[-97.7404565,30.2747408],[-97.7404678,30.2747249],[-97.740476,30.2747078],[-97.740481,30.2746897],[-97.7404827,30.2746712],[-97.740481,30.2746526],[-97.740476,30.2746346],[-97.7404678,30.2746174],[-97.7404565,30.2746015],[-97.7404425,30.2745874],[-97.7404262,30.2745753],[-97.7404078,30.2745656],[-97.7403879,30.2745585],[-97.740367,30.2745542],[-97.7403456,30.2745527],[-97.7403241,30.2745542],[-97.7403032,30.2745585],[-97.7402833,30.2745656],[-97.7402649,30.2745753],[-97.7402486,30.2745874],[-97.7402346,30.2746015],[-97.7402234,30.2746174],[-97.7402151,30.2746346],[-97.7402101,30.2746526],[-97.7402084,30.2746712]]]},"properties":{"wd":"#bd8477","wg":"#c88b75","wn":"#d38e5e","rd":"#a8ab9d","rg":"#bbad92","rn":"#bb9f6f","h":60.0,"base":42.0,"part":"drum"}},{"type":"Feature","geometry":{"type":"Polygon","coordinates":[[[-97.740182,30.2746788],[-97.7401997,30.2746788],[-97.7401997,30.2746635],[-97.740182,30.2746635],[-97.740182,30.2746788]]]},"properties":{"wd":"#d2b0a3","wg":"#d9b09a","wn":"#dea673","rd":"#d2b0a3","rg":"#dcb096","rn":"#da9e6b","h":58.4,"base":43.5,"part":"column"}},{"type":"Feature","geometry":{"type":"Polygon","coordinates":[[[-97.7401899,30.2747151],[-97.740207,30.2747111],[-97.7402024,30.2746964],[-97.7401853,30.2747003],[-97.7401899,30.2747151]]]},"properties":{"wd":"#d2b0a3","wg":"#d9b09a","wn":"#dea673","rd":"#d2b0a3","rg":"#dcb096","rn":"#da9e6b","h":58.4,"base":43.5,"part":"column"}},{"type":"Feature","geometry":{"type":"Polygon","coordinates":[[[-97.7402084,30.2747484],[-97.7402237,30.2747407],[-97.7402148,30.2747275],[-97.7401995,30.2747352],[-97.7402084,30.2747484]]]},"properties":{"wd":"#d2b0a3","wg":"#d9b09a","wn":"#dea673","rd":"#d2b0a3","rg":"#dcb096","rn":"#da9e6b","h":58.4,"base":43.5,"part":"column"}},{"type":"Feature","geometry":{"type":"Polygon","coordinates":[[[-97.7402362,30.2747764],[-97.7402487,30.2747656],[-97.7402362,30.2747548],[-97.7402237,30.2747656],[-97.7402362,30.2747764]]]},"properties":{"wd":"#d2b0a3","wg":"#d9b09a","wn":"#dea673","rd":"#d2b0a3","rg":"#dcb096","rn":"#da9e6b","h":58.4,"base":43.5,"part":"column"}},{"type":"Feature","geometry":{"type":"Polygon","coordinates":[[[-97.7402715,30.2747973],[-97.7402803,30.2747841],[-97.740265,30.2747764],[-97.7402561,30.2747896],[-97.7402715,30.2747973]]]},"properties":{"wd":"#d2b0a3","wg":"#d9b09a","wn":"#dea673","rd":"#d2b0a3","rg":"#dcb096","rn":"#da9e6b","h":58.4,"base":43.5,"part":"column"}},{"type":"Feature","geometry":{"type":"Polygon","coordinates":[[[-97.7403118,30.2748095],[-97.7403164,30.2747948],[-97.7402993,30.2747908],[-97.7402947,30.2748056],[-97.7403118,30.2748095]]]},"properties":{"wd":"#d2b0a3","wg":"#d9b09a","wn":"#dea673","rd":"#d2b0a3","rg":"#dcb096","rn":"#da9e6b","h":58.4,"base":43.5,"part":"column"}},{"type":"Feature","geometry":{"type":"Polygon","coordinates":[[[-97.7403544,30.2748124],[-97.7403544,30.2747971],[-97.7403367,30.2747971],[-97.7403367,30.2748124],[-97.7403544,30.2748124]]]},"properties":{"wd":"#d2b0a3","wg":"#d9b09a","wn":"#dea673","rd":"#d2b0a3","rg":"#dcb096","rn":"#da9e6b","h":58.4,"base":43.5,"part":"column"}},{"type":"Feature","geometry":{"type":"Polygon","coordinates":[[[-97.7403964,30.2748056],[-97.7403918,30.2747908],[-97.7403748,30.2747948],[-97.7403793,30.2748095],[-97.7403964,30.2748056]]]},"properties":{"wd":"#d2b0a3","wg":"#d9b09a","wn":"#dea673","rd":"#d2b0a3","rg":"#dcb096","rn":"#da9e6b","h":58.4,"base":43.5,"part":"column"}},{"type":"Feature","geometry":{"type":"Polygon","coordinates":[[[-97.740435,30.2747896],[-97.7404261,30.2747764],[-97.7404108,30.2747841],[-97.7404197,30.2747973],[-97.740435,30.2747896]]]},"properties":{"wd":"#d2b0a3","wg":"#d9b09a","wn":"#dea673","rd":"#d2b0a3","rg":"#dcb096","rn":"#da9e6b","h":58.4,"base":43.5,"part":"column"}},{"type":"Feature","geometry":{"type":"Polygon","coordinates":[[[-97.7404674,30.2747656],[-97.7404549,30.2747548],[-97.7404424,30.2747656],[-97.7404549,30.2747764],[-97.7404674,30.2747656]]]},"properties":{"wd":"#d2b0a3","wg":"#d9b09a","wn":"#dea673","rd":"#d2b0a3","rg":"#dcb096","rn":"#da9e6b","h":58.4,"base":43.5,"part":"column"}},{"type":"Feature","geometry":{"type":"Polygon","coordinates":[[[-97.7404916,30.2747352],[-97.7404763,30.2747275],[-97.7404674,30.2747407],[-97.7404828,30.2747484],[-97.7404916,30.2747352]]]},"properties":{"wd":"#d2b0a3","wg":"#d9b09a","wn":"#dea673","rd":"#d2b0a3","rg":"#dcb096","rn":"#da9e6b","h":58.4,"base":43.5,"part":"column"}},{"type":"Feature","geometry":{"type":"Polygon","coordinates":[[[-97.7405058,30.2747003],[-97.7404887,30.2746964],[-97.7404841,30.2747111],[-97.7405012,30.2747151],[-97.7405058,30.2747003]]]},"properties":{"wd":"#d2b0a3","wg":"#d9b09a","wn":"#dea673","rd":"#d2b0a3","rg":"#dcb096","rn":"#da9e6b","h":58.4,"base":43.5,"part":"column"}},{"type":"Feature","geometry":{"type":"Polygon","coordinates":[[[-97.7405091,30.2746635],[-97.7404914,30.2746635],[-97.7404914,30.2746788],[-97.7405091,30.2746788],[-97.7405091,30.2746635]]]},"properties":{"wd":"#d2b0a3","wg":"#d9b09a","wn":"#dea673","rd":"#d2b0a3","rg":"#dcb096","rn":"#da9e6b","h":58.4,"base":43.5,"part":"column"}},{"type":"Feature","geometry":{"type":"Polygon","coordinates":[[[-97.7405012,30.2746272],[-97.7404841,30.2746312],[-97.7404887,30.2746459],[-97.7405058,30.274642],[-97.7405012,30.2746272]]]},"properties":{"wd":"#d2b0a3","wg":"#d9b09a","wn":"#dea673","rd":"#d2b0a3","rg":"#dcb096","rn":"#da9e6b","h":58.4,"base":43.5,"part":"column"}},{"type":"Feature","geometry":{"type":"Polygon","coordinates":[[[-97.7404828,30.2745939],[-97.7404674,30.2746016],[-97.7404763,30.2746148],[-97.7404916,30.2746072],[-97.7404828,30.2745939]]]},"properties":{"wd":"#d2b0a3","wg":"#d9b09a","wn":"#dea673","rd":"#d2b0a3","rg":"#dcb096","rn":"#da9e6b","h":58.4,"base":43.5,"part":"column"}},{"type":"Feature","geometry":{"type":"Polygon","coordinates":[[[-97.7404549,30.2745659],[-97.7404424,30.2745767],[-97.7404549,30.2745875],[-97.7404674,30.2745767],[-97.7404549,30.2745659]]]},"properties":{"wd":"#d2b0a3","wg":"#d9b09a","wn":"#dea673","rd":"#d2b0a3","rg":"#dcb096","rn":"#da9e6b","h":58.4,"base":43.5,"part":"column"}},{"type":"Feature","geometry":{"type":"Polygon","coordinates":[[[-97.7404197,30.274545],[-97.7404108,30.2745583],[-97.7404261,30.2745659],[-97.740435,30.2745527],[-97.7404197,30.274545]]]},"properties":{"wd":"#d2b0a3","wg":"#d9b09a","wn":"#dea673","rd":"#d2b0a3","rg":"#dcb096","rn":"#da9e6b","h":58.4,"base":43.5,"part":"column"}},{"type":"Feature","geometry":{"type":"Polygon","coordinates":[[[-97.7403793,30.2745328],[-97.7403748,30.2745475],[-97.7403918,30.2745515],[-97.7403964,30.2745367],[-97.7403793,30.2745328]]]},"properties":{"wd":"#d2b0a3","wg":"#d9b09a","wn":"#dea673","rd":"#d2b0a3","rg":"#dcb096","rn":"#da9e6b","h":58.4,"base":43.5,"part":"column"}},{"type":"Feature","geometry":{"type":"Polygon","coordinates":[[[-97.7403367,30.2745299],[-97.7403367,30.2745452],[-97.7403544,30.2745452],[-97.7403544,30.2745299],[-97.7403367,30.2745299]]]},"properties":{"wd":"#d2b0a3","wg":"#d9b09a","wn":"#dea673","rd":"#d2b0a3","rg":"#dcb096","rn":"#da9e6b","h":58.4,"base":43.5,"part":"column"}},{"type":"Feature","geometry":{"type":"Polygon","coordinates":[[[-97.7402947,30.2745367],[-97.7402993,30.2745515],[-97.7403164,30.2745475],[-97.7403118,30.2745328],[-97.7402947,30.2745367]]]},"properties":{"wd":"#d2b0a3","wg":"#d9b09a","wn":"#dea673","rd":"#d2b0a3","rg":"#dcb096","rn":"#da9e6b","h":58.4,"base":43.5,"part":"column"}},{"type":"Feature","geometry":{"type":"Polygon","coordinates":[[[-97.7402561,30.2745527],[-97.740265,30.2745659],[-97.7402803,30.2745583],[-97.7402715,30.274545],[-97.7402561,30.2745527]]]},"properties":{"wd":"#d2b0a3","wg":"#d9b09a","wn":"#dea673","rd":"#d2b0a3","rg":"#dcb096","rn":"#da9e6b","h":58.4,"base":43.5,"part":"column"}},{"type":"Feature","geometry":{"type":"Polygon","coordinates":[[[-97.7402237,30.2745767],[-97.7402362,30.2745875],[-97.7402487,30.2745767],[-97.7402362,30.2745659],[-97.7402237,30.2745767]]]},"properties":{"wd":"#d2b0a3","wg":"#d9b09a","wn":"#dea673","rd":"#d2b0a3","rg":"#dcb096","rn":"#da9e6b","h":58.4,"base":43.5,"part":"column"}},{"type":"Feature","geometry":{"type":"Polygon","coordinates":[[[-97.7401995,30.2746072],[-97.7402148,30.2746148],[-97.7402237,30.2746016],[-97.7402084,30.2745939],[-97.7401995,30.2746072]]]},"properties":{"wd":"#d2b0a3","wg":"#d9b09a","wn":"#dea673","rd":"#d2b0a3","rg":"#dcb096","rn":"#da9e6b","h":58.4,"base":43.5,"part":"column"}},{"type":"Feature","geometry":{"type":"Polygon","coordinates":[[[-97.7401853,30.274642],[-97.7402024,30.2746459],[-97.740207,30.2746312],[-97.7401899,30.2746272],[-97.7401853,30.274642]]]},"properties":{"wd":"#d2b0a3","wg":"#d9b09a","wn":"#dea673","rd":"#d2b0a3","rg":"#dcb096","rn":"#da9e6b","h":58.4,"base":43.5,"part":"column"}},{"type":"Feature","geometry":{"type":"Polygon","coordinates":[[[-97.7401781,30.2746712],[-97.7401802,30.2746938],[-97.7401863,30.2747158],[-97.7401964,30.2747368],[-97.7402101,30.2747562],[-97.7402272,30.2747734],[-97.7402471,30.2747881],[-97.7402695,30.2748],[-97.7402938,30.2748087],[-97.7403194,30.274814],[-97.7403456,30.2748158],[-97.7403718,30.274814],[-97.7403973,30.2748087],[-97.7404216,30.2748],[-97.740444,30.2747881],[-97.740464,30.2747734],[-97.740481,30.2747562],[-97.7404947,30.2747368],[-97.7405048,30.2747158],[-97.7405109,30.2746938],[-97.740513,30.2746712],[-97.7405109,30.2746485],[-97.7405048,30.2746265],[-97.7404947,30.2746055],[-97.740481,30.2745862],[-97.740464,30.2745689],[-97.740444,30.2745542],[-97.7404216,30.2745423],[-97.7403973,30.2745336],[-97.7403718,30.2745283],[-97.7403456,30.2745266],[-97.7403194,30.2745283],[-97.7402938,30.2745336],[-97.7402695,30.2745423],[-97.7402471,30.2745542],[-97.7402272,30.2745689],[-97.7402101,30.2745862],[-97.7401964,30.2746055],[-97.7401863,30.2746265],[-97.7401802,30.2746485],[-97.7401781,30.2746712]]]},"properties":{"wd":"#d2b0a3","wg":"#d9b09a","wn":"#dea673","rd":"#a8ab9d","rg":"#bbad92","rn":"#bb9f6f","h":60.0,"base":58.4,"part":"cornice"}},{"type":"Feature","geometry":{"type":"Polygon","coordinates":[[[-97.7401893,30.2746712],[-97.7401917,30.2746946],[-97.7401987,30.2747173],[-97.7402102,30.2747386],[-97.7402258,30.2747579],[-97.7402451,30.2747745],[-97.7402674,30.274788],[-97.7402921,30.274798],[-97.7403184,30.2748041],[-97.7403456,30.2748061],[-97.7403727,30.2748041],[-97.740399,30.274798],[-97.7404237,30.274788],[-97.740446,30.2747745],[-97.7404653,30.2747579],[-97.7404809,30.2747386],[-97.7404924,30.2747173],[-97.7404995,30.2746946],[-97.7405018,30.2746712],[-97.7404995,30.2746477],[-97.7404924,30.274625],[-97.7404809,30.2746037],[-97.7404653,30.2745844],[-97.740446,30.2745678],[-97.7404237,30.2745543],[-97.740399,30.2745443],[-97.7403727,30.2745382],[-97.7403456,30.2745362],[-97.7403184,30.2745382],[-97.7402921,30.2745443],[-97.7402674,30.2745543],[-97.7402451,30.2745678],[-97.7402258,30.2745844],[-97.7402102,30.2746037],[-97.7401987,30.274625],[-97.7401917,30.2746477],[-97.7401893,30.2746712]]]},"properties":{"wd":"#d2b0a3","wg":"#d9b09a","wn":"#dea673","rd":"#a8ab9d","rg":"#bbad92","rn":"#bb9f6f","h":60.83,"base":60.0,"part":"dome"}},{"type":"Feature","geometry":{"type":"Polygon","coordinates":[[[-97.7401896,30.2746712],[-97.740192,30.2746945],[-97.740199,30.2747172],[-97.7402105,30.2747385],[-97.7402261,30.2747577],[-97.7402453,30.2747743],[-97.7402676,30.2747878],[-97.7402922,30.2747977],[-97.7403185,30.2748038],[-97.7403456,30.2748058],[-97.7403726,30.2748038],[-97.7403989,30.2747977],[-97.7404235,30.2747878],[-97.7404458,30.2747743],[-97.740465,30.2747577],[-97.7404806,30.2747385],[-97.7404921,30.2747172],[-97.7404991,30.2746945],[-97.7405015,30.2746712],[-97.7404991,30.2746478],[-97.7404921,30.2746251],[-97.7404806,30.2746038],[-97.740465,30.2745846],[-97.7404458,30.274568],[-97.7404235,30.2745545],[-97.7403989,30.2745446],[-97.7403726,30.2745385],[-97.7403456,30.2745365],[-97.7403185,30.2745385],[-97.7402922,30.2745446],[-97.7402676,30.2745545],[-97.7402453,30.274568],[-97.7402261,30.2745846],[-97.7402105,30.2746038],[-97.740199,30.2746251],[-97.740192,30.2746478],[-97.7401896,30.2746712]]]},"properties":{"wd":"#d2b0a3","wg":"#d9b09a","wn":"#dea673","rd":"#a8ab9d","rg":"#bbad92","rn":"#bb9f6f","h":61.67,"base":60.83,"part":"dome"}},{"type":"Feature","geometry":{"type":"Polygon","coordinates":[[[-97.7401907,30.2746712],[-97.740193,30.2746944],[-97.7402,30.2747169],[-97.7402114,30.274738],[-97.7402269,30.2747571],[-97.740246,30.2747736],[-97.7402681,30.274787],[-97.7402926,30.2747968],[-97.7403187,30.2748029],[-97.7403456,30.2748049],[-97.7403724,30.2748029],[-97.7403985,30.2747968],[-97.740423,30.274787],[-97.7404451,30.2747736],[-97.7404642,30.2747571],[-97.7404797,30.274738],[-97.7404911,30.2747169],[-97.7404981,30.2746944],[-97.7405004,30.2746712],[-97.7404981,30.2746479],[-97.7404911,30.2746254],[-97.7404797,30.2746043],[-97.7404642,30.2745852],[-97.7404451,30.2745687],[-97.740423,30.2745553],[-97.7403985,30.2745455],[-97.7403724,30.2745394],[-97.7403456,30.2745374],[-97.7403187,30.2745394],[-97.7402926,30.2745455],[-97.7402681,30.2745553],[-97.740246,30.2745687],[-97.7402269,30.2745852],[-97.7402114,30.2746043],[-97.7402,30.2746254],[-97.740193,30.2746479],[-97.7401907,30.2746712]]]},"properties":{"wd":"#d2b0a3","wg":"#d9b09a","wn":"#dea673","rd":"#a8ab9d","rg":"#bbad92","rn":"#bb9f6f","h":62.5,"base":61.67,"part":"dome"}},{"type":"Feature","geometry":{"type":"Polygon","coordinates":[[[-97.7401925,30.2746712],[-97.7401948,30.2746941],[-97.7402017,30.2747164],[-97.740213,30.2747373],[-97.7402283,30.2747561],[-97.7402471,30.2747724],[-97.740269,30.2747857],[-97.7402932,30.2747954],[-97.740319,30.2748014],[-97.7403456,30.2748034],[-97.7403721,30.2748014],[-97.7403979,30.2747954],[-97.7404221,30.2747857],[-97.740444,30.2747724],[-97.7404628,30.2747561],[-97.7404781,30.2747373],[-97.7404894,30.2747164],[-97.7404963,30.2746941],[-97.7404987,30.2746712],[-97.7404963,30.2746482],[-97.7404894,30.2746259],[-97.7404781,30.274605],[-97.7404628,30.2745862],[-97.740444,30.2745699],[-97.7404221,30.2745566],[-97.7403979,30.2745469],[-97.7403721,30.2745409],[-97.7403456,30.2745389],[-97.740319,30.2745409],[-97.7402932,30.2745469],[-97.740269,30.2745566],[-97.7402471,30.2745699],[-97.7402283,30.2745862],[-97.740213,30.274605],[-97.7402017,30.2746259],[-97.7401948,30.2746482],[-97.7401925,30.2746712]]]},"properties":{"wd":"#d2b0a3","wg":"#d9b09a","wn":"#dea673","rd":"#a8ab9d","rg":"#bbad92","rn":"#bb9f6f","h":63.33,"base":62.5,"part":"dome"}},{"type":"Feature","geometry":{"type":"Polygon","coordinates":[[[-97.7401949,30.2746712],[-97.7401972,30.2746937],[-97.740204,30.2747157],[-97.7402151,30.2747362],[-97.7402302,30.2747548],[-97.7402487,30.2747708],[-97.7402702,30.2747838],[-97.740294,30.2747934],[-97.7403194,30.2747993],[-97.7403456,30.2748013],[-97.7403717,30.2747993],[-97.7403971,30.2747934],[-97.7404209,30.2747838],[-97.7404424,30.2747708],[-97.740461,30.2747548],[-97.740476,30.2747362],[-97.7404871,30.2747157],[-97.7404939,30.2746937],[-97.7404962,30.2746712],[-97.7404939,30.2746486],[-97.7404871,30.2746267],[-97.740476,30.2746061],[-97.740461,30.2745875],[-97.7404424,30.2745715],[-97.7404209,30.2745585],[-97.7403971,30.2745489],[-97.7403717,30.274543],[-97.7403456,30.2745411],[-97.7403194,30.274543],[-97.740294,30.2745489],[-97.7402702,30.2745585],[-97.7402487,30.2745715],[-97.7402302,30.2745875],[-97.7402151,30.2746061],[-97.740204,30.2746267],[-97.7401972,30.2746486],[-97.7401949,30.2746712]]]},"properties":{"wd":"#d2b0a3","wg":"#d9b09a","wn":"#dea673","rd":"#a8ab9d","rg":"#bbad92","rn":"#bb9f6f","h":64.17,"base":63.33,"part":"dome"}},{"type":"Feature","geometry":{"type":"Polygon","coordinates":[[[-97.7401981,30.2746712],[-97.7402003,30.2746933],[-97.7402069,30.2747147],[-97.7402178,30.2747349],[-97.7402326,30.274753],[-97.7402507,30.2747687],[-97.7402718,30.2747815],[-97.7402951,30.2747909],[-97.7403199,30.2747966],[-97.7403456,30.2747985],[-97.7403712,30.2747966],[-97.740396,30.2747909],[-97.7404193,30.2747815],[-97.7404404,30.2747687],[-97.7404586,30.274753],[-97.7404733,30.2747349],[-97.7404842,30.2747147],[-97.7404908,30.2746933],[-97.7404931,30.2746712],[-97.7404908,30.274649],[-97.7404842,30.2746276],[-97.7404733,30.2746075],[-97.7404586,30.2745893],[-97.7404404,30.2745736],[-97.7404193,30.2745608],[-97.740396,30.2745515],[-97.7403712,30.2745457],[-97.7403456,30.2745438],[-97.7403199,30.2745457],[-97.7402951,30.2745515],[-97.7402718,30.2745608],[-97.7402507,30.2745736],[-97.7402326,30.2745893],[-97.7402178,30.2746075],[-97.7402069,30.2746276],[-97.7402003,30.274649],[-97.7401981,30.2746712]]]},"properties":{"wd":"#d2b0a3","wg":"#d9b09a","wn":"#dea673","rd":"#a8ab9d","rg":"#bbad92","rn":"#bb9f6f","h":65.0,"base":64.17,"part":"dome"}},{"type":"Feature","geometry":{"type":"Polygon","coordinates":[[[-97.7402019,30.2746712],[-97.7402041,30.2746927],[-97.7402105,30.2747136],[-97.7402211,30.2747332],[-97.7402355,30.2747509],[-97.7402532,30.2747662],[-97.7402737,30.2747786],[-97.7402964,30.2747878],[-97.7403206,30.2747934],[-97.7403456,30.2747952],[-97.7403705,30.2747934],[-97.7403947,30.2747878],[-97.7404174,30.2747786],[-97.7404379,30.2747662],[-97.7404556,30.2747509],[-97.74047,30.2747332],[-97.7404806,30.2747136],[-97.7404871,30.2746927],[-97.7404892,30.2746712],[-97.7404871,30.2746496],[-97.7404806,30.2746287],[-97.74047,30.2746091],[-97.7404556,30.2745914],[-97.7404379,30.2745761],[-97.7404174,30.2745637],[-97.7403947,30.2745545],[-97.7403705,30.2745489],[-97.7403456,30.2745471],[-97.7403206,30.2745489],[-97.7402964,30.2745545],[-97.7402737,30.2745637],[-97.7402532,30.2745761],[-97.7402355,30.2745914],[-97.7402211,30.2746091],[-97.7402105,30.2746287],[-97.7402041,30.2746496],[-97.7402019,30.2746712]]]},"properties":{"wd":"#d2b0a3","wg":"#d9b09a","wn":"#dea673","rd":"#a8ab9d","rg":"#bbad92","rn":"#bb9f6f","h":65.83,"base":65.0,"part":"dome"}},{"type":"Feature","geometry":{"type":"Polygon","coordinates":[[[-97.7402063,30.2746712],[-97.7402085,30.274692],[-97.7402147,30.2747123],[-97.740225,30.2747313],[-97.7402389,30.2747484],[-97.7402561,30.2747633],[-97.7402759,30.2747753],[-97.7402979,30.2747841],[-97.7403214,30.2747896],[-97.7403456,30.2747914],[-97.7403697,30.2747896],[-97.7403932,30.2747841],[-97.7404152,30.2747753],[-97.740435,30.2747633],[-97.7404522,30.2747484],[-97.7404661,30.2747313],[-97.7404764,30.2747123],[-97.7404827,30.274692],[-97.7404848,30.2746712],[-97.7404827,30.2746503],[-97.7404764,30.27463],[-97.7404661,30.274611],[-97.7404522,30.2745939],[-97.740435,30.2745791],[-97.7404152,30.274567],[-97.7403932,30.2745582],[-97.7403697,30.2745528],[-97.7403456,30.2745509],[-97.7403214,30.2745528],[-97.7402979,30.2745582],[-97.7402759,30.274567],[-97.7402561,30.2745791],[-97.7402389,30.2745939],[-97.740225,30.274611],[-97.7402147,30.27463],[-97.7402085,30.2746503],[-97.7402063,30.2746712]]]},"properties":{"wd":"#d2b0a3","wg":"#d9b09a","wn":"#dea673","rd":"#a8ab9d","rg":"#bbad92","rn":"#bb9f6f","h":66.67,"base":65.83,"part":"dome"}},{"type":"Feature","geometry":{"type":"Polygon","coordinates":[[[-97.7402115,30.2746712],[-97.7402135,30.2746913],[-97.7402195,30.2747108],[-97.7402294,30.2747291],[-97.7402428,30.2747456],[-97.7402594,30.2747599],[-97.7402785,30.2747715],[-97.7402997,30.27478],[-97.7403223,30.2747852],[-97.7403456,30.274787],[-97.7403688,30.2747852],[-97.7403914,30.27478],[-97.7404126,30.2747715],[-97.7404318,30.2747599],[-97.7404483,30.2747456],[-97.7404617,30.2747291],[-97.7404716,30.2747108],[-97.7404776,30.2746913],[-97.7404797,30.2746712],[-97.7404776,30.274651],[-97.7404716,30.2746315],[-97.7404617,30.2746132],[-97.7404483,30.2745967],[-97.7404318,30.2745824],[-97.7404126,30.2745709],[-97.7403914,30.2745623],[-97.7403688,30.2745571],[-97.7403456,30.2745553],[-97.7403223,30.2745571],[-97.7402997,30.2745623],[-97.7402785,30.2745709],[-97.7402594,30.2745824],[-97.7402428,30.2745967],[-97.7402294,30.2746132],[-97.7402195,30.2746315],[-97.7402135,30.274651],[-97.7402115,30.2746712]]]},"properties":{"wd":"#d2b0a3","wg":"#d9b09a","wn":"#dea673","rd":"#a8ab9d","rg":"#bbad92","rn":"#bb9f6f","h":67.5,"base":66.67,"part":"dome"}},{"type":"Feature","geometry":{"type":"Polygon","coordinates":[[[-97.7402172,30.2746712],[-97.7402191,30.2746904],[-97.7402249,30.2747091],[-97.7402344,30.2747266],[-97.7402472,30.2747424],[-97.740263,30.2747561],[-97.7402814,30.2747672],[-97.7403017,30.2747753],[-97.7403233,30.2747803],[-97.7403456,30.274782],[-97.7403678,30.2747803],[-97.7403895,30.2747753],[-97.7404097,30.2747672],[-97.7404281,30.2747561],[-97.7404439,30.2747424],[-97.7404567,30.2747266],[-97.7404662,30.2747091],[-97.740472,30.2746904],[-97.7404739,30.2746712],[-97.740472,30.2746519],[-97.7404662,30.2746332],[-97.7404567,30.2746157],[-97.7404439,30.2745999],[-97.7404281,30.2745862],[-97.7404097,30.2745751],[-97.7403895,30.274567],[-97.7403678,30.274562],[-97.7403456,30.2745603],[-97.7403233,30.274562],[-97.7403017,30.274567],[-97.7402814,30.2745751],[-97.740263,30.2745862],[-97.7402472,30.2745999],[-97.7402344,30.2746157],[-97.7402249,30.2746332],[-97.7402191,30.2746519],[-97.7402172,30.2746712]]]},"properties":{"wd":"#d2b0a3","wg":"#d9b09a","wn":"#dea673","rd":"#a8ab9d","rg":"#bbad92","rn":"#bb9f6f","h":68.33,"base":67.5,"part":"dome"}},{"type":"Feature","geometry":{"type":"Polygon","coordinates":[[[-97.7402235,30.2746712],[-97.7402254,30.2746895],[-97.7402309,30.2747072],[-97.7402399,30.2747238],[-97.7402521,30.2747389],[-97.7402671,30.2747519],[-97.7402845,30.2747624],[-97.7403038,30.2747702],[-97.7403244,30.2747749],[-97.7403456,30.2747765],[-97.7403667,30.2747749],[-97.7403873,30.2747702],[-97.7404066,30.2747624],[-97.740424,30.2747519],[-97.740439,30.2747389],[-97.7404512,30.2747238],[-97.7404602,30.2747072],[-97.7404657,30.2746895],[-97.7404676,30.2746712],[-97.7404657,30.2746529],[-97.7404602,30.2746351],[-97.7404512,30.2746185],[-97.740439,30.2746034],[-97.740424,30.2745904],[-97.7404066,30.2745799],[-97.7403873,30.2745721],[-97.7403667,30.2745674],[-97.7403456,30.2745658],[-97.7403244,30.2745674],[-97.7403038,30.2745721],[-97.7402845,30.2745799],[-97.7402671,30.2745904],[-97.7402521,30.2746034],[-97.7402399,30.2746185],[-97.7402309,30.2746351],[-97.7402254,30.2746529],[-97.7402235,30.2746712]]]},"properties":{"wd":"#d2b0a3","wg":"#d9b09a","wn":"#dea673","rd":"#a8ab9d","rg":"#bbad92","rn":"#bb9f6f","h":69.17,"base":68.33,"part":"dome"}},{"type":"Feature","geometry":{"type":"Polygon","coordinates":[[[-97.7402305,30.2746712],[-97.7402322,30.2746884],[-97.7402374,30.2747052],[-97.7402459,30.2747209],[-97.7402574,30.274735],[-97.7402716,30.2747473],[-97.740288,30.2747572],[-97.7403062,30.2747646],[-97.7403256,30.274769],[-97.7403456,30.2747705],[-97.7403655,30.274769],[-97.7403849,30.2747646],[-97.7404031,30.2747572],[-97.7404195,30.2747473],[-97.7404337,30.274735],[-97.7404452,30.2747209],[-97.7404537,30.2747052],[-97.7404589,30.2746884],[-97.7404606,30.2746712],[-97.7404589,30.2746539],[-97.7404537,30.2746372],[-97.7404452,30.2746215],[-97.7404337,30.2746073],[-97.7404195,30.274595],[-97.7404031,30.2745851],[-97.7403849,30.2745778],[-97.7403655,30.2745733],[-97.7403456,30.2745718],[-97.7403256,30.2745733],[-97.7403062,30.2745778],[-97.740288,30.2745851],[-97.7402716,30.274595],[-97.7402574,30.2746073],[-97.7402459,30.2746215],[-97.7402374,30.2746372],[-97.7402322,30.2746539],[-97.7402305,30.2746712]]]},"properties":{"wd":"#d2b0a3","wg":"#d9b09a","wn":"#dea673","rd":"#a8ab9d","rg":"#bbad92","rn":"#bb9f6f","h":70.0,"base":69.17,"part":"dome"}},{"type":"Feature","geometry":{"type":"Polygon","coordinates":[[[-97.740238,30.2746712],[-97.7402396,30.2746873],[-97.7402445,30.2747029],[-97.7402524,30.2747176],[-97.7402631,30.2747309],[-97.7402764,30.2747423],[-97.7402918,30.2747516],[-97.7403088,30.2747585],[-97.7403269,30.2747626],[-97.7403456,30.2747641],[-97.7403642,30.2747626],[-97.7403823,30.2747585],[-97.7403993,30.2747516],[-97.7404147,30.2747423],[-97.740428,30.2747309],[-97.7404387,30.2747176],[-97.7404466,30.2747029],[-97.7404515,30.2746873],[-97.7404531,30.2746712],[-97.7404515,30.274655],[-97.7404466,30.2746394],[-97.7404387,30.2746247],[-97.740428,30.2746114],[-97.7404147,30.2746],[-97.7403993,30.2745907],[-97.7403823,30.2745839],[-97.7403642,30.2745797],[-97.7403456,30.2745783],[-97.7403269,30.2745797],[-97.7403088,30.2745839],[-97.7402918,30.2745907],[-97.7402764,30.2746],[-97.7402631,30.2746114],[-97.7402524,30.2746247],[-97.7402445,30.2746394],[-97.7402396,30.274655],[-97.740238,30.2746712]]]},"properties":{"wd":"#d2b0a3","wg":"#d9b09a","wn":"#dea673","rd":"#a8ab9d","rg":"#bbad92","rn":"#bb9f6f","h":70.83,"base":70.0,"part":"dome"}},{"type":"Feature","geometry":{"type":"Polygon","coordinates":[[[-97.7402461,30.2746712],[-97.7402476,30.2746861],[-97.7402521,30.2747005],[-97.7402594,30.2747141],[-97.7402693,30.2747264],[-97.7402816,30.274737],[-97.7402958,30.2747456],[-97.7403115,30.2747519],[-97.7403283,30.2747558],[-97.7403456,30.2747571],[-97.7403628,30.2747558],[-97.7403796,30.2747519],[-97.7403953,30.2747456],[-97.7404095,30.274737],[-97.7404218,30.2747264],[-97.7404317,30.2747141],[-97.740439,30.2747005],[-97.7404435,30.2746861],[-97.740445,30.2746712],[-97.7404435,30.2746562],[-97.740439,30.2746418],[-97.7404317,30.2746282],[-97.7404218,30.2746159],[-97.7404095,30.2746053],[-97.7403953,30.2745967],[-97.7403796,30.2745904],[-97.7403628,30.2745865],[-97.7403456,30.2745852],[-97.7403283,30.2745865],[-97.7403115,30.2745904],[-97.7402958,30.2745967],[-97.7402816,30.2746053],[-97.7402693,30.2746159],[-97.7402594,30.2746282],[-97.7402521,30.2746418],[-97.7402476,30.2746562],[-97.7402461,30.2746712]]]},"properties":{"wd":"#d2b0a3","wg":"#d9b09a","wn":"#dea673","rd":"#a8ab9d","rg":"#bbad92","rn":"#bb9f6f","h":71.67,"base":70.83,"part":"dome"}},{"type":"Feature","geometry":{"type":"Polygon","coordinates":[[[-97.7402547,30.2746712],[-97.7402561,30.2746848],[-97.7402602,30.274698],[-97.7402669,30.2747104],[-97.740276,30.2747216],[-97.7402872,30.2747312],[-97.7403001,30.2747391],[-97.7403145,30.2747449],[-97.7403298,30.2747484],[-97.7403456,30.2747496],[-97.7403613,30.2747484],[-97.7403766,30.2747449],[-97.740391,30.2747391],[-97.7404039,30.2747312],[-97.7404151,30.2747216],[-97.7404242,30.2747104],[-97.7404309,30.274698],[-97.740435,30.2746848],[-97.7404364,30.2746712],[-97.740435,30.2746575],[-97.7404309,30.2746443],[-97.7404242,30.2746319],[-97.7404151,30.2746207],[-97.7404039,30.2746111],[-97.740391,30.2746032],[-97.7403766,30.2745974],[-97.7403613,30.2745939],[-97.7403456,30.2745927],[-97.7403298,30.2745939],[-97.7403145,30.2745974],[-97.7403001,30.2746032],[-97.7402872,30.2746111],[-97.740276,30.2746207],[-97.7402669,30.2746319],[-97.7402602,30.2746443],[-97.7402561,30.2746575],[-97.7402547,30.2746712]]]},"properties":{"wd":"#d2b0a3","wg":"#d9b09a","wn":"#dea673","rd":"#a8ab9d","rg":"#bbad92","rn":"#bb9f6f","h":72.5,"base":71.67,"part":"dome"}},{"type":"Feature","geometry":{"type":"Polygon","coordinates":[[[-97.740264,30.2746712],[-97.7402652,30.2746834],[-97.7402689,30.2746952],[-97.7402749,30.2747064],[-97.7402831,30.2747164],[-97.7402931,30.2747251],[-97.7403048,30.2747322],[-97.7403177,30.2747373],[-97.7403314,30.2747405],[-97.7403456,30.2747416],[-97.7403597,30.2747405],[-97.7403735,30.2747373],[-97.7403863,30.2747322],[-97.740398,30.2747251],[-97.740408,30.2747164],[-97.7404162,30.2747064],[-97.7404222,30.2746952],[-97.7404259,30.2746834],[-97.7404271,30.2746712],[-97.7404259,30.2746589],[-97.7404222,30.2746471],[-97.7404162,30.2746359],[-97.740408,30.2746259],[-97.740398,30.2746172],[-97.7403863,30.2746102],[-97.7403735,30.274605],[-97.7403597,30.2746018],[-97.7403456,30.2746007],[-97.7403314,30.2746018],[-97.7403177,30.274605],[-97.7403048,30.2746102],[-97.7402931,30.2746172],[-97.7402831,30.2746259],[-97.7402749,30.2746359],[-97.7402689,30.2746471],[-97.7402652,30.2746589],[-97.740264,30.2746712]]]},"properties":{"wd":"#d2b0a3","wg":"#d9b09a","wn":"#dea673","rd":"#a8ab9d","rg":"#bbad92","rn":"#bb9f6f","h":73.33,"base":72.5,"part":"dome"}},{"type":"Feature","geometry":{"type":"Polygon","coordinates":[[[-97.740274,30.2746712],[-97.7402751,30.2746819],[-97.7402783,30.2746923],[-97.7402836,30.2747021],[-97.7402907,30.2747109],[-97.7402995,30.2747185],[-97.7403098,30.2747247],[-97.7403211,30.2747293],[-97.7403331,30.274732],[-97.7403456,30.274733],[-97.740358,30.274732],[-97.74037,30.2747293],[-97.7403813,30.2747247],[-97.7403916,30.2747185],[-97.7404004,30.2747109],[-97.7404076,30.2747021],[-97.7404128,30.2746923],[-97.7404161,30.2746819],[-97.7404171,30.2746712],[-97.7404161,30.2746604],[-97.7404128,30.27465],[-97.7404076,30.2746402],[-97.7404004,30.2746314],[-97.7403916,30.2746238],[-97.7403813,30.2746176],[-97.74037,30.2746131],[-97.740358,30.2746103],[-97.7403456,30.2746093],[-97.7403331,30.2746103],[-97.7403211,30.2746131],[-97.7403098,30.2746176],[-97.7402995,30.2746238],[-97.7402907,30.2746314],[-97.7402836,30.2746402],[-97.7402783,30.27465],[-97.7402751,30.2746604],[-97.740274,30.2746712]]]},"properties":{"wd":"#d2b0a3","wg":"#d9b09a","wn":"#dea673","rd":"#a8ab9d","rg":"#bbad92","rn":"#bb9f6f","h":74.17,"base":73.33,"part":"dome"}},{"type":"Feature","geometry":{"type":"Polygon","coordinates":[[[-97.7402849,30.2746712],[-97.7402858,30.2746802],[-97.7402886,30.2746891],[-97.740293,30.2746973],[-97.7402991,30.2747048],[-97.7403066,30.2747113],[-97.7403152,30.2747165],[-97.7403248,30.2747204],[-97.740335,30.2747227],[-97.7403456,30.2747235],[-97.7403561,30.2747227],[-97.7403663,30.2747204],[-97.7403759,30.2747165],[-97.7403845,30.2747113],[-97.740392,30.2747048],[-97.7403981,30.2746973],[-97.7404025,30.2746891],[-97.7404053,30.2746802],[-97.7404062,30.2746712],[-97.7404053,30.2746621],[-97.7404025,30.2746532],[-97.7403981,30.274645],[-97.740392,30.2746375],[-97.7403845,30.274631],[-97.7403759,30.2746258],[-97.7403663,30.274622],[-97.7403561,30.2746196],[-97.7403456,30.2746188],[-97.740335,30.2746196],[-97.7403248,30.274622],[-97.7403152,30.2746258],[-97.7403066,30.274631],[-97.7402991,30.2746375],[-97.740293,30.274645],[-97.7402886,30.2746532],[-97.7402858,30.2746621],[-97.7402849,30.2746712]]]},"properties":{"wd":"#d2b0a3","wg":"#d9b09a","wn":"#dea673","rd":"#a8ab9d","rg":"#bbad92","rn":"#bb9f6f","h":75.0,"base":74.17,"part":"dome"}},{"type":"Feature","geometry":{"type":"Polygon","coordinates":[[[-97.7403133,30.2746712],[-97.7403144,30.2746784],[-97.7403176,30.2746851],[-97.7403228,30.2746908],[-97.7403294,30.2746953],[-97.7403372,30.2746981],[-97.7403456,30.274699],[-97.7403539,30.2746981],[-97.7403617,30.2746953],[-97.7403684,30.2746908],[-97.7403735,30.2746851],[-97.7403767,30.2746784],[-97.7403778,30.2746712],[-97.7403767,30.2746639],[-97.7403735,30.2746572],[-97.7403684,30.2746515],[-97.7403617,30.274647],[-97.7403539,30.2746443],[-97.7403456,30.2746433],[-97.7403372,30.2746443],[-97.7403294,30.274647],[-97.7403228,30.2746515],[-97.7403176,30.2746572],[-97.7403144,30.2746639],[-97.7403133,30.2746712]]]},"properties":{"wd":"#d2b0a3","wg":"#d9b09a","wn":"#dea673","rd":"#a8ab9d","rg":"#bbad92","rn":"#bb9f6f","h":83.0,"base":75.0,"part":"lantern"}},{"type":"Feature","geometry":{"type":"Polygon","coordinates":[[[-97.7403077,30.2746742],[-97.7403148,30.2746742],[-97.7403148,30.2746681],[-97.7403077,30.2746681],[-97.7403077,30.2746742]]]},"properties":{"wd":"#d2b0a3","wg":"#d9b09a","wn":"#dea673","rd":"#d2b0a3","rg":"#dcb096","rn":"#da9e6b","h":82.4,"base":75.8,"part":"lantern-column"}},{"type":"Feature","geometry":{"type":"Polygon","coordinates":[[[-97.7403145,30.2746902],[-97.7403207,30.2746871],[-97.7403171,30.2746818],[-97.740311,30.2746849],[-97.7403145,30.2746902]]]},"properties":{"wd":"#d2b0a3","wg":"#d9b09a","wn":"#dea673","rd":"#d2b0a3","rg":"#dcb096","rn":"#da9e6b","h":82.4,"base":75.8,"part":"lantern-column"}},{"type":"Feature","geometry":{"type":"Polygon","coordinates":[[[-97.7403297,30.274701],[-97.7403332,30.2746957],[-97.7403271,30.2746927],[-97.7403236,30.2746979],[-97.7403297,30.274701]]]},"properties":{"wd":"#d2b0a3","wg":"#d9b09a","wn":"#dea673","rd":"#d2b0a3","rg":"#dcb096","rn":"#da9e6b","h":82.4,"base":75.8,"part":"lantern-column"}},{"type":"Feature","geometry":{"type":"Polygon","coordinates":[[[-97.7403491,30.2747039],[-97.7403491,30.2746977],[-97.740342,30.2746977],[-97.740342,30.2747039],[-97.7403491,30.2747039]]]},"properties":{"wd":"#d2b0a3","wg":"#d9b09a","wn":"#dea673","rd":"#d2b0a3","rg":"#dcb096","rn":"#da9e6b","h":82.4,"base":75.8,"part":"lantern-column"}},{"type":"Feature","geometry":{"type":"Polygon","coordinates":[[[-97.7403676,30.2746979],[-97.740364,30.2746927],[-97.7403579,30.2746957],[-97.7403614,30.274701],[-97.7403676,30.2746979]]]},"properties":{"wd":"#d2b0a3","wg":"#d9b09a","wn":"#dea673","rd":"#d2b0a3","rg":"#dcb096","rn":"#da9e6b","h":82.4,"base":75.8,"part":"lantern-column"}},{"type":"Feature","geometry":{"type":"Polygon","coordinates":[[[-97.7403801,30.2746849],[-97.740374,30.2746818],[-97.7403705,30.2746871],[-97.7403766,30.2746902],[-97.7403801,30.2746849]]]},"properties":{"wd":"#d2b0a3","wg":"#d9b09a","wn":"#dea673","rd":"#d2b0a3","rg":"#dcb096","rn":"#da9e6b","h":82.4,"base":75.8,"part":"lantern-column"}},{"type":"Feature","geometry":{"type":"Polygon","coordinates":[[[-97.7403834,30.2746681],[-97.7403763,30.2746681],[-97.7403763,30.2746742],[-97.7403834,30.2746742],[-97.7403834,30.2746681]]]},"properties":{"wd":"#d2b0a3","wg":"#d9b09a","wn":"#dea673","rd":"#d2b0a3","rg":"#dcb096","rn":"#da9e6b","h":82.4,"base":75.8,"part":"lantern-column"}},{"type":"Feature","geometry":{"type":"Polygon","coordinates":[[[-97.7403766,30.2746522],[-97.7403705,30.2746552],[-97.740374,30.2746605],[-97.7403801,30.2746575],[-97.7403766,30.2746522]]]},"properties":{"wd":"#d2b0a3","wg":"#d9b09a","wn":"#dea673","rd":"#d2b0a3","rg":"#dcb096","rn":"#da9e6b","h":82.4,"base":75.8,"part":"lantern-column"}},{"type":"Feature","geometry":{"type":"Polygon","coordinates":[[[-97.7403614,30.2746413],[-97.7403579,30.2746466],[-97.740364,30.2746497],[-97.7403676,30.2746444],[-97.7403614,30.2746413]]]},"properties":{"wd":"#d2b0a3","wg":"#d9b09a","wn":"#dea673","rd":"#d2b0a3","rg":"#dcb096","rn":"#da9e6b","h":82.4,"base":75.8,"part":"lantern-column"}},{"type":"Feature","geometry":{"type":"Polygon","coordinates":[[[-97.740342,30.2746385],[-97.740342,30.2746446],[-97.7403491,30.2746446],[-97.7403491,30.2746385],[-97.740342,30.2746385]]]},"properties":{"wd":"#d2b0a3","wg":"#d9b09a","wn":"#dea673","rd":"#d2b0a3","rg":"#dcb096","rn":"#da9e6b","h":82.4,"base":75.8,"part":"lantern-column"}},{"type":"Feature","geometry":{"type":"Polygon","coordinates":[[[-97.7403236,30.2746444],[-97.7403271,30.2746497],[-97.7403332,30.2746466],[-97.7403297,30.2746413],[-97.7403236,30.2746444]]]},"properties":{"wd":"#d2b0a3","wg":"#d9b09a","wn":"#dea673","rd":"#d2b0a3","rg":"#dcb096","rn":"#da9e6b","h":82.4,"base":75.8,"part":"lantern-column"}},{"type":"Feature","geometry":{"type":"Polygon","coordinates":[[[-97.740311,30.2746575],[-97.7403171,30.2746605],[-97.7403207,30.2746552],[-97.7403145,30.2746522],[-97.740311,30.2746575]]]},"properties":{"wd":"#d2b0a3","wg":"#d9b09a","wn":"#dea673","rd":"#d2b0a3","rg":"#dcb096","rn":"#da9e6b","h":82.4,"base":75.8,"part":"lantern-column"}},{"type":"Feature","geometry":{"type":"Polygon","coordinates":[[[-97.7403133,30.2746712],[-97.7403149,30.2746798],[-97.7403195,30.2746875],[-97.7403266,30.2746937],[-97.7403356,30.2746976],[-97.7403456,30.274699],[-97.7403555,30.2746976],[-97.7403645,30.2746937],[-97.7403716,30.2746875],[-97.7403762,30.2746798],[-97.7403778,30.2746712],[-97.7403762,30.2746626],[-97.7403716,30.2746548],[-97.7403645,30.2746486],[-97.7403555,30.2746447],[-97.7403456,30.2746433],[-97.7403356,30.2746447],[-97.7403266,30.2746486],[-97.7403195,30.2746548],[-97.7403149,30.2746626],[-97.7403133,30.2746712]]]},"properties":{"wd":"#a8ab9d","wg":"#b6ac95","wn":"#c5a674","rd":"#a8ab9d","rg":"#bbad92","rn":"#bb9f6f","h":84.25,"base":83.0,"part":"cupola"}},{"type":"Feature","geometry":{"type":"Polygon","coordinates":[[[-97.7403191,30.2746712],[-97.7403204,30.2746782],[-97.7403242,30.2746846],[-97.74033,30.2746896],[-97.7403374,30.2746929],[-97.7403456,30.274694],[-97.7403537,30.2746929],[-97.7403611,30.2746896],[-97.7403669,30.2746846],[-97.7403707,30.2746782],[-97.740372,30.2746712],[-97.7403707,30.2746641],[-97.7403669,30.2746577],[-97.7403611,30.2746527],[-97.7403537,30.2746494],[-97.7403456,30.2746483],[-97.7403374,30.2746494],[-97.74033,30.2746527],[-97.7403242,30.2746577],[-97.7403204,30.2746641],[-97.7403191,30.2746712]]]},"properties":{"wd":"#a8ab9d","wg":"#b6ac95","wn":"#c5a674","rd":"#a8ab9d","rg":"#bbad92","rn":"#bb9f6f","h":85.5,"base":84.25,"part":"cupola"}},{"type":"Feature","geometry":{"type":"Polygon","coordinates":[[[-97.7403249,30.2746712],[-97.7403259,30.2746767],[-97.7403289,30.2746816],[-97.7403334,30.2746856],[-97.7403392,30.2746881],[-97.7403456,30.274689],[-97.7403519,30.2746881],[-97.7403577,30.2746856],[-97.7403623,30.2746816],[-97.7403652,30.2746767],[-97.7403662,30.2746712],[-97.7403652,30.2746656],[-97.7403623,30.2746607],[-97.7403577,30.2746567],[-97.7403519,30.2746542],[-97.7403456,30.2746533],[-97.7403392,30.2746542],[-97.7403334,30.2746567],[-97.7403289,30.2746607],[-97.7403259,30.2746656],[-97.7403249,30.2746712]]]},"properties":{"wd":"#a8ab9d","wg":"#b6ac95","wn":"#c5a674","rd":"#a8ab9d","rg":"#bbad92","rn":"#bb9f6f","h":86.75,"base":85.5,"part":"cupola"}},{"type":"Feature","geometry":{"type":"Polygon","coordinates":[[[-97.7403307,30.2746712],[-97.7403314,30.2746751],[-97.7403336,30.2746787],[-97.7403368,30.2746815],[-97.740341,30.2746833],[-97.7403456,30.274684],[-97.7403501,30.2746833],[-97.7403543,30.2746815],[-97.7403576,30.2746787],[-97.7403597,30.2746751],[-97.7403604,30.2746712],[-97.7403597,30.2746672],[-97.7403576,30.2746636],[-97.7403543,30.2746608],[-97.7403501,30.274659],[-97.7403456,30.2746583],[-97.740341,30.274659],[-97.7403368,30.2746608],[-97.7403336,30.2746636],[-97.7403314,30.2746672],[-97.7403307,30.2746712]]]},"properties":{"wd":"#a8ab9d","wg":"#b6ac95","wn":"#c5a674","rd":"#a8ab9d","rg":"#bbad92","rn":"#bb9f6f","h":88.0,"base":86.75,"part":"cupola"}},{"type":"Feature","geometry":{"type":"Polygon","coordinates":[[[-97.7403378,30.2746712],[-97.7403388,30.2746745],[-97.7403417,30.274677],[-97.7403456,30.2746779],[-97.7403495,30.274677],[-97.7403523,30.2746745],[-97.7403534,30.2746712],[-97.7403523,30.2746678],[-97.7403495,30.2746653],[-97.7403456,30.2746644],[-97.7403417,30.2746653],[-97.7403388,30.2746678],[-97.7403378,30.2746712]]]},"properties":{"wd":"#e8e2d2","wg":"#ecdac1","wn":"#eec186","rd":"#e8e2d2","rg":"#edd7bb","rn":"#e9be82","h":91.04,"base":88.0,"part":"goddess"}},{"type":"Feature","geometry":{"type":"Polygon","coordinates":[[[-97.7403336,30.2746712],[-97.7403359,30.2746772],[-97.7403419,30.274681],[-97.7403493,30.274681],[-97.7403552,30.2746772],[-97.7403575,30.2746712],[-97.7403552,30.2746651],[-97.7403493,30.2746613],[-97.7403419,30.2746613],[-97.7403359,30.2746651],[-97.7403336,30.2746712]]]},"properties":{"wd":"#f0e6c8","wg":"#f2deb9","wn":"#f4c57f","rd":"#f0e6c8","rg":"#f3dbb3","rn":"#f1c379","h":92.24,"base":91.04,"part":"star"}},{"type":"Feature","geometry":{"type":"Polygon","coordinates":[[[-97.7387756,30.28029],[-97.7387778,30.2803093],[-97.7387843,30.2803278],[-97.7387949,30.2803449],[-97.7388091,30.2803599],[-97.7388264,30.2803722],[-97.7388462,30.2803813],[-97.7388677,30.2803869],[-97.73889,30.2803888],[-97.7389123,30.2803869],[-97.7389338,30.2803813],[-97.7389536,30.2803722],[-97.7389709,30.2803599],[-97.7389851,30.2803449],[-97.7389957,30.2803278],[-97.7390022,30.2803093],[-97.7390044,30.28029],[-97.7390022,30.2802707],[-97.7389957,30.2802522],[-97.7389851,30.2802351],[-97.7389709,30.2802201],[-97.7389536,30.2802078],[-97.7389338,30.2801987],[-97.7389123,30.2801931],[-97.73889,30.2801912],[-97.7388677,30.2801931],[-97.7388462,30.2801987],[-97.7388264,30.2802078],[-97.7388091,30.2802201],[-97.7387949,30.2802351],[-97.7387843,30.2802522],[-97.7387778,30.2802707],[-97.7387756,30.28029]]]},"properties":{"wd":"#d9cdb2","wg":"#dfc9a6","wn":"#e3b779","rd":"#98948a","rg":"#af9b83","rn":"#b19265","h":27.0,"base":19.0,"part":"bullock-drum"}},{"type":"Feature","geometry":{"type":"Polygon","coordinates":[[[-97.7387756,30.28029],[-97.7387784,30.280312],[-97.7387869,30.2803329],[-97.7388005,30.2803516],[-97.7388187,30.2803673],[-97.7388404,30.280379],[-97.7388645,30.2803863],[-97.73889,30.2803888],[-97.7389155,30.2803863],[-97.7389396,30.280379],[-97.7389613,30.2803673],[-97.7389795,30.2803516],[-97.7389931,30.2803329],[-97.7390016,30.280312],[-97.7390044,30.28029],[-97.7390016,30.280268],[-97.7389931,30.2802471],[-97.7389795,30.2802284],[-97.7389613,30.2802127],[-97.7389396,30.280201],[-97.7389155,30.2801937],[-97.73889,30.2801912],[-97.7388645,30.2801937],[-97.7388404,30.280201],[-97.7388187,30.2802127],[-97.7388005,30.2802284],[-97.7387869,30.2802471],[-97.7387784,30.280268],[-97.7387756,30.28029]]]},"properties":{"wd":"#98948a","wg":"#a89985","wn":"#bc9a6c","rd":"#98948a","rg":"#af9b83","rn":"#b19265","h":28.29,"base":27.0,"part":"bullock-dome"}},{"type":"Feature","geometry":{"type":"Polygon","coordinates":[[[-97.7387776,30.28029],[-97.7387804,30.2803116],[-97.7387887,30.2803321],[-97.7388021,30.2803505],[-97.7388199,30.2803659],[-97.7388412,30.2803775],[-97.738865,30.2803846],[-97.73889,30.2803871],[-97.738915,30.2803846],[-97.7389388,30.2803775],[-97.7389601,30.2803659],[-97.7389779,30.2803505],[-97.7389913,30.2803321],[-97.7389996,30.2803116],[-97.7390024,30.28029],[-97.7389996,30.2802684],[-97.7389913,30.2802479],[-97.7389779,30.2802295],[-97.7389601,30.2802141],[-97.7389388,30.2802025],[-97.738915,30.2801954],[-97.73889,30.2801929],[-97.738865,30.2801954],[-97.7388412,30.2802025],[-97.7388199,30.2802141],[-97.7388021,30.2802295],[-97.7387887,30.2802479],[-97.7387804,30.2802684],[-97.7387776,30.28029]]]},"properties":{"wd":"#98948a","wg":"#a89985","wn":"#bc9a6c","rd":"#98948a","rg":"#af9b83","rn":"#b19265","h":29.57,"base":28.29,"part":"bullock-dome"}},{"type":"Feature","geometry":{"type":"Polygon","coordinates":[[[-97.7387836,30.28029],[-97.7387863,30.2803104],[-97.7387942,30.2803299],[-97.7388068,30.2803473],[-97.7388237,30.2803618],[-97.7388438,30.2803728],[-97.7388663,30.2803796],[-97.73889,30.2803819],[-97.7389137,30.2803796],[-97.7389362,30.2803728],[-97.7389563,30.2803618],[-97.7389732,30.2803473],[-97.7389858,30.2803299],[-97.7389937,30.2803104],[-97.7389964,30.28029],[-97.7389937,30.2802696],[-97.7389858,30.2802501],[-97.7389732,30.2802327],[-97.7389563,30.2802182],[-97.7389362,30.2802072],[-97.7389137,30.2802004],[-97.73889,30.2801981],[-97.7388663,30.2802004],[-97.7388438,30.2802072],[-97.7388237,30.2802182],[-97.7388068,30.2802327],[-97.7387942,30.2802501],[-97.7387863,30.2802696],[-97.7387836,30.28029]]]},"properties":{"wd":"#98948a","wg":"#a89985","wn":"#bc9a6c","rd":"#98948a","rg":"#af9b83","rn":"#b19265","h":30.86,"base":29.57,"part":"bullock-dome"}},{"type":"Feature","geometry":{"type":"Polygon","coordinates":[[[-97.7387937,30.28029],[-97.7387961,30.2803085],[-97.7388032,30.2803261],[-97.7388147,30.2803419],[-97.7388299,30.280355],[-97.7388482,30.2803649],[-97.7388686,30.2803711],[-97.73889,30.2803732],[-97.7389114,30.2803711],[-97.7389318,30.2803649],[-97.7389501,30.280355],[-97.7389653,30.2803419],[-97.7389768,30.2803261],[-97.7389839,30.2803085],[-97.7389863,30.28029],[-97.7389839,30.2802715],[-97.7389768,30.2802539],[-97.7389653,30.2802381],[-97.7389501,30.280225],[-97.7389318,30.2802151],[-97.7389114,30.2802089],[-97.73889,30.2802068],[-97.7388686,30.2802089],[-97.7388482,30.2802151],[-97.7388299,30.280225],[-97.7388147,30.2802381],[-97.7388032,30.2802539],[-97.7387961,30.2802715],[-97.7387937,30.28029]]]},"properties":{"wd":"#98948a","wg":"#a89985","wn":"#bc9a6c","rd":"#98948a","rg":"#af9b83","rn":"#b19265","h":32.14,"base":30.86,"part":"bullock-dome"}},{"type":"Feature","geometry":{"type":"Polygon","coordinates":[[[-97.7388078,30.28029],[-97.7388099,30.2803058],[-97.7388159,30.2803208],[-97.7388257,30.2803343],[-97.7388387,30.2803455],[-97.7388543,30.280354],[-97.7388717,30.2803592],[-97.73889,30.280361],[-97.7389083,30.2803592],[-97.7389257,30.280354],[-97.7389413,30.2803455],[-97.7389543,30.2803343],[-97.7389641,30.2803208],[-97.7389701,30.2803058],[-97.7389722,30.28029],[-97.7389701,30.2802742],[-97.7389641,30.2802592],[-97.7389543,30.2802457],[-97.7389413,30.2802345],[-97.7389257,30.280226],[-97.7389083,30.2802208],[-97.73889,30.280219],[-97.7388717,30.2802208],[-97.7388543,30.280226],[-97.7388387,30.2802345],[-97.7388257,30.2802457],[-97.7388159,30.2802592],[-97.7388099,30.2802742],[-97.7388078,30.28029]]]},"properties":{"wd":"#98948a","wg":"#a89985","wn":"#bc9a6c","rd":"#98948a","rg":"#af9b83","rn":"#b19265","h":33.43,"base":32.14,"part":"bullock-dome"}},{"type":"Feature","geometry":{"type":"Polygon","coordinates":[[[-97.7388262,30.28029],[-97.7388278,30.2803023],[-97.7388325,30.2803139],[-97.7388401,30.2803243],[-97.7388502,30.2803331],[-97.7388623,30.2803396],[-97.7388758,30.2803437],[-97.73889,30.2803451],[-97.7389042,30.2803437],[-97.7389177,30.2803396],[-97.7389298,30.2803331],[-97.7389399,30.2803243],[-97.7389475,30.2803139],[-97.7389522,30.2803023],[-97.7389538,30.28029],[-97.7389522,30.2802777],[-97.7389475,30.2802661],[-97.7389399,30.2802557],[-97.7389298,30.2802469],[-97.7389177,30.2802404],[-97.7389042,30.2802363],[-97.73889,30.2802349],[-97.7388758,30.2802363],[-97.7388623,30.2802404],[-97.7388502,30.2802469],[-97.7388401,30.2802557],[-97.7388325,30.2802661],[-97.7388278,30.2802777],[-97.7388262,30.28029]]]},"properties":{"wd":"#98948a","wg":"#a89985","wn":"#bc9a6c","rd":"#98948a","rg":"#af9b83","rn":"#b19265","h":34.71,"base":33.43,"part":"bullock-dome"}},{"type":"Feature","geometry":{"type":"Polygon","coordinates":[[[-97.73885,30.28029],[-97.738851,30.2802977],[-97.738854,30.280305],[-97.7388588,30.2803115],[-97.7388651,30.280317],[-97.7388727,30.2803211],[-97.7388811,30.2803236],[-97.73889,30.2803245],[-97.7388989,30.2803236],[-97.7389073,30.2803211],[-97.7389149,30.280317],[-97.7389212,30.2803115],[-97.738926,30.280305],[-97.738929,30.2802977],[-97.73893,30.28029],[-97.738929,30.2802823],[-97.738926,30.280275],[-97.7389212,30.2802685],[-97.7389149,30.280263],[-97.7389073,30.2802589],[-97.7388989,30.2802564],[-97.73889,30.2802555],[-97.7388811,30.2802564],[-97.7388727,30.2802589],[-97.7388651,30.280263],[-97.7388588,30.2802685],[-97.738854,30.280275],[-97.738851,30.2802823],[-97.73885,30.28029]]]},"properties":{"wd":"#98948a","wg":"#a89985","wn":"#bc9a6c","rd":"#98948a","rg":"#af9b83","rn":"#b19265","h":36.0,"base":34.71,"part":"bullock-dome"}}]}