{"type":"FeatureCollection","features":[{"type":"Feature","geometry":{"type":"Polygon","coordinates":[[[-97.7397205,30.2840035],[-97.7397423,30.2839962],[-97.7397573,30.2839768],[-97.7397759,30.2839644],[-97.7398057,30.283933],[-97.7398254,30.2838837],[-97.7398185,30.2838298],[-97.7397846,30.283784],[-97.7397386,30.2837573],[-97.7396956,30.2837421],[-97.7396503,30.2837318],[-97.7395922,30.2837305],[-97.7395459,30.2837382],[-97.7394965,30.2837529],[-97.7394567,30.2837784],[-97.7394359,30.283804],[-97.739412,30.2838445],[-97.7394232,30.283895],[-97.7394467,30.283937],[-97.739458,30.2839443],[-97.7394604,30.2839535],[-97.7394918,30.2839849],[-97.7394935,30.2839853],[-97.7394825,30.284109],[-97.7397097,30.2841295],[-97.7397205,30.2840035]],[[-97.7396507,30.2840686],[-97.7395511,30.2840596],[-97.7395623,30.2839343],[-97.7395401,30.2839398],[-97.7395283,30.2839367],[-97.7395193,30.2839277],[-97.7395151,30.2839121],[-97.7394976,30.2839008],[-97.7394845,30.2838774],[-97.739479,30.2838527],[-97.7394909,30.2838326],[-97.7395032,30.2838175],[-97.7395267,30.2838024],[-97.7395625,30.2837918],[-97.7395975,30.283786],[-97.7396412,30.2837869],[-97.7396752,30.2837947],[-97.7397083,30.2838064],[-97.7397378,30.2838235],[-97.7397565,30.2838487],[-97.7397602,30.2838774],[-97.7397489,30.2839055],[-97.739731,30.2839244],[-97.7397098,30.2839386],[-97.7397002,30.283951],[-97.7396856,30.2839558],[-97.7396608,30.2839509],[-97.7396507,30.2840686]]]},"properties":{"k":"depth","m":"stone","name":"Littlefield Fountain","b":0.0,"h":0.34}},{"type":"Feature","geometry":{"type":"Polygon","coordinates":[[[-97.7397047,30.2839933],[-97.7397314,30.2839844],[-97.7397449,30.2839668],[-97.7397642,30.283954],[-97.7397909,30.2839258],[-97.7398084,30.2838821],[-97.7398023,30.2838347],[-97.7397724,30.2837943],[-97.7397307,30.2837701],[-97.7396903,30.2837558],[-97.7396479,30.2837461],[-97.7395935,30.2837449],[-97.7395502,30.2837522],[-97.7395044,30.2837658],[-97.7394688,30.2837886],[-97.7394502,30.2838114],[-97.7394294,30.2838467],[-97.7394391,30.2838904],[-97.7394599,30.2839275],[-97.7394728,30.2839359],[-97.7394757,30.2839468],[-97.7395013,30.2839723],[-97.7395112,30.283975],[-97.7395003,30.2840961],[-97.7396944,30.2841136],[-97.7397047,30.2839933]],[[-97.7396507,30.2840686],[-97.7395511,30.2840596],[-97.7395623,30.2839343],[-97.7395401,30.2839398],[-97.7395283,30.2839367],[-97.7395193,30.2839277],[-97.7395151,30.2839121],[-97.7394976,30.2839008],[-97.7394845,30.2838774],[-97.739479,30.2838527],[-97.7394909,30.2838326],[-97.7395032,30.2838175],[-97.7395267,30.2838024],[-97.7395625,30.2837918],[-97.7395975,30.283786],[-97.7396412,30.2837869],[-97.7396752,30.2837947],[-97.7397083,30.2838064],[-97.7397378,30.2838235],[-97.7397565,30.2838487],[-97.7397602,30.2838774],[-97.7397489,30.2839055],[-97.739731,30.2839244],[-97.7397098,30.2839386],[-97.7397002,30.283951],[-97.7396856,30.2839558],[-97.7396608,30.2839509],[-97.7396507,30.2840686]]]},"properties":{"k":"depth","m":"stonedk","name":"Littlefield Fountain","b":0.0,"h":0.72}},{"type":"Feature","geometry":{"type":"Polygon","coordinates":[[[-97.7396869,30.2839815],[-97.7396877,30.2839816],[-97.7397191,30.2839712],[-97.739731,30.2839557],[-97.7397511,30.2839423],[-97.7397743,30.2839178],[-97.7397893,30.2838802],[-97.7397842,30.2838402],[-97.7397587,30.2838059],[-97.7397218,30.2837845],[-97.7396843,30.2837712],[-97.7396453,30.2837623],[-97.7395951,30.2837612],[-97.7395551,30.2837678],[-97.7395132,30.2837803],[-97.7394824,30.2838],[-97.7394663,30.2838198],[-97.739449,30.2838491],[-97.7394571,30.2838853],[-97.7394748,30.2839169],[-97.7394896,30.2839265],[-97.7394929,30.2839392],[-97.739512,30.2839582],[-97.739531,30.2839633],[-97.7395204,30.2840817],[-97.7396771,30.2840958],[-97.7396869,30.2839815]],[[-97.7396507,30.2840686],[-97.7395511,30.2840596],[-97.7395623,30.2839343],[-97.7395401,30.2839398],[-97.7395283,30.2839367],[-97.7395193,30.2839277],[-97.7395151,30.2839121],[-97.7394976,30.2839008],[-97.7394845,30.2838774],[-97.739479,30.2838527],[-97.7394909,30.2838326],[-97.7395032,30.2838175],[-97.7395267,30.2838024],[-97.7395625,30.2837918],[-97.7395975,30.283786],[-97.7396412,30.2837869],[-97.7396752,30.2837947],[-97.7397083,30.2838064],[-97.7397378,30.2838235],[-97.7397565,30.2838487],[-97.7397602,30.2838774],[-97.7397489,30.2839055],[-97.739731,30.2839244],[-97.7397098,30.2839386],[-97.7397002,30.283951],[-97.7396856,30.2839558],[-97.7396608,30.2839509],[-97.7396507,30.2840686]]]},"properties":{"k":"depth","m":"stone","name":"Littlefield Fountain","b":0.0,"h":1.15}},{"type":"Feature","geometry":{"type":"Polygon","coordinates":[[[-97.739656,30.284074],[-97.739666,30.283957],[-97.739686,30.283961],[-97.739704,30.283955],[-97.739714,30.283942],[-97.739735,30.283928],[-97.739754,30.283908],[-97.739766,30.283878],[-97.739762,30.283847],[-97.739742,30.28382],[-97.739711,30.283802],[-97.739677,30.28379],[-97.739642,30.283782],[-97.739597,30.283781],[-97.739561,30.283787],[-97.739524,30.283798],[-97.739499,30.283814],[-97.739486,30.28383],[-97.739473,30.283852],[-97.739479,30.283879],[-97.739493,30.283904],[-97.73951,30.283915],[-97.739514,30.28393],[-97.739525,30.283941],[-97.73954,30.283945],[-97.739556,30.283941],[-97.739545,30.284064],[-97.739656,30.284074]],[[-97.7396507,30.2840686],[-97.7395511,30.2840596],[-97.7395623,30.2839343],[-97.7395401,30.2839398],[-97.7395283,30.2839367],[-97.7395193,30.2839277],[-97.7395151,30.2839121],[-97.7394976,30.2839008],[-97.7394845,30.2838774],[-97.739479,30.2838527],[-97.7394909,30.2838326],[-97.7395032,30.2838175],[-97.7395267,30.2838024],[-97.7395625,30.2837918],[-97.7395975,30.283786],[-97.7396412,30.2837869],[-97.7396752,30.2837947],[-97.7397083,30.2838064],[-97.7397378,30.2838235],[-97.7397565,30.2838487],[-97.7397602,30.2838774],[-97.7397489,30.2839055],[-97.739731,30.2839244],[-97.7397098,30.2839386],[-97.7397002,30.283951],[-97.7396856,30.2839558],[-97.7396608,30.2839509],[-97.7396507,30.2840686]]]},"properties":{"k":"depth","m":"stonedk","name":"Littlefield Fountain","b":0.0,"h":1.6}},{"type":"Feature","geometry":{"type":"Polygon","coordinates":[[[-97.7396496,30.2840674],[-97.7396596,30.2839495],[-97.7396855,30.2839547],[-97.7396994,30.2839501],[-97.7397088,30.2839378],[-97.7397301,30.2839236],[-97.7397478,30.283905],[-97.7397589,30.2838773],[-97.7397552,30.2838491],[-97.7397369,30.2838243],[-97.7397077,30.2838073],[-97.7396748,30.2837957],[-97.739641,30.283788],[-97.7395976,30.283787],[-97.7395628,30.2837928],[-97.7395273,30.2838034],[-97.7395041,30.2838183],[-97.739492,30.2838331],[-97.7394803,30.2838529],[-97.7394857,30.2838771],[-97.7394985,30.2839001],[-97.7395162,30.2839115],[-97.7395204,30.2839272],[-97.739529,30.2839358],[-97.7395401,30.2839387],[-97.7395637,30.2839328],[-97.7395525,30.2840586],[-97.7396496,30.2840674]]]},"properties":{"k":"depth","m":"water","name":"Littlefield Fountain","b":0.0,"h":1.02}},{"type":"Feature","geometry":{"type":"Polygon","coordinates":[[[-97.7397711,30.2838981],[-97.7397711,30.2839202],[-97.7398648,30.2839202],[-97.7398648,30.2838981],[-97.7397711,30.2838981]]]},"properties":{"k":"depth","m":"stone","name":"South Mall steps","b":0.0,"h":0.23}},{"type":"Feature","geometry":{"type":"Polygon","coordinates":[[[-97.7397711,30.2839146],[-97.7397711,30.2839367],[-97.7398648,30.2839367],[-97.7398648,30.2839146],[-97.7397711,30.2839146]]]},"properties":{"k":"depth","m":"stonedk","name":"South Mall steps","b":0.0,"h":0.45}},{"type":"Feature","geometry":{"type":"Polygon","coordinates":[[[-97.7397711,30.2839311],[-97.7397711,30.2839532],[-97.7398648,30.2839532],[-97.7398648,30.2839311],[-97.7397711,30.2839311]]]},"properties":{"k":"depth","m":"stone","name":"South Mall steps","b":0.0,"h":0.68}},{"type":"Feature","geometry":{"type":"Polygon","coordinates":[[[-97.7397711,30.2839475],[-97.7397711,30.2839696],[-97.7398648,30.2839696],[-97.7398648,30.2839475],[-97.7397711,30.2839475]]]},"properties":{"k":"depth","m":"stonedk","name":"South Mall steps","b":0.0,"h":0.9}},{"type":"Feature","geometry":{"type":"Polygon","coordinates":[[[-97.7397711,30.283964],[-97.7397711,30.2839861],[-97.7398648,30.2839861],[-97.7398648,30.283964],[-97.7397711,30.283964]]]},"properties":{"k":"depth","m":"stone","name":"South Mall steps","b":0.0,"h":1.12}},{"type":"Feature","geometry":{"type":"Polygon","coordinates":[[[-97.7397711,30.2839805],[-97.7397711,30.2840026],[-97.7398648,30.2840026],[-97.7398648,30.2839805],[-97.7397711,30.2839805]]]},"properties":{"k":"depth","m":"stonedk","name":"South Mall steps","b":0.0,"h":1.35}},{"type":"Feature","geometry":{"type":"Polygon","coordinates":[[[-97.7393618,30.2838981],[-97.7393618,30.2839202],[-97.7394556,30.2839202],[-97.7394556,30.2838981],[-97.7393618,30.2838981]]]},"properties":{"k":"depth","m":"stone","name":"South Mall steps","b":0.0,"h":0.23}},{"type":"Feature","geometry":{"type":"Polygon","coordinates":[[[-97.7393618,30.2839146],[-97.7393618,30.2839367],[-97.7394556,30.2839367],[-97.7394556,30.2839146],[-97.7393618,30.2839146]]]},"properties":{"k":"depth","m":"stonedk","name":"South Mall steps","b":0.0,"h":0.45}},{"type":"Feature","geometry":{"type":"Polygon","coordinates":[[[-97.7393618,30.2839311],[-97.7393618,30.2839532],[-97.7394556,30.2839532],[-97.7394556,30.2839311],[-97.7393618,30.2839311]]]},"properties":{"k":"depth","m":"stone","name":"South Mall steps","b":0.0,"h":0.68}},{"type":"Feature","geometry":{"type":"Polygon","coordinates":[[[-97.7393618,30.2839475],[-97.7393618,30.2839696],[-97.7394556,30.2839696],[-97.7394556,30.2839475],[-97.7393618,30.2839475]]]},"properties":{"k":"depth","m":"stonedk","name":"South Mall steps","b":0.0,"h":0.9}},{"type":"Feature","geometry":{"type":"Polygon","coordinates":[[[-97.7393618,30.283964],[-97.7393618,30.2839861],[-97.7394556,30.2839861],[-97.7394556,30.283964],[-97.7393618,30.283964]]]},"properties":{"k":"depth","m":"stone","name":"South Mall steps","b":0.0,"h":1.12}},{"type":"Feature","geometry":{"type":"Polygon","coordinates":[[[-97.7393618,30.2839805],[-97.7393618,30.2840026],[-97.7394556,30.2840026],[-97.7394556,30.2839805],[-97.7393618,30.2839805]]]},"properties":{"k":"depth","m":"stonedk","name":"South Mall steps","b":0.0,"h":1.35}},{"type":"Feature","geometry":{"type":"Polygon","coordinates":[[[-97.7395586,30.286957],[-97.7395593,30.2869587],[-97.7395612,30.2869593],[-97.7395631,30.2869587],[-97.7395638,30.286957],[-97.7395631,30.2869554],[-97.7395612,30.2869548],[-97.7395593,30.2869554],[-97.7395586,30.286957]]]},"properties":{"k":"depth","m":"shell","name":"Turtle Pond","b":0.05,"h":0.12}},{"type":"Feature","geometry":{"type":"Polygon","coordinates":[[[-97.7395589,30.286957],[-97.7395596,30.2869585],[-97.7395612,30.286959],[-97.7395628,30.2869585],[-97.7395635,30.286957],[-97.7395628,30.2869556],[-97.7395612,30.2869551],[-97.7395596,30.2869556],[-97.7395589,30.286957]]]},"properties":{"k":"depth","m":"shell","name":"Turtle Pond","b":0.12,"h":0.18}},{"type":"Feature","geometry":{"type":"Polygon","coordinates":[[[-97.7395597,30.286957],[-97.7395602,30.2869579],[-97.7395612,30.2869583],[-97.7395622,30.2869579],[-97.7395627,30.286957],[-97.7395622,30.2869561],[-97.7395612,30.2869558],[-97.7395602,30.2869561],[-97.7395597,30.286957]]]},"properties":{"k":"depth","m":"shell","name":"Turtle Pond","b":0.18,"h":0.25}},{"type":"Feature","geometry":{"type":"Polygon","coordinates":[[[-97.739558,30.2869583],[-97.7395588,30.286959],[-97.7395596,30.2869583],[-97.7395588,30.2869576],[-97.739558,30.2869583]]]},"properties":{"k":"depth","m":"shell","name":"Turtle Pond","b":0.05,"h":0.16}},{"type":"Feature","geometry":{"type":"Polygon","coordinates":[[[-97.7394745,30.2869121],[-97.7394757,30.2869146],[-97.7394786,30.2869156],[-97.7394815,30.2869146],[-97.7394827,30.2869121],[-97.7394815,30.2869095],[-97.7394786,30.2869085],[-97.7394757,30.2869095],[-97.7394745,30.2869121]]]},"properties":{"k":"depth","m":"shell","name":"Turtle Pond","b":0.05,"h":0.15}},{"type":"Feature","geometry":{"type":"Polygon","coordinates":[[[-97.739475,30.2869121],[-97.7394761,30.2869143],[-97.7394786,30.2869152],[-97.7394812,30.2869143],[-97.7394822,30.2869121],[-97.7394812,30.2869099],[-97.7394786,30.2869089],[-97.7394761,30.2869099],[-97.739475,30.2869121]]]},"properties":{"k":"depth","m":"shell","name":"Turtle Pond","b":0.15,"h":0.26}},{"type":"Feature","geometry":{"type":"Polygon","coordinates":[[[-97.7394763,30.2869121],[-97.739477,30.2869135],[-97.7394786,30.286914],[-97.7394803,30.2869135],[-97.7394809,30.2869121],[-97.7394803,30.2869107],[-97.7394786,30.2869101],[-97.739477,30.2869107],[-97.7394763,30.2869121]]]},"properties":{"k":"depth","m":"shell","name":"Turtle Pond","b":0.26,"h":0.36}},{"type":"Feature","geometry":{"type":"Polygon","coordinates":[[[-97.739474,30.2869096],[-97.7394753,30.2869107],[-97.7394765,30.2869096],[-97.7394753,30.2869085],[-97.739474,30.2869096]]]},"properties":{"k":"depth","m":"shell","name":"Turtle Pond","b":0.05,"h":0.22}},{"type":"Feature","geometry":{"type":"Polygon","coordinates":[[[-97.7394609,30.2869204],[-97.7394617,30.2869222],[-97.7394637,30.2869229],[-97.7394657,30.2869222],[-97.7394665,30.2869204],[-97.7394657,30.2869187],[-97.7394637,30.286918],[-97.7394617,30.2869187],[-97.7394609,30.2869204]]]},"properties":{"k":"depth","m":"shell","name":"Turtle Pond","b":0.11,"h":0.18}},{"type":"Feature","geometry":{"type":"Polygon","coordinates":[[[-97.7394612,30.2869204],[-97.7394619,30.286922],[-97.7394637,30.2869226],[-97.7394654,30.286922],[-97.7394662,30.2869204],[-97.7394654,30.2869189],[-97.7394637,30.2869183],[-97.7394619,30.2869189],[-97.7394612,30.2869204]]]},"properties":{"k":"depth","m":"shell","name":"Turtle Pond","b":0.18,"h":0.25}},{"type":"Feature","geometry":{"type":"Polygon","coordinates":[[[-97.7394621,30.2869204],[-97.7394626,30.2869214],[-97.7394637,30.2869218],[-97.7394648,30.2869214],[-97.7394653,30.2869204],[-97.7394648,30.2869195],[-97.7394637,30.2869191],[-97.7394626,30.2869195],[-97.7394621,30.2869204]]]},"properties":{"k":"depth","m":"shell","name":"Turtle Pond","b":0.25,"h":0.32}},{"type":"Feature","geometry":{"type":"Polygon","coordinates":[[[-97.7394617,30.2869229],[-97.7394626,30.2869236],[-97.7394634,30.2869229],[-97.7394626,30.2869221],[-97.7394617,30.2869229]]]},"properties":{"k":"depth","m":"shell","name":"Turtle Pond","b":0.11,"h":0.23}},{"type":"Feature","geometry":{"type":"Polygon","coordinates":[[[-97.7394784,30.2867745],[-97.7394793,30.2867764],[-97.7394815,30.2867771],[-97.7394837,30.2867764],[-97.7394847,30.2867745],[-97.7394837,30.2867726],[-97.7394815,30.2867718],[-97.7394793,30.2867726],[-97.7394784,30.2867745]]]},"properties":{"k":"depth","m":"shell","name":"Turtle Pond","b":0.11,"h":0.19}},{"type":"Feature","geometry":{"type":"Polygon","coordinates":[[[-97.7394788,30.2867745],[-97.7394796,30.2867761],[-97.7394815,30.2867768],[-97.7394835,30.2867761],[-97.7394843,30.2867745],[-97.7394835,30.2867728],[-97.7394815,30.2867721],[-97.7394796,30.2867728],[-97.7394788,30.2867745]]]},"properties":{"k":"depth","m":"shell","name":"Turtle Pond","b":0.19,"h":0.27}},{"type":"Feature","geometry":{"type":"Polygon","coordinates":[[[-97.7394798,30.2867745],[-97.7394803,30.2867755],[-97.7394815,30.286776],[-97.7394828,30.2867755],[-97.7394833,30.2867745],[-97.7394828,30.2867734],[-97.7394815,30.2867729],[-97.7394803,30.2867734],[-97.7394798,30.2867745]]]},"properties":{"k":"depth","m":"shell","name":"Turtle Pond","b":0.27,"h":0.35}},{"type":"Feature","geometry":{"type":"Polygon","coordinates":[[[-97.7394826,30.2867767],[-97.7394835,30.2867776],[-97.7394845,30.2867767],[-97.7394835,30.2867759],[-97.7394826,30.2867767]]]},"properties":{"k":"depth","m":"shell","name":"Turtle Pond","b":0.11,"h":0.24}},{"type":"Feature","geometry":{"type":"Polygon","coordinates":[[[-97.7394398,30.2867545],[-97.7394409,30.2867567],[-97.7394434,30.2867576],[-97.739446,30.2867567],[-97.739447,30.2867545],[-97.739446,30.2867523],[-97.7394434,30.2867514],[-97.7394409,30.2867523],[-97.7394398,30.2867545]]]},"properties":{"k":"depth","m":"shell","name":"Turtle Pond","b":0.11,"h":0.2}},{"type":"Feature","geometry":{"type":"Polygon","coordinates":[[[-97.7394403,30.2867545],[-97.7394412,30.2867564],[-97.7394434,30.2867572],[-97.7394457,30.2867564],[-97.7394466,30.2867545],[-97.7394457,30.2867526],[-97.7394434,30.2867518],[-97.7394412,30.2867526],[-97.7394403,30.2867545]]]},"properties":{"k":"depth","m":"shell","name":"Turtle Pond","b":0.2,"h":0.29}},{"type":"Feature","geometry":{"type":"Polygon","coordinates":[[[-97.7394414,30.2867545],[-97.739442,30.2867557],[-97.7394434,30.2867562],[-97.7394448,30.2867557],[-97.7394454,30.2867545],[-97.7394448,30.2867532],[-97.7394434,30.2867527],[-97.739442,30.2867532],[-97.7394414,30.2867545]]]},"properties":{"k":"depth","m":"shell","name":"Turtle Pond","b":0.29,"h":0.38}},{"type":"Feature","geometry":{"type":"Polygon","coordinates":[[[-97.7394452,30.2867523],[-97.7394463,30.2867533],[-97.7394474,30.2867523],[-97.7394463,30.2867514],[-97.7394452,30.2867523]]]},"properties":{"k":"depth","m":"shell","name":"Turtle Pond","b":0.11,"h":0.26}},{"type":"Feature","geometry":{"type":"Polygon","coordinates":[[[-97.7394588,30.2868048],[-97.7394597,30.2868065],[-97.7394617,30.2868072],[-97.7394636,30.2868065],[-97.7394645,30.2868048],[-97.7394636,30.2868031],[-97.7394617,30.2868023],[-97.7394597,30.2868031],[-97.7394588,30.2868048]]]},"properties":{"k":"depth","m":"shell","name":"Turtle Pond","b":0.05,"h":0.12}},{"type":"Feature","geometry":{"type":"Polygon","coordinates":[[[-97.7394592,30.2868048],[-97.7394599,30.2868063],[-97.7394617,30.2868069],[-97.7394634,30.2868063],[-97.7394641,30.2868048],[-97.7394634,30.2868033],[-97.7394617,30.2868026],[-97.7394599,30.2868033],[-97.7394592,30.2868048]]]},"properties":{"k":"depth","m":"shell","name":"Turtle Pond","b":0.12,"h":0.19}},{"type":"Feature","geometry":{"type":"Polygon","coordinates":[[[-97.7394601,30.2868048],[-97.7394605,30.2868058],[-97.7394617,30.2868062],[-97.7394628,30.2868058],[-97.7394632,30.2868048],[-97.7394628,30.2868038],[-97.7394617,30.2868034],[-97.7394605,30.2868038],[-97.7394601,30.2868048]]]},"properties":{"k":"depth","m":"shell","name":"Turtle Pond","b":0.19,"h":0.26}},{"type":"Feature","geometry":{"type":"Polygon","coordinates":[[[-97.7394598,30.2868072],[-97.7394606,30.286808],[-97.7394615,30.2868072],[-97.7394606,30.2868065],[-97.7394598,30.2868072]]]},"properties":{"k":"depth","m":"shell","name":"Turtle Pond","b":0.05,"h":0.17}},{"type":"Feature","geometry":{"type":"Polygon","coordinates":[[[-97.7395881,30.2869725],[-97.7395892,30.2869748],[-97.7395919,30.2869757],[-97.7395945,30.2869748],[-97.7395956,30.2869725],[-97.7395945,30.2869702],[-97.7395919,30.2869693],[-97.7395892,30.2869702],[-97.7395881,30.2869725]]]},"properties":{"k":"depth","m":"shell","name":"Turtle Pond","b":0.05,"h":0.14}},{"type":"Feature","geometry":{"type":"Polygon","coordinates":[[[-97.7395886,30.2869725],[-97.7395895,30.2869745],[-97.7395919,30.2869753],[-97.7395942,30.2869745],[-97.7395951,30.2869725],[-97.7395942,30.2869705],[-97.7395919,30.2869697],[-97.7395895,30.2869705],[-97.7395886,30.2869725]]]},"properties":{"k":"depth","m":"shell","name":"Turtle Pond","b":0.14,"h":0.24}},{"type":"Feature","geometry":{"type":"Polygon","coordinates":[[[-97.7395898,30.2869725],[-97.7395904,30.2869738],[-97.7395919,30.2869743],[-97.7395933,30.2869738],[-97.7395939,30.2869725],[-97.7395933,30.2869712],[-97.7395919,30.2869707],[-97.7395904,30.2869712],[-97.7395898,30.2869725]]]},"properties":{"k":"depth","m":"shell","name":"Turtle Pond","b":0.24,"h":0.33}},{"type":"Feature","geometry":{"type":"Polygon","coordinates":[[[-97.7395924,30.2869694],[-97.7395936,30.2869704],[-97.7395947,30.2869694],[-97.7395936,30.2869684],[-97.7395924,30.2869694]]]},"properties":{"k":"depth","m":"shell","name":"Turtle Pond","b":0.05,"h":0.2}},{"type":"Feature","geometry":{"type":"Polygon","coordinates":[[[-97.7394412,30.2867936],[-97.7394423,30.286796],[-97.739445,30.286797],[-97.7394478,30.286796],[-97.7394489,30.2867936],[-97.7394478,30.2867913],[-97.739445,30.2867903],[-97.7394423,30.2867913],[-97.7394412,30.2867936]]]},"properties":{"k":"depth","m":"shell","name":"Turtle Pond","b":0.05,"h":0.15}},{"type":"Feature","geometry":{"type":"Polygon","coordinates":[[[-97.7394416,30.2867936],[-97.7394426,30.2867957],[-97.739445,30.2867966],[-97.7394475,30.2867957],[-97.7394485,30.2867936],[-97.7394475,30.2867915],[-97.739445,30.2867907],[-97.7394426,30.2867915],[-97.7394416,30.2867936]]]},"properties":{"k":"depth","m":"shell","name":"Turtle Pond","b":0.15,"h":0.25}},{"type":"Feature","geometry":{"type":"Polygon","coordinates":[[[-97.7394429,30.2867936],[-97.7394435,30.286795],[-97.739445,30.2867955],[-97.7394466,30.286795],[-97.7394472,30.2867936],[-97.7394466,30.2867923],[-97.739445,30.2867917],[-97.7394435,30.2867923],[-97.7394429,30.2867936]]]},"properties":{"k":"depth","m":"shell","name":"Turtle Pond","b":0.25,"h":0.35}},{"type":"Feature","geometry":{"type":"Polygon","coordinates":[[[-97.7394432,30.2867901],[-97.7394444,30.2867911],[-97.7394456,30.2867901],[-97.7394444,30.2867891],[-97.7394432,30.2867901]]]},"properties":{"k":"depth","m":"shell","name":"Turtle Pond","b":0.05,"h":0.21}},{"type":"Feature","geometry":{"type":"Polygon","coordinates":[[[-97.7396667,30.2869893],[-97.7396678,30.2869915],[-97.7396703,30.2869924],[-97.7396729,30.2869915],[-97.739674,30.2869893],[-97.7396729,30.2869871],[-97.7396703,30.2869861],[-97.7396678,30.2869871],[-97.7396667,30.2869893]]]},"properties":{"k":"depth","m":"shell","name":"Turtle Pond","b":0.11,"h":0.2}},{"type":"Feature","geometry":{"type":"Polygon","coordinates":[[[-97.7396671,30.2869893],[-97.7396681,30.2869913],[-97.7396703,30.2869921],[-97.7396726,30.2869913],[-97.7396735,30.2869893],[-97.7396726,30.2869873],[-97.7396703,30.2869865],[-97.7396681,30.2869873],[-97.7396671,30.2869893]]]},"properties":{"k":"depth","m":"shell","name":"Turtle Pond","b":0.2,"h":0.29}},{"type":"Feature","geometry":{"type":"Polygon","coordinates":[[[-97.7396683,30.2869893],[-97.7396689,30.2869905],[-97.7396703,30.2869911],[-97.7396718,30.2869905],[-97.7396724,30.2869893],[-97.7396718,30.286988],[-97.7396703,30.2869875],[-97.7396689,30.286988],[-97.7396683,30.2869893]]]},"properties":{"k":"depth","m":"shell","name":"Turtle Pond","b":0.29,"h":0.39}},{"type":"Feature","geometry":{"type":"Polygon","coordinates":[[[-97.7396717,30.2869867],[-97.7396728,30.2869877],[-97.7396739,30.2869867],[-97.7396728,30.2869858],[-97.7396717,30.2869867]]]},"properties":{"k":"depth","m":"shell","name":"Turtle Pond","b":0.11,"h":0.26}},{"type":"Feature","geometry":{"type":"Polygon","coordinates":[[[-97.7396317,30.2869708],[-97.7396325,30.2869725],[-97.7396345,30.2869732],[-97.7396365,30.2869725],[-97.7396373,30.2869708],[-97.7396365,30.2869691],[-97.7396345,30.2869684],[-97.7396325,30.2869691],[-97.7396317,30.2869708]]]},"properties":{"k":"depth","m":"shell","name":"Turtle Pond","b":0.11,"h":0.18}},{"type":"Feature","geometry":{"type":"Polygon","coordinates":[[[-97.7396321,30.2869708],[-97.7396328,30.2869723],[-97.7396345,30.2869729],[-97.7396363,30.2869723],[-97.739637,30.2869708],[-97.7396363,30.2869693],[-97.7396345,30.2869687],[-97.7396328,30.2869693],[-97.7396321,30.2869708]]]},"properties":{"k":"depth","m":"shell","name":"Turtle Pond","b":0.18,"h":0.25}},{"type":"Feature","geometry":{"type":"Polygon","coordinates":[[[-97.739633,30.2869708],[-97.7396334,30.2869718],[-97.7396345,30.2869722],[-97.7396356,30.2869718],[-97.7396361,30.2869708],[-97.7396356,30.2869698],[-97.7396345,30.2869694],[-97.7396334,30.2869698],[-97.739633,30.2869708]]]},"properties":{"k":"depth","m":"shell","name":"Turtle Pond","b":0.25,"h":0.32}},{"type":"Feature","geometry":{"type":"Polygon","coordinates":[[[-97.7396324,30.2869731],[-97.7396333,30.2869739],[-97.7396341,30.2869731],[-97.7396333,30.2869724],[-97.7396324,30.2869731]]]},"properties":{"k":"depth","m":"shell","name":"Turtle Pond","b":0.11,"h":0.22}},{"type":"Feature","geometry":{"type":"Polygon","coordinates":[[[-97.7397038,30.2869946],[-97.7397048,30.2869967],[-97.7397072,30.2869976],[-97.7397097,30.2869967],[-97.7397107,30.2869946],[-97.7397097,30.2869925],[-97.7397072,30.2869916],[-97.7397048,30.2869925],[-97.7397038,30.2869946]]]},"properties":{"k":"depth","m":"shell","name":"Turtle Pond","b":0.11,"h":0.2}},{"type":"Feature","geometry":{"type":"Polygon","coordinates":[[[-97.7397042,30.2869946],[-97.7397051,30.2869964],[-97.7397072,30.2869972],[-97.7397094,30.2869964],[-97.7397103,30.2869946],[-97.7397094,30.2869927],[-97.7397072,30.286992],[-97.7397051,30.2869927],[-97.7397042,30.2869946]]]},"properties":{"k":"depth","m":"shell","name":"Turtle Pond","b":0.2,"h":0.28}},{"type":"Feature","geometry":{"type":"Polygon","coordinates":[[[-97.7397053,30.2869946],[-97.7397059,30.2869958],[-97.7397072,30.2869963],[-97.7397086,30.2869958],[-97.7397092,30.2869946],[-97.7397086,30.2869934],[-97.7397072,30.2869929],[-97.7397059,30.2869934],[-97.7397053,30.2869946]]]},"properties":{"k":"depth","m":"shell","name":"Turtle Pond","b":0.28,"h":0.37}},{"type":"Feature","geometry":{"type":"Polygon","coordinates":[[[-97.7397098,30.286994],[-97.7397109,30.286995],[-97.7397119,30.286994],[-97.7397109,30.2869931],[-97.7397098,30.286994]]]},"properties":{"k":"depth","m":"shell","name":"Turtle Pond","b":0.11,"h":0.25}},{"type":"Feature","geometry":{"type":"Polygon","coordinates":[[[-97.7394175,30.286889],[-97.7394186,30.2868914],[-97.7394213,30.2868923],[-97.7394241,30.2868914],[-97.7394252,30.286889],[-97.7394241,30.2868867],[-97.7394213,30.2868857],[-97.7394186,30.2868867],[-97.7394175,30.286889]]]},"properties":{"k":"depth","m":"shell","name":"Turtle Pond","b":0.05,"h":0.15}},{"type":"Feature","geometry":{"type":"Polygon","coordinates":[[[-97.739418,30.286889],[-97.7394189,30.2868911],[-97.7394213,30.2868919],[-97.7394237,30.2868911],[-97.7394247,30.286889],[-97.7394237,30.2868869],[-97.7394213,30.2868861],[-97.7394189,30.2868869],[-97.739418,30.286889]]]},"properties":{"k":"depth","m":"shell","name":"Turtle Pond","b":0.15,"h":0.25}},{"type":"Feature","geometry":{"type":"Polygon","coordinates":[[[-97.7394192,30.286889],[-97.7394198,30.2868903],[-97.7394213,30.2868909],[-97.7394229,30.2868903],[-97.7394235,30.286889],[-97.7394229,30.2868877],[-97.7394213,30.2868871],[-97.7394198,30.2868877],[-97.7394192,30.286889]]]},"properties":{"k":"depth","m":"shell","name":"Turtle Pond","b":0.25,"h":0.34}},{"type":"Feature","geometry":{"type":"Polygon","coordinates":[[[-97.7394201,30.2868855],[-97.7394213,30.2868865],[-97.7394225,30.2868855],[-97.7394213,30.2868845],[-97.7394201,30.2868855]]]},"properties":{"k":"depth","m":"shell","name":"Turtle Pond","b":0.05,"h":0.21}}]}