{"type":"FeatureCollection","features":[{"type":"Feature","properties":{"kind":"wall","grp":"pcl","band":"base","fam":"pclSolid","mat":"limeD","wd":"#999c9c","wg":"#a9a198","wn":"#181a22","base":0.0,"h":5.0,"bid":"04ac46be-ba31-4ff5-ab58-e36988f6a5fb"},"geometry":{"type":"Polygon","coordinates":[[[-97.7381383,30.2830111],[-97.7384551,30.2833463],[-97.7384553,30.2832556],[-97.7384818,30.2829651],[-97.7386373,30.2829766],[-97.7386648,30.2827096],[-97.7386779,30.2825759],[-97.738495,30.2823905],[-97.7382359,30.2823701],[-97.7382551,30.2821644],[-97.7379855,30.2823627],[-97.7377526,30.2825244],[-97.7377114,30.2829332],[-97.7377604,30.2829369],[-97.7377578,30.2829633],[-97.7380102,30.2829822],[-97.7380088,30.2829963],[-97.7380546,30.2829998],[-97.7381383,30.2830111]]]}},{"type":"Feature","properties":{"kind":"wall","grp":"pcl","band":"spandrel","fam":"pclSolid","mat":"lime","wd":"#adb0af","wg":"#bab2a8","wn":"#1b1d24","base":5.0,"h":6.05,"bid":"04ac46be-ba31-4ff5-ab58-e36988f6a5fb"},"geometry":{"type":"Polygon","coordinates":[[[-97.7381328,30.2830194],[-97.7384654,30.2833715],[-97.7384657,30.283256],[-97.7384913,30.2829748],[-97.7386467,30.2829863],[-97.7386752,30.2827104],[-97.7386886,30.2825729],[-97.7385002,30.2823819],[-97.7382471,30.282362],[-97.7382675,30.2821435],[-97.7379789,30.2823558],[-97.7377426,30.2825198],[-97.7377001,30.2829414],[-97.7377492,30.2829451],[-97.7377466,30.2829715],[-97.7379989,30.2829904],[-97.7379975,30.2830045],[-97.7380533,30.2830087],[-97.7381328,30.2830194]]]}},{"type":"Feature","properties":{"kind":"wall","grp":"pcl","band":"coffer","fam":"pclCoffer","mat":"lime","wd":"#adb0af","wg":"#bab2a8","wn":"#1b1d24","base":6.05,"h":8.2,"bid":"04ac46be-ba31-4ff5-ab58-e36988f6a5fb"},"geometry":{"type":"Polygon","coordinates":[[[-97.7381367,30.2830136],[-97.7384582,30.2833539],[-97.7384584,30.2832557],[-97.7384846,30.282968],[-97.7386401,30.2829795],[-97.7386679,30.2827099],[-97.7386811,30.282575],[-97.7384966,30.2823879],[-97.7382393,30.2823677],[-97.7382588,30.2821581],[-97.7379835,30.2823606],[-97.7377496,30.282523],[-97.737708,30.2829357],[-97.7377571,30.2829394],[-97.7377545,30.2829658],[-97.7380068,30.2829847],[-97.7380054,30.2829988],[-97.7380542,30.2830025],[-97.7381367,30.2830136]]]}},{"type":"Feature","properties":{"kind":"wall","grp":"pcl","band":"spandrel","fam":"pclSolid","mat":"lime","wd":"#adb0af","wg":"#bab2a8","wn":"#1b1d24","base":8.2,"h":9.25,"bid":"04ac46be-ba31-4ff5-ab58-e36988f6a5fb"},"geometry":{"type":"Polygon","coordinates":[[[-97.7381328,30.2830194],[-97.7384654,30.2833715],[-97.7384657,30.283256],[-97.7384913,30.2829748],[-97.7386467,30.2829863],[-97.7386752,30.2827104],[-97.7386886,30.2825729],[-97.7385002,30.2823819],[-97.7382471,30.282362],[-97.7382675,30.2821435],[-97.7379789,30.2823558],[-97.7377426,30.2825198],[-97.7377001,30.2829414],[-97.7377492,30.2829451],[-97.7377466,30.2829715],[-97.7379989,30.2829904],[-97.7379975,30.2830045],[-97.7380533,30.2830087],[-97.7381328,30.2830194]]]}},{"type":"Feature","properties":{"kind":"wall","grp":"pcl","band":"coffer","fam":"pclCoffer","mat":"lime","wd":"#adb0af","wg":"#bab2a8","wn":"#1b1d24","base":9.25,"h":11.4,"bid":"04ac46be-ba31-4ff5-ab58-e36988f6a5fb"},"geometry":{"type":"Polygon","coordinates":[[[-97.7381367,30.2830136],[-97.7384582,30.2833539],[-97.7384584,30.2832557],[-97.7384846,30.282968],[-97.7386401,30.2829795],[-97.7386679,30.2827099],[-97.7386811,30.282575],[-97.7384966,30.2823879],[-97.7382393,30.2823677],[-97.7382588,30.2821581],[-97.7379835,30.2823606],[-97.7377496,30.282523],[-97.737708,30.2829357],[-97.7377571,30.2829394],[-97.7377545,30.2829658],[-97.7380068,30.2829847],[-97.7380054,30.2829988],[-97.7380542,30.2830025],[-97.7381367,30.2830136]]]}},{"type":"Feature","properties":{"kind":"wall","grp":"pcl","band":"spandrel","fam":"pclSolid","mat":"lime","wd":"#adb0af","wg":"#bab2a8","wn":"#1b1d24","base":11.4,"h":12.45,"bid":"04ac46be-ba31-4ff5-ab58-e36988f6a5fb"},"geometry":{"type":"Polygon","coordinates":[[[-97.7381328,30.2830194],[-97.7384654,30.2833715],[-97.7384657,30.283256],[-97.7384913,30.2829748],[-97.7386467,30.2829863],[-97.7386752,30.2827104],[-97.7386886,30.2825729],[-97.7385002,30.2823819],[-97.7382471,30.282362],[-97.7382675,30.2821435],[-97.7379789,30.2823558],[-97.7377426,30.2825198],[-97.7377001,30.2829414],[-97.7377492,30.2829451],[-97.7377466,30.2829715],[-97.7379989,30.2829904],[-97.7379975,30.2830045],[-97.7380533,30.2830087],[-97.7381328,30.2830194]]]}},{"type":"Feature","properties":{"kind":"wall","grp":"pcl","band":"coffer","fam":"pclCoffer","mat":"lime","wd":"#adb0af","wg":"#bab2a8","wn":"#1b1d24","base":12.45,"h":14.6,"bid":"04ac46be-ba31-4ff5-ab58-e36988f6a5fb"},"geometry":{"type":"Polygon","coordinates":[[[-97.7381367,30.2830136],[-97.7384582,30.2833539],[-97.7384584,30.2832557],[-97.7384846,30.282968],[-97.7386401,30.2829795],[-97.7386679,30.2827099],[-97.7386811,30.282575],[-97.7384966,30.2823879],[-97.7382393,30.2823677],[-97.7382588,30.2821581],[-97.7379835,30.2823606],[-97.7377496,30.282523],[-97.737708,30.2829357],[-97.7377571,30.2829394],[-97.7377545,30.2829658],[-97.7380068,30.2829847],[-97.7380054,30.2829988],[-97.7380542,30.2830025],[-97.7381367,30.2830136]]]}},{"type":"Feature","properties":{"kind":"wall","grp":"pcl","band":"spandrel","fam":"pclSolid","mat":"lime","wd":"#adb0af","wg":"#bab2a8","wn":"#1b1d24","base":14.6,"h":15.65,"bid":"04ac46be-ba31-4ff5-ab58-e36988f6a5fb"},"geometry":{"type":"Polygon","coordinates":[[[-97.7381328,30.2830194],[-97.7384654,30.2833715],[-97.7384657,30.283256],[-97.7384913,30.2829748],[-97.7386467,30.2829863],[-97.7386752,30.2827104],[-97.7386886,30.2825729],[-97.7385002,30.2823819],[-97.7382471,30.282362],[-97.7382675,30.2821435],[-97.7379789,30.2823558],[-97.7377426,30.2825198],[-97.7377001,30.2829414],[-97.7377492,30.2829451],[-97.7377466,30.2829715],[-97.7379989,30.2829904],[-97.7379975,30.2830045],[-97.7380533,30.2830087],[-97.7381328,30.2830194]]]}},{"type":"Feature","properties":{"kind":"wall","grp":"pcl","band":"coffer","fam":"pclCoffer","mat":"lime","wd":"#adb0af","wg":"#bab2a8","wn":"#1b1d24","base":15.65,"h":17.8,"bid":"04ac46be-ba31-4ff5-ab58-e36988f6a5fb"},"geometry":{"type":"Polygon","coordinates":[[[-97.7381367,30.2830136],[-97.7384582,30.2833539],[-97.7384584,30.2832557],[-97.7384846,30.282968],[-97.7386401,30.2829795],[-97.7386679,30.2827099],[-97.7386811,30.282575],[-97.7384966,30.2823879],[-97.7382393,30.2823677],[-97.7382588,30.2821581],[-97.7379835,30.2823606],[-97.7377496,30.282523],[-97.737708,30.2829357],[-97.7377571,30.2829394],[-97.7377545,30.2829658],[-97.7380068,30.2829847],[-97.7380054,30.2829988],[-97.7380542,30.2830025],[-97.7381367,30.2830136]]]}},{"type":"Feature","properties":{"kind":"wall","grp":"pcl","band":"spandrel","fam":"pclSolid","mat":"lime","wd":"#adb0af","wg":"#bab2a8","wn":"#1b1d24","base":17.8,"h":18.85,"bid":"04ac46be-ba31-4ff5-ab58-e36988f6a5fb"},"geometry":{"type":"Polygon","coordinates":[[[-97.7381328,30.2830194],[-97.7384654,30.2833715],[-97.7384657,30.283256],[-97.7384913,30.2829748],[-97.7386467,30.2829863],[-97.7386752,30.2827104],[-97.7386886,30.2825729],[-97.7385002,30.2823819],[-97.7382471,30.282362],[-97.7382675,30.2821435],[-97.7379789,30.2823558],[-97.7377426,30.2825198],[-97.7377001,30.2829414],[-97.7377492,30.2829451],[-97.7377466,30.2829715],[-97.7379989,30.2829904],[-97.7379975,30.2830045],[-97.7380533,30.2830087],[-97.7381328,30.2830194]]]}},{"type":"Feature","properties":{"kind":"wall","grp":"pcl","band":"coffer","fam":"pclCoffer","mat":"lime","wd":"#adb0af","wg":"#bab2a8","wn":"#1b1d24","base":18.85,"h":21.0,"bid":"04ac46be-ba31-4ff5-ab58-e36988f6a5fb"},"geometry":{"type":"Polygon","coordinates":[[[-97.7381367,30.2830136],[-97.7384582,30.2833539],[-97.7384584,30.2832557],[-97.7384846,30.282968],[-97.7386401,30.2829795],[-97.7386679,30.2827099],[-97.7386811,30.282575],[-97.7384966,30.2823879],[-97.7382393,30.2823677],[-97.7382588,30.2821581],[-97.7379835,30.2823606],[-97.7377496,30.282523],[-97.737708,30.2829357],[-97.7377571,30.2829394],[-97.7377545,30.2829658],[-97.7380068,30.2829847],[-97.7380054,30.2829988],[-97.7380542,30.2830025],[-97.7381367,30.2830136]]]}},{"type":"Feature","properties":{"kind":"wall","grp":"pcl","band":"spandrel","fam":"pclSolid","mat":"lime","wd":"#adb0af","wg":"#bab2a8","wn":"#1b1d24","base":21.0,"h":22.05,"bid":"04ac46be-ba31-4ff5-ab58-e36988f6a5fb"},"geometry":{"type":"Polygon","coordinates":[[[-97.7381328,30.2830194],[-97.7384654,30.2833715],[-97.7384657,30.283256],[-97.7384913,30.2829748],[-97.7386467,30.2829863],[-97.7386752,30.2827104],[-97.7386886,30.2825729],[-97.7385002,30.2823819],[-97.7382471,30.282362],[-97.7382675,30.2821435],[-97.7379789,30.2823558],[-97.7377426,30.2825198],[-97.7377001,30.2829414],[-97.7377492,30.2829451],[-97.7377466,30.2829715],[-97.7379989,30.2829904],[-97.7379975,30.2830045],[-97.7380533,30.2830087],[-97.7381328,30.2830194]]]}},{"type":"Feature","properties":{"kind":"wall","grp":"pcl","band":"coffer","fam":"pclCoffer","mat":"lime","wd":"#adb0af","wg":"#bab2a8","wn":"#1b1d24","base":22.05,"h":24.2,"bid":"04ac46be-ba31-4ff5-ab58-e36988f6a5fb"},"geometry":{"type":"Polygon","coordinates":[[[-97.7381367,30.2830136],[-97.7384582,30.2833539],[-97.7384584,30.2832557],[-97.7384846,30.282968],[-97.7386401,30.2829795],[-97.7386679,30.2827099],[-97.7386811,30.282575],[-97.7384966,30.2823879],[-97.7382393,30.2823677],[-97.7382588,30.2821581],[-97.7379835,30.2823606],[-97.7377496,30.282523],[-97.737708,30.2829357],[-97.7377571,30.2829394],[-97.7377545,30.2829658],[-97.7380068,30.2829847],[-97.7380054,30.2829988],[-97.7380542,30.2830025],[-97.7381367,30.2830136]]]}},{"type":"Feature","properties":{"kind":"wall","grp":"pcl","band":"crown","fam":"pclSolid","mat":"lime","wd":"#adb0af","wg":"#bab2a8","wn":"#1b1d24","base":24.2,"h":27.5,"bid":"04ac46be-ba31-4ff5-ab58-e36988f6a5fb"},"geometry":{"type":"Polygon","coordinates":[[[-97.7381328,30.2830194],[-97.7384654,30.2833715],[-97.7384657,30.283256],[-97.7384913,30.2829748],[-97.7386467,30.2829863],[-97.7386752,30.2827104],[-97.7386886,30.2825729],[-97.7385002,30.2823819],[-97.7382471,30.282362],[-97.7382675,30.2821435],[-97.7379789,30.2823558],[-97.7377426,30.2825198],[-97.7377001,30.2829414],[-97.7377492,30.2829451],[-97.7377466,30.2829715],[-97.7379989,30.2829904],[-97.7379975,30.2830045],[-97.7380533,30.2830087],[-97.7381328,30.2830194]]]}},{"type":"Feature","properties":{"kind":"cap","grp":"pcl","wd":"#7f868c","wg":"#938f8a","wn":"#161820","base":27.5,"h":28.5,"bid":"04ac46be-ba31-4ff5-ab58-e36988f6a5fb"},"geometry":{"type":"Polygon","coordinates":[[[-97.7381328,30.2830194],[-97.7384654,30.2833715],[-97.7384657,30.283256],[-97.7384913,30.2829748],[-97.7386467,30.2829863],[-97.7386752,30.2827104],[-97.7386886,30.2825729],[-97.7385002,30.2823819],[-97.7382471,30.282362],[-97.7382675,30.2821435],[-97.7379789,30.2823558],[-97.7377426,30.2825198],[-97.7377001,30.2829414],[-97.7377492,30.2829451],[-97.7377466,30.2829715],[-97.7379989,30.2829904],[-97.7379975,30.2830045],[-97.7380533,30.2830087],[-97.7381328,30.2830194]]]}},{"type":"Feature","properties":{"kind":"wall","grp":"gym","band":"plinth","fam":"gymSolid","mat":"cstone","wd":"#b3ab9c","wg":"#bfae98","wn":"#1b1c22","base":0.0,"h":3.6,"bid":"1bb698db-9765-47b4-8f32-a428eefce38a"},"geometry":{"type":"Polygon","coordinates":[[[-97.7369471,30.2839866],[-97.736987,30.2835884],[-97.736095,30.2835218],[-97.7360845,30.2836268],[-97.7360492,30.2839798],[-97.7359441,30.2839719],[-97.7359413,30.2840002],[-97.7356867,30.2839812],[-97.7356735,30.2841129],[-97.735588,30.2841065],[-97.735579,30.2841964],[-97.7356656,30.2842029],[-97.7356523,30.2843358],[-97.7361707,30.2843745],[-97.7361676,30.2844054],[-97.7368112,30.2844534],[-97.7368208,30.2843584],[-97.7368508,30.2843606],[-97.7368731,30.284138],[-97.7368449,30.2841359],[-97.7368545,30.2840401],[-97.7368308,30.2840383],[-97.7368337,30.2840096],[-97.7368368,30.2839783],[-97.7369471,30.2839866]]]}},{"type":"Feature","properties":{"kind":"wall","grp":"gym","band":"arcade","fam":"gymArcade","mat":"brick","wd":"#b98a62","wg":"#c49267","wn":"#1c181c","base":3.6,"h":12.6,"bid":"1bb698db-9765-47b4-8f32-a428eefce38a"},"geometry":{"type":"Polygon","coordinates":[[[-97.7369471,30.2839866],[-97.736987,30.2835884],[-97.736095,30.2835218],[-97.7360845,30.2836268],[-97.7360492,30.2839798],[-97.7359441,30.2839719],[-97.7359413,30.2840002],[-97.7356867,30.2839812],[-97.7356735,30.2841129],[-97.735588,30.2841065],[-97.735579,30.2841964],[-97.7356656,30.2842029],[-97.7356523,30.2843358],[-97.7361707,30.2843745],[-97.7361676,30.2844054],[-97.7368112,30.2844534],[-97.7368208,30.2843584],[-97.7368508,30.2843606],[-97.7368731,30.284138],[-97.7368449,30.2841359],[-97.7368545,30.2840401],[-97.7368308,30.2840383],[-97.7368337,30.2840096],[-97.7368368,30.2839783],[-97.7369471,30.2839866]]]}},{"type":"Feature","properties":{"kind":"wall","grp":"gym","band":"frieze","fam":"gymFrieze","mat":"brick","wd":"#b98a62","wg":"#c49267","wn":"#1c181c","base":12.6,"h":16.8,"bid":"1bb698db-9765-47b4-8f32-a428eefce38a"},"geometry":{"type":"Polygon","coordinates":[[[-97.7369471,30.2839866],[-97.736987,30.2835884],[-97.736095,30.2835218],[-97.7360845,30.2836268],[-97.7360492,30.2839798],[-97.7359441,30.2839719],[-97.7359413,30.2840002],[-97.7356867,30.2839812],[-97.7356735,30.2841129],[-97.735588,30.2841065],[-97.735579,30.2841964],[-97.7356656,30.2842029],[-97.7356523,30.2843358],[-97.7361707,30.2843745],[-97.7361676,30.2844054],[-97.7368112,30.2844534],[-97.7368208,30.2843584],[-97.7368508,30.2843606],[-97.7368731,30.284138],[-97.7368449,30.2841359],[-97.7368545,30.2840401],[-97.7368308,30.2840383],[-97.7368337,30.2840096],[-97.7368368,30.2839783],[-97.7369471,30.2839866]]]}},{"type":"Feature","properties":{"kind":"wall","grp":"gym","band":"gable","fam":"gymSolid","mat":"cstone","wd":"#b3ab9c","wg":"#bfae98","wn":"#1b1c22","base":16.8,"h":20.0,"bid":"1bb698db-9765-47b4-8f32-a428eefce38a"},"geometry":{"type":"Polygon","coordinates":[[[-97.7369471,30.2839866],[-97.736987,30.2835884],[-97.736095,30.2835218],[-97.7360845,30.2836268],[-97.7360492,30.2839798],[-97.7359441,30.2839719],[-97.7359413,30.2840002],[-97.7356867,30.2839812],[-97.7356735,30.2841129],[-97.735588,30.2841065],[-97.735579,30.2841964],[-97.7356656,30.2842029],[-97.7356523,30.2843358],[-97.7361707,30.2843745],[-97.7361676,30.2844054],[-97.7368112,30.2844534],[-97.7368208,30.2843584],[-97.7368508,30.2843606],[-97.7368731,30.284138],[-97.7368449,30.2841359],[-97.7368545,30.2840401],[-97.7368308,30.2840383],[-97.7368337,30.2840096],[-97.7368368,30.2839783],[-97.7369471,30.2839866]]]}},{"type":"Feature","properties":{"kind":"cap","grp":"gym","wd":"#7a736a","wg":"#8f7f6e","wn":"#15161c","base":20.0,"h":21.0,"bid":"1bb698db-9765-47b4-8f32-a428eefce38a"},"geometry":{"type":"Polygon","coordinates":[[[-97.7369471,30.2839866],[-97.736987,30.2835884],[-97.736095,30.2835218],[-97.7360845,30.2836268],[-97.7360492,30.2839798],[-97.7359441,30.2839719],[-97.7359413,30.2840002],[-97.7356867,30.2839812],[-97.7356735,30.2841129],[-97.735588,30.2841065],[-97.735579,30.2841964],[-97.7356656,30.2842029],[-97.7356523,30.2843358],[-97.7361707,30.2843745],[-97.7361676,30.2844054],[-97.7368112,30.2844534],[-97.7368208,30.2843584],[-97.7368508,30.2843606],[-97.7368731,30.284138],[-97.7368449,30.2841359],[-97.7368545,30.2840401],[-97.7368308,30.2840383],[-97.7368337,30.2840096],[-97.7368368,30.2839783],[-97.7369471,30.2839866]]]}},{"type":"Feature","properties":{"kind":"wall","grp":"union","band":"arcade","fam":"uniArcade","mat":"ashlar","wd":"#e6ded0","wg":"#ead9c4","wn":"#212228","base":0.0,"h":4.05,"bid":"8a2648f5-9994-4d01-9b12-5c589b863c5a"},"geometry":{"type":"Polygon","coordinates":[[[-97.7409696,30.2866493],[-97.7409345,30.2869996],[-97.740979,30.2870029],[-97.7410408,30.2870075],[-97.7410122,30.2872936],[-97.7411874,30.2873067],[-97.7412159,30.2870218],[-97.7413059,30.2870285],[-97.7413303,30.2867844],[-97.7414458,30.2867931],[-97.7414679,30.2865725],[-97.7413293,30.2865621],[-97.7413776,30.28608],[-97.7413805,30.2860509],[-97.7413096,30.2860456],[-97.7413137,30.286005],[-97.7413071,30.2860045],[-97.7411972,30.2859963],[-97.7411784,30.2859949],[-97.7411757,30.286022],[-97.7408203,30.2859954],[-97.740805,30.2861482],[-97.7409636,30.28616],[-97.7409991,30.2861627],[-97.7409942,30.2862112],[-97.7410075,30.2862122],[-97.7409765,30.2865211],[-97.7410079,30.2865234],[-97.7409951,30.2866512],[-97.7409696,30.2866493]]]}},{"type":"Feature","properties":{"kind":"wall","grp":"union","band":"mid","fam":"uniWin","mat":"ashlar","wd":"#e6ded0","wg":"#ead9c4","wn":"#212228","base":4.05,"h":9.28,"bid":"8a2648f5-9994-4d01-9b12-5c589b863c5a"},"geometry":{"type":"Polygon","coordinates":[[[-97.7409696,30.2866493],[-97.7409345,30.2869996],[-97.740979,30.2870029],[-97.7410408,30.2870075],[-97.7410122,30.2872936],[-97.7411874,30.2873067],[-97.7412159,30.2870218],[-97.7413059,30.2870285],[-97.7413303,30.2867844],[-97.7414458,30.2867931],[-97.7414679,30.2865725],[-97.7413293,30.2865621],[-97.7413776,30.28608],[-97.7413805,30.2860509],[-97.7413096,30.2860456],[-97.7413137,30.286005],[-97.7413071,30.2860045],[-97.7411972,30.2859963],[-97.7411784,30.2859949],[-97.7411757,30.286022],[-97.7408203,30.2859954],[-97.740805,30.2861482],[-97.7409636,30.28616],[-97.7409991,30.2861627],[-97.7409942,30.2862112],[-97.7410075,30.2862122],[-97.7409765,30.2865211],[-97.7410079,30.2865234],[-97.7409951,30.2866512],[-97.7409696,30.2866493]]]}},{"type":"Feature","properties":{"kind":"wall","grp":"union","band":"cornice","fam":"uniSolid","mat":"ashlar","wd":"#e6ded0","wg":"#ead9c4","wn":"#212228","base":9.28,"h":11.9,"bid":"8a2648f5-9994-4d01-9b12-5c589b863c5a"},"geometry":{"type":"Polygon","coordinates":[[[-97.7409696,30.2866493],[-97.7409345,30.2869996],[-97.740979,30.2870029],[-97.7410408,30.2870075],[-97.7410122,30.2872936],[-97.7411874,30.2873067],[-97.7412159,30.2870218],[-97.7413059,30.2870285],[-97.7413303,30.2867844],[-97.7414458,30.2867931],[-97.7414679,30.2865725],[-97.7413293,30.2865621],[-97.7413776,30.28608],[-97.7413805,30.2860509],[-97.7413096,30.2860456],[-97.7413137,30.286005],[-97.7413071,30.2860045],[-97.7411972,30.2859963],[-97.7411784,30.2859949],[-97.7411757,30.286022],[-97.7408203,30.2859954],[-97.740805,30.2861482],[-97.7409636,30.28616],[-97.7409991,30.2861627],[-97.7409942,30.2862112],[-97.7410075,30.2862122],[-97.7409765,30.2865211],[-97.7410079,30.2865234],[-97.7409951,30.2866512],[-97.7409696,30.2866493]]]}},{"type":"Feature","properties":{"kind":"cap","grp":"union","wd":"#8c877c","wg":"#9e907d","wn":"#17181e","base":11.9,"h":12.9,"bid":"8a2648f5-9994-4d01-9b12-5c589b863c5a"},"geometry":{"type":"Polygon","coordinates":[[[-97.7409696,30.2866493],[-97.7409345,30.2869996],[-97.740979,30.2870029],[-97.7410408,30.2870075],[-97.7410122,30.2872936],[-97.7411874,30.2873067],[-97.7412159,30.2870218],[-97.7413059,30.2870285],[-97.7413303,30.2867844],[-97.7414458,30.2867931],[-97.7414679,30.2865725],[-97.7413293,30.2865621],[-97.7413776,30.28608],[-97.7413805,30.2860509],[-97.7413096,30.2860456],[-97.7413137,30.286005],[-97.7413071,30.2860045],[-97.7411972,30.2859963],[-97.7411784,30.2859949],[-97.7411757,30.286022],[-97.7408203,30.2859954],[-97.740805,30.2861482],[-97.7409636,30.28616],[-97.7409991,30.2861627],[-97.7409942,30.2862112],[-97.7410075,30.2862122],[-97.7409765,30.2865211],[-97.7410079,30.2865234],[-97.7409951,30.2866512],[-97.7409696,30.2866493]]]}},{"type":"Feature","properties":{"kind":"wall","grp":"coop","band":"shop","fam":"shopGlass","mat":"sign","wd":"#4a4038","wg":"#675444","wn":"#101017","base":0.0,"h":4.3,"bid":"f1ef97ab-a5c5-4802-abed-826edcec874d"},"geometry":{"type":"Polygon","coordinates":[[[-97.7422361,30.2863939],[-97.7422786,30.2859854],[-97.7419029,30.2859563],[-97.7418748,30.286227],[-97.7421417,30.2862477],[-97.7421366,30.2862969],[-97.7421113,30.286295],[-97.7421021,30.2863836],[-97.7422361,30.2863939]]]}},{"type":"Feature","properties":{"kind":"wall","grp":"coop","band":"sign","fam":"signBand","mat":"sign","wd":"#4a4038","wg":"#675444","wn":"#101017","base":4.3,"h":5.35,"bid":"f1ef97ab-a5c5-4802-abed-826edcec874d"},"geometry":{"type":"Polygon","coordinates":[[[-97.7422361,30.2863939],[-97.7422786,30.2859854],[-97.7419029,30.2859563],[-97.7418748,30.286227],[-97.7421417,30.2862477],[-97.7421366,30.2862969],[-97.7421113,30.286295],[-97.7421021,30.2863836],[-97.7422361,30.2863939]]]}},{"type":"Feature","properties":{"kind":"wall","grp":"coop","band":"upper","fam":"retUpper","mat":"coop","wd":"#cbbda6","wg":"#d3bda0","wn":"#1e1e23","base":5.35,"h":15.5,"bid":"f1ef97ab-a5c5-4802-abed-826edcec874d"},"geometry":{"type":"Polygon","coordinates":[[[-97.7422361,30.2863939],[-97.7422786,30.2859854],[-97.7419029,30.2859563],[-97.7418748,30.286227],[-97.7421417,30.2862477],[-97.7421366,30.2862969],[-97.7421113,30.286295],[-97.7421021,30.2863836],[-97.7422361,30.2863939]]]}},{"type":"Feature","properties":{"kind":"cap","grp":"coop","wd":"#7f8084","wg":"#938a84","wn":"#16171f","base":15.5,"h":17.4,"bid":"f1ef97ab-a5c5-4802-abed-826edcec874d"},"geometry":{"type":"Polygon","coordinates":[[[-97.7422361,30.2863939],[-97.7422786,30.2859854],[-97.7419029,30.2859563],[-97.7418748,30.286227],[-97.7421417,30.2862477],[-97.7421366,30.2862969],[-97.7421113,30.286295],[-97.7421021,30.2863836],[-97.7422361,30.2863939]]]}},{"type":"Feature","properties":{"kind":"wall","grp":"shop","band":"shop","fam":"shopGlass","mat":"sign","wd":"#4a4038","wg":"#675444","wn":"#101017","base":0.0,"h":4.3,"bid":"1d1677e9-2d53-4529-8dba-68a2aca04d9e"},"geometry":{"type":"Polygon","coordinates":[[[-97.7423411,30.2854179],[-97.7423725,30.2851164],[-97.7420153,30.2850887],[-97.7419818,30.2854111],[-97.7423139,30.2854369],[-97.7423161,30.2854159],[-97.7423411,30.2854179]]]}},{"type":"Feature","properties":{"kind":"wall","grp":"shop","band":"sign","fam":"signBand","mat":"sign","wd":"#4a4038","wg":"#675444","wn":"#101017","base":4.3,"h":5.35,"bid":"1d1677e9-2d53-4529-8dba-68a2aca04d9e"},"geometry":{"type":"Polygon","coordinates":[[[-97.7423411,30.2854179],[-97.7423725,30.2851164],[-97.7420153,30.2850887],[-97.7419818,30.2854111],[-97.7423139,30.2854369],[-97.7423161,30.2854159],[-97.7423411,30.2854179]]]}},{"type":"Feature","properties":{"kind":"wall","grp":"shop","band":"upper","fam":"retUpper","mat":"r1","wd":"#ded5c2","wg":"#e3d1b8","wn":"#202126","base":5.35,"h":12.95,"bid":"1d1677e9-2d53-4529-8dba-68a2aca04d9e"},"geometry":{"type":"Polygon","coordinates":[[[-97.7423411,30.2854179],[-97.7423725,30.2851164],[-97.7420153,30.2850887],[-97.7419818,30.2854111],[-97.7423139,30.2854369],[-97.7423161,30.2854159],[-97.7423411,30.2854179]]]}},{"type":"Feature","properties":{"kind":"cap","grp":"shop","wd":"#7a7c80","wg":"#8f8780","wn":"#15171f","base":12.95,"h":14.7,"bid":"1d1677e9-2d53-4529-8dba-68a2aca04d9e"},"geometry":{"type":"Polygon","coordinates":[[[-97.7423411,30.2854179],[-97.7423725,30.2851164],[-97.7420153,30.2850887],[-97.7419818,30.2854111],[-97.7423139,30.2854369],[-97.7423161,30.2854159],[-97.7423411,30.2854179]]]}},{"type":"Feature","properties":{"kind":"wall","grp":"shop","band":"shop","fam":"shopGlass","mat":"sign","wd":"#4a4038","wg":"#675444","wn":"#101017","base":0.0,"h":4.3,"bid":"a97b43f1-ac93-4f72-b42b-bedc894001de"},"geometry":{"type":"Polygon","coordinates":[[[-97.7419598,30.2854094],[-97.7419539,30.2854661],[-97.742327,30.285495],[-97.7423329,30.2854384],[-97.7423139,30.2854369],[-97.7419818,30.2854111],[-97.7419598,30.2854094]]]}},{"type":"Feature","properties":{"kind":"wall","grp":"shop","band":"sign","fam":"signBand","mat":"sign","wd":"#4a4038","wg":"#675444","wn":"#101017","base":4.3,"h":5.35,"bid":"a97b43f1-ac93-4f72-b42b-bedc894001de"},"geometry":{"type":"Polygon","coordinates":[[[-97.7419598,30.2854094],[-97.7419539,30.2854661],[-97.742327,30.285495],[-97.7423329,30.2854384],[-97.7423139,30.2854369],[-97.7419818,30.2854111],[-97.7419598,30.2854094]]]}},{"type":"Feature","properties":{"kind":"wall","grp":"shop","band":"upper","fam":"retUpper","mat":"r1","wd":"#ded5c2","wg":"#e3d1b8","wn":"#202126","base":5.35,"h":9.75,"bid":"a97b43f1-ac93-4f72-b42b-bedc894001de"},"geometry":{"type":"Polygon","coordinates":[[[-97.7419598,30.2854094],[-97.7419539,30.2854661],[-97.742327,30.285495],[-97.7423329,30.2854384],[-97.7423139,30.2854369],[-97.7419818,30.2854111],[-97.7419598,30.2854094]]]}},{"type":"Feature","properties":{"kind":"cap","grp":"shop","wd":"#7a7c80","wg":"#8f8780","wn":"#15171f","base":9.75,"h":11.5,"bid":"a97b43f1-ac93-4f72-b42b-bedc894001de"},"geometry":{"type":"Polygon","coordinates":[[[-97.7419598,30.2854094],[-97.7419539,30.2854661],[-97.742327,30.285495],[-97.7423329,30.2854384],[-97.7423139,30.2854369],[-97.7419818,30.2854111],[-97.7419598,30.2854094]]]}},{"type":"Feature","properties":{"kind":"wall","grp":"shop","band":"shop","fam":"shopGlass","mat":"sign","wd":"#4a4038","wg":"#675444","wn":"#101017","base":0.0,"h":4.3,"bid":"c0368fde-2194-44e6-9b80-51b70a90c538"},"geometry":{"type":"Polygon","coordinates":[[[-97.7423133,30.2856269],[-97.742327,30.285495],[-97.7419539,30.2854661],[-97.7419402,30.285598],[-97.7422348,30.2856208],[-97.7423133,30.2856269]]]}},{"type":"Feature","properties":{"kind":"wall","grp":"shop","band":"sign","fam":"signBand","mat":"sign","wd":"#4a4038","wg":"#675444","wn":"#101017","base":4.3,"h":5.35,"bid":"c0368fde-2194-44e6-9b80-51b70a90c538"},"geometry":{"type":"Polygon","coordinates":[[[-97.7423133,30.2856269],[-97.742327,30.285495],[-97.7419539,30.2854661],[-97.7419402,30.285598],[-97.7422348,30.2856208],[-97.7423133,30.2856269]]]}},{"type":"Feature","properties":{"kind":"wall","grp":"shop","band":"upper","fam":"retUpper","mat":"r1","wd":"#ded5c2","wg":"#e3d1b8","wn":"#202126","base":5.35,"h":8.65,"bid":"c0368fde-2194-44e6-9b80-51b70a90c538"},"geometry":{"type":"Polygon","coordinates":[[[-97.7423133,30.2856269],[-97.742327,30.285495],[-97.7419539,30.2854661],[-97.7419402,30.285598],[-97.7422348,30.2856208],[-97.7423133,30.2856269]]]}},{"type":"Feature","properties":{"kind":"cap","grp":"shop","wd":"#7a7c80","wg":"#8f8780","wn":"#15171f","base":8.65,"h":10.4,"bid":"c0368fde-2194-44e6-9b80-51b70a90c538"},"geometry":{"type":"Polygon","coordinates":[[[-97.7423133,30.2856269],[-97.742327,30.285495],[-97.7419539,30.2854661],[-97.7419402,30.285598],[-97.7422348,30.2856208],[-97.7423133,30.2856269]]]}},{"type":"Feature","properties":{"kind":"wall","grp":"shop","band":"shop","fam":"shopGlass","mat":"sign","wd":"#4a4038","wg":"#675444","wn":"#101017","base":0.0,"h":4.3,"bid":"3cc9f7e2-40ea-41e2-b6f2-3269ce16c789"},"geometry":{"type":"Polygon","coordinates":[[[-97.7422316,30.2856514],[-97.7422348,30.2856208],[-97.7419402,30.285598],[-97.7419301,30.2856948],[-97.7421806,30.2857142],[-97.7421875,30.2856479],[-97.7422316,30.2856514]]]}},{"type":"Feature","properties":{"kind":"wall","grp":"shop","band":"sign","fam":"signBand","mat":"sign","wd":"#4a4038","wg":"#675444","wn":"#101017","base":4.3,"h":5.35,"bid":"3cc9f7e2-40ea-41e2-b6f2-3269ce16c789"},"geometry":{"type":"Polygon","coordinates":[[[-97.7422316,30.2856514],[-97.7422348,30.2856208],[-97.7419402,30.285598],[-97.7419301,30.2856948],[-97.7421806,30.2857142],[-97.7421875,30.2856479],[-97.7422316,30.2856514]]]}},{"type":"Feature","properties":{"kind":"wall","grp":"shop","band":"upper","fam":"retUpper","mat":"r0","wd":"#c4b49c","wg":"#cdb698","wn":"#1d1d22","base":5.35,"h":6.55,"bid":"3cc9f7e2-40ea-41e2-b6f2-3269ce16c789"},"geometry":{"type":"Polygon","coordinates":[[[-97.7422316,30.2856514],[-97.7422348,30.2856208],[-97.7419402,30.285598],[-97.7419301,30.2856948],[-97.7421806,30.2857142],[-97.7421875,30.2856479],[-97.7422316,30.2856514]]]}},{"type":"Feature","properties":{"kind":"cap","grp":"shop","wd":"#7a7c80","wg":"#8f8780","wn":"#15171f","base":6.55,"h":8.3,"bid":"3cc9f7e2-40ea-41e2-b6f2-3269ce16c789"},"geometry":{"type":"Polygon","coordinates":[[[-97.7422316,30.2856514],[-97.7422348,30.2856208],[-97.7419402,30.285598],[-97.7419301,30.2856948],[-97.7421806,30.2857142],[-97.7421875,30.2856479],[-97.7422316,30.2856514]]]}},{"type":"Feature","properties":{"kind":"wall","grp":"shop","band":"shop","fam":"shopGlass","mat":"sign","wd":"#4a4038","wg":"#675444","wn":"#101017","base":0.0,"h":4.3,"bid":"3b9b52a7-aa0d-419e-a39e-7d838074ad06"},"geometry":{"type":"Polygon","coordinates":[[[-97.742292,30.2857702],[-97.7422969,30.2857232],[-97.7421806,30.2857142],[-97.7419301,30.2856948],[-97.7419201,30.2857907],[-97.7422958,30.2858198],[-97.7423009,30.2857709],[-97.742292,30.2857702]]]}},{"type":"Feature","properties":{"kind":"wall","grp":"shop","band":"sign","fam":"signBand","mat":"sign","wd":"#4a4038","wg":"#675444","wn":"#101017","base":4.3,"h":5.35,"bid":"3b9b52a7-aa0d-419e-a39e-7d838074ad06"},"geometry":{"type":"Polygon","coordinates":[[[-97.742292,30.2857702],[-97.7422969,30.2857232],[-97.7421806,30.2857142],[-97.7419301,30.2856948],[-97.7419201,30.2857907],[-97.7422958,30.2858198],[-97.7423009,30.2857709],[-97.742292,30.2857702]]]}},{"type":"Feature","properties":{"kind":"wall","grp":"shop","band":"upper","fam":"retUpper","mat":"r0","wd":"#c4b49c","wg":"#cdb698","wn":"#1d1d22","base":5.35,"h":10.55,"bid":"3b9b52a7-aa0d-419e-a39e-7d838074ad06"},"geometry":{"type":"Polygon","coordinates":[[[-97.742292,30.2857702],[-97.7422969,30.2857232],[-97.7421806,30.2857142],[-97.7419301,30.2856948],[-97.7419201,30.2857907],[-97.7422958,30.2858198],[-97.7423009,30.2857709],[-97.742292,30.2857702]]]}},{"type":"Feature","properties":{"kind":"cap","grp":"shop","wd":"#7a7c80","wg":"#8f8780","wn":"#15171f","base":10.55,"h":12.3,"bid":"3b9b52a7-aa0d-419e-a39e-7d838074ad06"},"geometry":{"type":"Polygon","coordinates":[[[-97.742292,30.2857702],[-97.7422969,30.2857232],[-97.7421806,30.2857142],[-97.7419301,30.2856948],[-97.7419201,30.2857907],[-97.7422958,30.2858198],[-97.7423009,30.2857709],[-97.742292,30.2857702]]]}},{"type":"Feature","properties":{"kind":"wall","grp":"shop","band":"shop","fam":"shopGlass","mat":"sign","wd":"#4a4038","wg":"#675444","wn":"#101017","base":0.0,"h":4.3,"bid":"12ad1d95-805b-41af-bcd3-0639da581863"},"geometry":{"type":"Polygon","coordinates":[[[-97.7422786,30.2859854],[-97.7422958,30.2858198],[-97.7419201,30.2857907],[-97.7419029,30.2859563],[-97.7422786,30.2859854]]]}},{"type":"Feature","properties":{"kind":"wall","grp":"shop","band":"sign","fam":"signBand","mat":"sign","wd":"#4a4038","wg":"#675444","wn":"#101017","base":4.3,"h":5.35,"bid":"12ad1d95-805b-41af-bcd3-0639da581863"},"geometry":{"type":"Polygon","coordinates":[[[-97.7422786,30.2859854],[-97.7422958,30.2858198],[-97.7419201,30.2857907],[-97.7419029,30.2859563],[-97.7422786,30.2859854]]]}},{"type":"Feature","properties":{"kind":"wall","grp":"shop","band":"upper","fam":"retUpper","mat":"r0","wd":"#c4b49c","wg":"#cdb698","wn":"#1d1d22","base":5.35,"h":6.85,"bid":"12ad1d95-805b-41af-bcd3-0639da581863"},"geometry":{"type":"Polygon","coordinates":[[[-97.7422786,30.2859854],[-97.7422958,30.2858198],[-97.7419201,30.2857907],[-97.7419029,30.2859563],[-97.7422786,30.2859854]]]}},{"type":"Feature","properties":{"kind":"cap","grp":"shop","wd":"#7a7c80","wg":"#8f8780","wn":"#15171f","base":6.85,"h":8.6,"bid":"12ad1d95-805b-41af-bcd3-0639da581863"},"geometry":{"type":"Polygon","coordinates":[[[-97.7422786,30.2859854],[-97.7422958,30.2858198],[-97.7419201,30.2857907],[-97.7419029,30.2859563],[-97.7422786,30.2859854]]]}},{"type":"Feature","properties":{"kind":"wall","grp":"shop","band":"shop","fam":"shopGlass","mat":"sign","wd":"#4a4038","wg":"#675444","wn":"#101017","base":0.0,"h":4.3,"bid":"092630c8-fefa-4b5d-8015-e17d6bde8d7b"},"geometry":{"type":"Polygon","coordinates":[[[-97.7418604,30.2863648],[-97.742024,30.2863775],[-97.7420383,30.2862397],[-97.7418748,30.286227],[-97.7418604,30.2863648]]]}},{"type":"Feature","properties":{"kind":"wall","grp":"shop","band":"sign","fam":"signBand","mat":"sign","wd":"#4a4038","wg":"#675444","wn":"#101017","base":4.3,"h":5.35,"bid":"092630c8-fefa-4b5d-8015-e17d6bde8d7b"},"geometry":{"type":"Polygon","coordinates":[[[-97.7418604,30.2863648],[-97.742024,30.2863775],[-97.7420383,30.2862397],[-97.7418748,30.286227],[-97.7418604,30.2863648]]]}},{"type":"Feature","properties":{"kind":"wall","grp":"shop","band":"upper","fam":"retUpper","mat":"r3","wd":"#8f8c86","wg":"#a19485","wn":"#171920","base":5.35,"h":7.25,"bid":"092630c8-fefa-4b5d-8015-e17d6bde8d7b"},"geometry":{"type":"Polygon","coordinates":[[[-97.7418604,30.2863648],[-97.742024,30.2863775],[-97.7420383,30.2862397],[-97.7418748,30.286227],[-97.7418604,30.2863648]]]}},{"type":"Feature","properties":{"kind":"cap","grp":"shop","wd":"#7a7c80","wg":"#8f8780","wn":"#15171f","base":7.25,"h":9.0,"bid":"092630c8-fefa-4b5d-8015-e17d6bde8d7b"},"geometry":{"type":"Polygon","coordinates":[[[-97.7418604,30.2863648],[-97.742024,30.2863775],[-97.7420383,30.2862397],[-97.7418748,30.286227],[-97.7418604,30.2863648]]]}},{"type":"Feature","properties":{"kind":"wall","grp":"shop","band":"shop","fam":"shopGlass","mat":"sign","wd":"#4a4038","wg":"#675444","wn":"#101017","base":0.0,"h":4.3,"bid":"5eca50d9-18c0-4bc7-aa7b-33fef6ba6c65"},"geometry":{"type":"Polygon","coordinates":[[[-97.7421554,30.2866366],[-97.742164,30.2865544],[-97.7418761,30.2865321],[-97.7418456,30.286554],[-97.7418395,30.2866121],[-97.7421554,30.2866366]]]}},{"type":"Feature","properties":{"kind":"wall","grp":"shop","band":"sign","fam":"signBand","mat":"sign","wd":"#4a4038","wg":"#675444","wn":"#101017","base":4.3,"h":5.35,"bid":"5eca50d9-18c0-4bc7-aa7b-33fef6ba6c65"},"geometry":{"type":"Polygon","coordinates":[[[-97.7421554,30.2866366],[-97.742164,30.2865544],[-97.7418761,30.2865321],[-97.7418456,30.286554],[-97.7418395,30.2866121],[-97.7421554,30.2866366]]]}},{"type":"Feature","properties":{"kind":"wall","grp":"shop","band":"upper","fam":"retUpper","mat":"r3","wd":"#8f8c86","wg":"#a19485","wn":"#171920","base":5.35,"h":9.05,"bid":"5eca50d9-18c0-4bc7-aa7b-33fef6ba6c65"},"geometry":{"type":"Polygon","coordinates":[[[-97.7421554,30.2866366],[-97.742164,30.2865544],[-97.7418761,30.2865321],[-97.7418456,30.286554],[-97.7418395,30.2866121],[-97.7421554,30.2866366]]]}},{"type":"Feature","properties":{"kind":"cap","grp":"shop","wd":"#7a7c80","wg":"#8f8780","wn":"#15171f","base":9.05,"h":10.8,"bid":"5eca50d9-18c0-4bc7-aa7b-33fef6ba6c65"},"geometry":{"type":"Polygon","coordinates":[[[-97.7421554,30.2866366],[-97.742164,30.2865544],[-97.7418761,30.2865321],[-97.7418456,30.286554],[-97.7418395,30.2866121],[-97.7421554,30.2866366]]]}},{"type":"Feature","properties":{"kind":"wall","grp":"shop","band":"shop","fam":"shopGlass","mat":"sign","wd":"#4a4038","wg":"#675444","wn":"#101017","base":0.0,"h":4.3,"bid":"4f400622-b64a-4d3f-ae29-1328eb1d7fcc"},"geometry":{"type":"Polygon","coordinates":[[[-97.7421446,30.2867447],[-97.7421554,30.2866366],[-97.7418395,30.2866121],[-97.7418278,30.28672],[-97.7420412,30.2867366],[-97.7421446,30.2867447]]]}},{"type":"Feature","properties":{"kind":"wall","grp":"shop","band":"sign","fam":"signBand","mat":"sign","wd":"#4a4038","wg":"#675444","wn":"#101017","base":4.3,"h":5.55,"bid":"4f400622-b64a-4d3f-ae29-1328eb1d7fcc"},"geometry":{"type":"Polygon","coordinates":[[[-97.7421446,30.2867447],[-97.7421554,30.2866366],[-97.7418395,30.2866121],[-97.7418278,30.28672],[-97.7420412,30.2867366],[-97.7421446,30.2867447]]]}},{"type":"Feature","properties":{"kind":"cap","grp":"shop","wd":"#7a7c80","wg":"#8f8780","wn":"#15171f","base":5.55,"h":7.3,"bid":"4f400622-b64a-4d3f-ae29-1328eb1d7fcc"},"geometry":{"type":"Polygon","coordinates":[[[-97.7421446,30.2867447],[-97.7421554,30.2866366],[-97.7418395,30.2866121],[-97.7418278,30.28672],[-97.7420412,30.2867366],[-97.7421446,30.2867447]]]}},{"type":"Feature","properties":{"kind":"wall","grp":"shop","band":"shop","fam":"shopGlass","mat":"sign","wd":"#4a4038","wg":"#675444","wn":"#101017","base":0.0,"h":4.1,"bid":"faaeba6f-016d-49e7-bb45-691fc0bcd9cd"},"geometry":{"type":"Polygon","coordinates":[[[-97.7420376,30.2867696],[-97.7420412,30.2867366],[-97.7418278,30.28672],[-97.7418216,30.2867754],[-97.7421014,30.2867979],[-97.7421645,30.286803],[-97.742167,30.28678],[-97.7420376,30.2867696]]]}},{"type":"Feature","properties":{"kind":"wall","grp":"shop","band":"sign","fam":"signBand","mat":"sign","wd":"#4a4038","wg":"#675444","wn":"#101017","base":4.1,"h":5.02,"bid":"faaeba6f-016d-49e7-bb45-691fc0bcd9cd"},"geometry":{"type":"Polygon","coordinates":[[[-97.7420376,30.2867696],[-97.7420412,30.2867366],[-97.7418278,30.28672],[-97.7418216,30.2867754],[-97.7421014,30.2867979],[-97.7421645,30.286803],[-97.742167,30.28678],[-97.7420376,30.2867696]]]}},{"type":"Feature","properties":{"kind":"cap","grp":"shop","wd":"#7a7c80","wg":"#8f8780","wn":"#15171f","base":5.02,"h":6.7,"bid":"faaeba6f-016d-49e7-bb45-691fc0bcd9cd"},"geometry":{"type":"Polygon","coordinates":[[[-97.7420376,30.2867696],[-97.7420412,30.2867366],[-97.7418278,30.28672],[-97.7418216,30.2867754],[-97.7421014,30.2867979],[-97.7421645,30.286803],[-97.742167,30.28678],[-97.7420376,30.2867696]]]}},{"type":"Feature","properties":{"kind":"wall","grp":"shop","band":"shop","fam":"shopGlass","mat":"sign","wd":"#4a4038","wg":"#675444","wn":"#101017","base":0.0,"h":3.96,"bid":"fdcca604-43a9-44cb-9a7c-a408e534ab53"},"geometry":{"type":"Polygon","coordinates":[[[-97.7420948,30.2868695],[-97.7421014,30.2867979],[-97.7418216,30.2867754],[-97.7418144,30.286849],[-97.7420948,30.2868695]]]}},{"type":"Feature","properties":{"kind":"wall","grp":"shop","band":"sign","fam":"signBand","mat":"sign","wd":"#4a4038","wg":"#675444","wn":"#101017","base":3.96,"h":4.84,"bid":"fdcca604-43a9-44cb-9a7c-a408e534ab53"},"geometry":{"type":"Polygon","coordinates":[[[-97.7420948,30.2868695],[-97.7421014,30.2867979],[-97.7418216,30.2867754],[-97.7418144,30.286849],[-97.7420948,30.2868695]]]}},{"type":"Feature","properties":{"kind":"cap","grp":"shop","wd":"#7a7c80","wg":"#8f8780","wn":"#15171f","base":4.84,"h":6.5,"bid":"fdcca604-43a9-44cb-9a7c-a408e534ab53"},"geometry":{"type":"Polygon","coordinates":[[[-97.7420948,30.2868695],[-97.7421014,30.2867979],[-97.7418216,30.2867754],[-97.7418144,30.286849],[-97.7420948,30.2868695]]]}},{"type":"Feature","properties":{"kind":"wall","grp":"shop","band":"shop","fam":"shopGlass","mat":"sign","wd":"#4a4038","wg":"#675444","wn":"#101017","base":0.0,"h":4.3,"bid":"81f43505-cabd-41a3-ae0f-b18cd34a2084"},"geometry":{"type":"Polygon","coordinates":[[[-97.7420884,30.2869354],[-97.7420948,30.2868695],[-97.7418144,30.286849],[-97.7418072,30.2869145],[-97.7420884,30.2869354]]]}},{"type":"Feature","properties":{"kind":"wall","grp":"shop","band":"sign","fam":"signBand","mat":"sign","wd":"#4a4038","wg":"#675444","wn":"#101017","base":4.3,"h":5.35,"bid":"81f43505-cabd-41a3-ae0f-b18cd34a2084"},"geometry":{"type":"Polygon","coordinates":[[[-97.7420884,30.2869354],[-97.7420948,30.2868695],[-97.7418144,30.286849],[-97.7418072,30.2869145],[-97.7420884,30.2869354]]]}},{"type":"Feature","properties":{"kind":"wall","grp":"shop","band":"upper","fam":"retUpper","mat":"r3","wd":"#8f8c86","wg":"#a19485","wn":"#171920","base":5.35,"h":8.85,"bid":"81f43505-cabd-41a3-ae0f-b18cd34a2084"},"geometry":{"type":"Polygon","coordinates":[[[-97.7420884,30.2869354],[-97.7420948,30.2868695],[-97.7418144,30.286849],[-97.7418072,30.2869145],[-97.7420884,30.2869354]]]}},{"type":"Feature","properties":{"kind":"cap","grp":"shop","wd":"#7a7c80","wg":"#8f8780","wn":"#15171f","base":8.85,"h":10.6,"bid":"81f43505-cabd-41a3-ae0f-b18cd34a2084"},"geometry":{"type":"Polygon","coordinates":[[[-97.7420884,30.2869354],[-97.7420948,30.2868695],[-97.7418144,30.286849],[-97.7418072,30.2869145],[-97.7420884,30.2869354]]]}},{"type":"Feature","properties":{"kind":"wall","grp":"shop","band":"shop","fam":"shopGlass","mat":"sign","wd":"#4a4038","wg":"#675444","wn":"#101017","base":0.0,"h":4.3,"bid":"267d6b29-7936-4304-9950-a1f6a20056f4"},"geometry":{"type":"Polygon","coordinates":[[[-97.7421779,30.2869981],[-97.7421834,30.2869425],[-97.7420884,30.2869354],[-97.7418072,30.2869145],[-97.7418017,30.2869701],[-97.7420924,30.2869917],[-97.7421779,30.2869981]]]}},{"type":"Feature","properties":{"kind":"wall","grp":"shop","band":"sign","fam":"signBand","mat":"sign","wd":"#4a4038","wg":"#675444","wn":"#101017","base":4.3,"h":5.35,"bid":"267d6b29-7936-4304-9950-a1f6a20056f4"},"geometry":{"type":"Polygon","coordinates":[[[-97.7421779,30.2869981],[-97.7421834,30.2869425],[-97.7420884,30.2869354],[-97.7418072,30.2869145],[-97.7418017,30.2869701],[-97.7420924,30.2869917],[-97.7421779,30.2869981]]]}},{"type":"Feature","properties":{"kind":"wall","grp":"shop","band":"upper","fam":"retUpper","mat":"r3","wd":"#8f8c86","wg":"#a19485","wn":"#171920","base":5.35,"h":9.15,"bid":"267d6b29-7936-4304-9950-a1f6a20056f4"},"geometry":{"type":"Polygon","coordinates":[[[-97.7421779,30.2869981],[-97.7421834,30.2869425],[-97.7420884,30.2869354],[-97.7418072,30.2869145],[-97.7418017,30.2869701],[-97.7420924,30.2869917],[-97.7421779,30.2869981]]]}},{"type":"Feature","properties":{"kind":"cap","grp":"shop","wd":"#7a7c80","wg":"#8f8780","wn":"#15171f","base":9.15,"h":10.9,"bid":"267d6b29-7936-4304-9950-a1f6a20056f4"},"geometry":{"type":"Polygon","coordinates":[[[-97.7421779,30.2869981],[-97.7421834,30.2869425],[-97.7420884,30.2869354],[-97.7418072,30.2869145],[-97.7418017,30.2869701],[-97.7420924,30.2869917],[-97.7421779,30.2869981]]]}},{"type":"Feature","properties":{"kind":"wall","grp":"shop","band":"shop","fam":"shopGlass","mat":"sign","wd":"#4a4038","wg":"#675444","wn":"#101017","base":0.0,"h":4.3,"bid":"694d91ee-a2e4-4005-a765-7d93e2460202"},"geometry":{"type":"Polygon","coordinates":[[[-97.741993,30.2870117],[-97.7420899,30.2870184],[-97.7420924,30.2869917],[-97.7418017,30.2869701],[-97.7417972,30.2870126],[-97.7419917,30.287026],[-97.741993,30.2870117]]]}},{"type":"Feature","properties":{"kind":"wall","grp":"shop","band":"sign","fam":"signBand","mat":"sign","wd":"#4a4038","wg":"#675444","wn":"#101017","base":4.3,"h":5.35,"bid":"694d91ee-a2e4-4005-a765-7d93e2460202"},"geometry":{"type":"Polygon","coordinates":[[[-97.741993,30.2870117],[-97.7420899,30.2870184],[-97.7420924,30.2869917],[-97.7418017,30.2869701],[-97.7417972,30.2870126],[-97.7419917,30.287026],[-97.741993,30.2870117]]]}},{"type":"Feature","properties":{"kind":"wall","grp":"shop","band":"upper","fam":"retUpper","mat":"r1","wd":"#ded5c2","wg":"#e3d1b8","wn":"#202126","base":5.35,"h":8.55,"bid":"694d91ee-a2e4-4005-a765-7d93e2460202"},"geometry":{"type":"Polygon","coordinates":[[[-97.741993,30.2870117],[-97.7420899,30.2870184],[-97.7420924,30.2869917],[-97.7418017,30.2869701],[-97.7417972,30.2870126],[-97.7419917,30.287026],[-97.741993,30.2870117]]]}},{"type":"Feature","properties":{"kind":"cap","grp":"shop","wd":"#7a7c80","wg":"#8f8780","wn":"#15171f","base":8.55,"h":10.3,"bid":"694d91ee-a2e4-4005-a765-7d93e2460202"},"geometry":{"type":"Polygon","coordinates":[[[-97.741993,30.2870117],[-97.7420899,30.2870184],[-97.7420924,30.2869917],[-97.7418017,30.2869701],[-97.7417972,30.2870126],[-97.7419917,30.287026],[-97.741993,30.2870117]]]}},{"type":"Feature","properties":{"kind":"wall","grp":"shop","band":"shop","fam":"shopGlass","mat":"sign","wd":"#4a4038","wg":"#675444","wn":"#101017","base":0.0,"h":4.3,"bid":"7bbb119b-02e9-4e56-a594-b8e9986eabff"},"geometry":{"type":"Polygon","coordinates":[[[-97.741986,30.2870845],[-97.7420836,30.2870908],[-97.7420899,30.2870184],[-97.741993,30.2870117],[-97.7419917,30.287026],[-97.7417972,30.2870126],[-97.7417873,30.2871104],[-97.7419831,30.2871238],[-97.741986,30.2870845]]]}},{"type":"Feature","properties":{"kind":"wall","grp":"shop","band":"sign","fam":"signBand","mat":"sign","wd":"#4a4038","wg":"#675444","wn":"#101017","base":4.3,"h":5.35,"bid":"7bbb119b-02e9-4e56-a594-b8e9986eabff"},"geometry":{"type":"Polygon","coordinates":[[[-97.741986,30.2870845],[-97.7420836,30.2870908],[-97.7420899,30.2870184],[-97.741993,30.2870117],[-97.7419917,30.287026],[-97.7417972,30.2870126],[-97.7417873,30.2871104],[-97.7419831,30.2871238],[-97.741986,30.2870845]]]}},{"type":"Feature","properties":{"kind":"wall","grp":"shop","band":"upper","fam":"retUpper","mat":"r2","wd":"#9a6a55","wg":"#aa775c","wn":"#19151a","base":5.35,"h":9.35,"bid":"7bbb119b-02e9-4e56-a594-b8e9986eabff"},"geometry":{"type":"Polygon","coordinates":[[[-97.741986,30.2870845],[-97.7420836,30.2870908],[-97.7420899,30.2870184],[-97.741993,30.2870117],[-97.7419917,30.287026],[-97.7417972,30.2870126],[-97.7417873,30.2871104],[-97.7419831,30.2871238],[-97.741986,30.2870845]]]}},{"type":"Feature","properties":{"kind":"cap","grp":"shop","wd":"#7a7c80","wg":"#8f8780","wn":"#15171f","base":9.35,"h":11.1,"bid":"7bbb119b-02e9-4e56-a594-b8e9986eabff"},"geometry":{"type":"Polygon","coordinates":[[[-97.741986,30.2870845],[-97.7420836,30.2870908],[-97.7420899,30.2870184],[-97.741993,30.2870117],[-97.7419917,30.287026],[-97.7417972,30.2870126],[-97.7417873,30.2871104],[-97.7419831,30.2871238],[-97.741986,30.2870845]]]}},{"type":"Feature","properties":{"kind":"wall","grp":"shop","band":"shop","fam":"shopGlass","mat":"sign","wd":"#4a4038","wg":"#675444","wn":"#101017","base":0.0,"h":4.3,"bid":"b7dece1c-bb39-4ca3-94c1-739467c3520e"},"geometry":{"type":"Polygon","coordinates":[[[-97.7421237,30.2873287],[-97.742144,30.2871368],[-97.7420765,30.2871314],[-97.7419831,30.2871238],[-97.7417873,30.2871104],[-97.7417663,30.2873005],[-97.7420896,30.2873255],[-97.7421237,30.2873287]]]}},{"type":"Feature","properties":{"kind":"wall","grp":"shop","band":"sign","fam":"signBand","mat":"sign","wd":"#4a4038","wg":"#675444","wn":"#101017","base":4.3,"h":5.75,"bid":"b7dece1c-bb39-4ca3-94c1-739467c3520e"},"geometry":{"type":"Polygon","coordinates":[[[-97.7421237,30.2873287],[-97.742144,30.2871368],[-97.7420765,30.2871314],[-97.7419831,30.2871238],[-97.7417873,30.2871104],[-97.7417663,30.2873005],[-97.7420896,30.2873255],[-97.7421237,30.2873287]]]}},{"type":"Feature","properties":{"kind":"cap","grp":"shop","wd":"#7a7c80","wg":"#8f8780","wn":"#15171f","base":5.75,"h":7.5,"bid":"b7dece1c-bb39-4ca3-94c1-739467c3520e"},"geometry":{"type":"Polygon","coordinates":[[[-97.7421237,30.2873287],[-97.742144,30.2871368],[-97.7420765,30.2871314],[-97.7419831,30.2871238],[-97.7417873,30.2871104],[-97.7417663,30.2873005],[-97.7420896,30.2873255],[-97.7421237,30.2873287]]]}},{"type":"Feature","properties":{"kind":"wall","grp":"shop","band":"shop","fam":"shopGlass","mat":"sign","wd":"#4a4038","wg":"#675444","wn":"#101017","base":0.0,"h":3.67,"bid":"189786bb-9ad1-41a3-887c-a7d7c098ade1"},"geometry":{"type":"Polygon","coordinates":[[[-97.7420841,30.2873785],[-97.7420896,30.2873255],[-97.7417663,30.2873005],[-97.7417608,30.2873536],[-97.7420841,30.2873785]]]}},{"type":"Feature","properties":{"kind":"wall","grp":"shop","band":"sign","fam":"signBand","mat":"sign","wd":"#4a4038","wg":"#675444","wn":"#101017","base":3.67,"h":4.49,"bid":"189786bb-9ad1-41a3-887c-a7d7c098ade1"},"geometry":{"type":"Polygon","coordinates":[[[-97.7420841,30.2873785],[-97.7420896,30.2873255],[-97.7417663,30.2873005],[-97.7417608,30.2873536],[-97.7420841,30.2873785]]]}},{"type":"Feature","properties":{"kind":"cap","grp":"shop","wd":"#7a7c80","wg":"#8f8780","wn":"#15171f","base":4.49,"h":6.1,"bid":"189786bb-9ad1-41a3-887c-a7d7c098ade1"},"geometry":{"type":"Polygon","coordinates":[[[-97.7420841,30.2873785],[-97.7420896,30.2873255],[-97.7417663,30.2873005],[-97.7417608,30.2873536],[-97.7420841,30.2873785]]]}},{"type":"Feature","properties":{"kind":"wall","grp":"shop","band":"shop","fam":"shopGlass","mat":"sign","wd":"#4a4038","wg":"#675444","wn":"#101017","base":0.0,"h":4.3,"bid":"6f391d05-6065-445c-a7e2-c65a45ad8d10"},"geometry":{"type":"Polygon","coordinates":[[[-97.741755,30.2874059],[-97.7420789,30.2874304],[-97.7420841,30.2873785],[-97.7417608,30.2873536],[-97.741755,30.2874059]]]}},{"type":"Feature","properties":{"kind":"wall","grp":"shop","band":"sign","fam":"signBand","mat":"sign","wd":"#4a4038","wg":"#675444","wn":"#101017","base":4.3,"h":5.28,"bid":"6f391d05-6065-445c-a7e2-c65a45ad8d10"},"geometry":{"type":"Polygon","coordinates":[[[-97.741755,30.2874059],[-97.7420789,30.2874304],[-97.7420841,30.2873785],[-97.7417608,30.2873536],[-97.741755,30.2874059]]]}},{"type":"Feature","properties":{"kind":"cap","grp":"shop","wd":"#7a7c80","wg":"#8f8780","wn":"#15171f","base":5.28,"h":7.0,"bid":"6f391d05-6065-445c-a7e2-c65a45ad8d10"},"geometry":{"type":"Polygon","coordinates":[[[-97.741755,30.2874059],[-97.7420789,30.2874304],[-97.7420841,30.2873785],[-97.7417608,30.2873536],[-97.741755,30.2874059]]]}},{"type":"Feature","properties":{"kind":"wall","grp":"shop","band":"shop","fam":"shopGlass","mat":"sign","wd":"#4a4038","wg":"#675444","wn":"#101017","base":0.0,"h":4.3,"bid":"87fdc349-07d8-4e24-92a2-cca2fe0031c4"},"geometry":{"type":"Polygon","coordinates":[[[-97.7417616,30.2874596],[-97.7420497,30.2874811],[-97.7420737,30.2874829],[-97.7420789,30.2874304],[-97.741755,30.2874059],[-97.7417493,30.2874586],[-97.7417616,30.2874596]]]}},{"type":"Feature","properties":{"kind":"wall","grp":"shop","band":"sign","fam":"signBand","mat":"sign","wd":"#4a4038","wg":"#675444","wn":"#101017","base":4.3,"h":5.75,"bid":"87fdc349-07d8-4e24-92a2-cca2fe0031c4"},"geometry":{"type":"Polygon","coordinates":[[[-97.7417616,30.2874596],[-97.7420497,30.2874811],[-97.7420737,30.2874829],[-97.7420789,30.2874304],[-97.741755,30.2874059],[-97.7417493,30.2874586],[-97.7417616,30.2874596]]]}},{"type":"Feature","properties":{"kind":"cap","grp":"shop","wd":"#7a7c80","wg":"#8f8780","wn":"#15171f","base":5.75,"h":7.5,"bid":"87fdc349-07d8-4e24-92a2-cca2fe0031c4"},"geometry":{"type":"Polygon","coordinates":[[[-97.7417616,30.2874596],[-97.7420497,30.2874811],[-97.7420737,30.2874829],[-97.7420789,30.2874304],[-97.741755,30.2874059],[-97.7417493,30.2874586],[-97.7417616,30.2874596]]]}},{"type":"Feature","properties":{"kind":"wall","grp":"shop","band":"shop","fam":"shopGlass","mat":"sign","wd":"#4a4038","wg":"#675444","wn":"#101017","base":0.0,"h":4.3,"bid":"046bb3f1-0dbc-4f2c-81ec-86e6c3f9463e"},"geometry":{"type":"Polygon","coordinates":[[[-97.7417458,30.2876093],[-97.7421417,30.2876405],[-97.7421534,30.2875302],[-97.7420455,30.2875217],[-97.7420497,30.2874811],[-97.7417616,30.2874596],[-97.7417458,30.2876093]]]}},{"type":"Feature","properties":{"kind":"wall","grp":"shop","band":"sign","fam":"signBand","mat":"sign","wd":"#4a4038","wg":"#675444","wn":"#101017","base":4.3,"h":5.35,"bid":"046bb3f1-0dbc-4f2c-81ec-86e6c3f9463e"},"geometry":{"type":"Polygon","coordinates":[[[-97.7417458,30.2876093],[-97.7421417,30.2876405],[-97.7421534,30.2875302],[-97.7420455,30.2875217],[-97.7420497,30.2874811],[-97.7417616,30.2874596],[-97.7417458,30.2876093]]]}},{"type":"Feature","properties":{"kind":"wall","grp":"shop","band":"upper","fam":"retUpper","mat":"r1","wd":"#ded5c2","wg":"#e3d1b8","wn":"#202126","base":5.35,"h":6.95,"bid":"046bb3f1-0dbc-4f2c-81ec-86e6c3f9463e"},"geometry":{"type":"Polygon","coordinates":[[[-97.7417458,30.2876093],[-97.7421417,30.2876405],[-97.7421534,30.2875302],[-97.7420455,30.2875217],[-97.7420497,30.2874811],[-97.7417616,30.2874596],[-97.7417458,30.2876093]]]}},{"type":"Feature","properties":{"kind":"cap","grp":"shop","wd":"#7a7c80","wg":"#8f8780","wn":"#15171f","base":6.95,"h":8.7,"bid":"046bb3f1-0dbc-4f2c-81ec-86e6c3f9463e"},"geometry":{"type":"Polygon","coordinates":[[[-97.7417458,30.2876093],[-97.7421417,30.2876405],[-97.7421534,30.2875302],[-97.7420455,30.2875217],[-97.7420497,30.2874811],[-97.7417616,30.2874596],[-97.7417458,30.2876093]]]}}],"replacedBuildingIds":["04ac46be-ba31-4ff5-ab58-e36988f6a5fb","1bb698db-9765-47b4-8f32-a428eefce38a","8a2648f5-9994-4d01-9b12-5c589b863c5a","f1ef97ab-a5c5-4802-abed-826edcec874d","1d1677e9-2d53-4529-8dba-68a2aca04d9e","a97b43f1-ac93-4f72-b42b-bedc894001de","c0368fde-2194-44e6-9b80-51b70a90c538","3cc9f7e2-40ea-41e2-b6f2-3269ce16c789","3b9b52a7-aa0d-419e-a39e-7d838074ad06","12ad1d95-805b-41af-bcd3-0639da581863","092630c8-fefa-4b5d-8015-e17d6bde8d7b","5eca50d9-18c0-4bc7-aa7b-33fef6ba6c65","4f400622-b64a-4d3f-ae29-1328eb1d7fcc","faaeba6f-016d-49e7-bb45-691fc0bcd9cd","fdcca604-43a9-44cb-9a7c-a408e534ab53","81f43505-cabd-41a3-ae0f-b18cd34a2084","267d6b29-7936-4304-9950-a1f6a20056f4","694d91ee-a2e4-4005-a765-7d93e2460202","7bbb119b-02e9-4e56-a594-b8e9986eabff","b7dece1c-bb39-4ca3-94c1-739467c3520e","189786bb-9ad1-41a3-887c-a7d7c098ade1","6f391d05-6065-445c-a7e2-c65a45ad8d10","87fdc349-07d8-4e24-92a2-cca2fe0031c4","046bb3f1-0dbc-4f2c-81ec-86e6c3f9463e"]}