{"type":"FeatureCollection","features":[{"type":"Feature","properties":{"b":"eer","band":"nbar_body","lyr":"lime","cap":0,"wd":"#e2dacb","wg":"#e7d6bf","wn":"#202127","base":0.0,"h":37.35},"geometry":{"type":"Polygon","coordinates":[[[-97.735748,30.2883914],[-97.7349144,30.2883229],[-97.7348919,30.2885263],[-97.7357256,30.2885948],[-97.735748,30.2883914]]]}},{"type":"Feature","properties":{"b":"eer","band":"nbar_parapet","lyr":"solid","cap":1,"wd":"#e2dacb","wg":"#e7d6bf","wn":"#202127","base":37.35,"h":40.5,"rd":"#a9aaa8","rg":"#b7ada2","rn":"#1a1c23"},"geometry":{"type":"Polygon","coordinates":[[[-97.735748,30.2883914],[-97.7349144,30.2883229],[-97.7348919,30.2885263],[-97.7357256,30.2885948],[-97.735748,30.2883914]]]}},{"type":"Feature","properties":{"b":"eer","band":"sbar_body","lyr":"lime","cap":0,"wd":"#e2dacb","wg":"#e7d6bf","wn":"#202127","base":0.0,"h":37.35},"geometry":{"type":"Polygon","coordinates":[[[-97.7357919,30.287993],[-97.734953,30.2879241],[-97.7349302,30.2881315],[-97.7357691,30.2882004],[-97.7357919,30.287993]]]}},{"type":"Feature","properties":{"b":"eer","band":"sbar_parapet","lyr":"solid","cap":1,"wd":"#e2dacb","wg":"#e7d6bf","wn":"#202127","base":37.35,"h":40.5,"rd":"#a9aaa8","rg":"#b7ada2","rn":"#1a1c23"},"geometry":{"type":"Polygon","coordinates":[[[-97.7357919,30.287993],[-97.734953,30.2879241],[-97.7349302,30.2881315],[-97.7357691,30.2882004],[-97.7357919,30.287993]]]}},{"type":"Feature","properties":{"b":"eer","band":"nwall","lyr":"glass","cap":0,"wd":"#4d81ad","wg":"#698ba6","wn":"#101724","base":0.0,"h":28.8},"geometry":{"type":"Polygon","coordinates":[[[-97.7355903,30.2883721],[-97.7350103,30.2883245],[-97.7350096,30.2883307],[-97.7355896,30.2883783],[-97.7355903,30.2883721]]]}},{"type":"Feature","properties":{"b":"eer","band":"swall","lyr":"glass","cap":0,"wd":"#4d81ad","wg":"#698ba6","wn":"#101724","base":0.0,"h":28.8},"geometry":{"type":"Polygon","coordinates":[[[-97.7356106,30.2881874],[-97.7350307,30.2881398],[-97.73503,30.2881461],[-97.7356099,30.2881937],[-97.7356106,30.2881874]]]}},{"type":"Feature","properties":{"b":"eer","band":"atrium_roof","lyr":"glass","cap":0,"wd":"#4d81ad","wg":"#698ba6","wn":"#101724","base":28.8,"h":30.0},"geometry":{"type":"Polygon","coordinates":[[[-97.7356106,30.2881874],[-97.7350307,30.2881398],[-97.7350096,30.2883307],[-97.7355896,30.2883783],[-97.7356106,30.2881874]]]}},{"type":"Feature","properties":{"b":"eer","band":"entrance","lyr":"solid","cap":0,"wd":"#74756d","wg":"#8a8170","wn":"#14161d","base":0.0,"h":9.6},"geometry":{"type":"Polygon","coordinates":[[[-97.7350307,30.2881398],[-97.7349323,30.2881317],[-97.7349112,30.2883226],[-97.7350096,30.2883307],[-97.7350307,30.2881398]]]}},{"type":"Feature","properties":{"b":"eer","band":"cage","lyr":"lattice","cap":0,"wd":"#4b4f53","wg":"#68615b","wn":"#10121a","base":9.6,"h":30.7},"geometry":{"type":"Polygon","coordinates":[[[-97.7350307,30.2881398],[-97.7349323,30.2881317],[-97.7349112,30.2883226],[-97.7350096,30.2883307],[-97.7350307,30.2881398]]]}},{"type":"Feature","properties":{"b":"eer","band":"cage_rail","lyr":"solid","cap":0,"wd":"#4b4f53","wg":"#68615b","wn":"#10121a","base":30.7,"h":31.5},"geometry":{"type":"Polygon","coordinates":[[[-97.7350307,30.2881398],[-97.7349323,30.2881317],[-97.7349112,30.2883226],[-97.7350096,30.2883307],[-97.7350307,30.2881398]]]}},{"type":"Feature","properties":{"b":"gdc","band":"sbar_ground","lyr":"solid","cap":0,"wd":"#6b5b4e","wg":"#836b56","wn":"#131319","base":0.0,"h":4.6},"geometry":{"type":"Polygon","coordinates":[[[-97.7359831,30.2864466],[-97.736859,30.2865112],[-97.7368759,30.2863403],[-97.7360001,30.2862757],[-97.7359831,30.2864466]]]}},{"type":"Feature","properties":{"b":"gdc","band":"sbar_body","lyr":"brick","cap":0,"wd":"#d8ccb6","wg":"#decaae","wn":"#1f2025","base":4.6,"h":28.7},"geometry":{"type":"Polygon","coordinates":[[[-97.7359831,30.2864466],[-97.736859,30.2865112],[-97.7368759,30.2863403],[-97.7360001,30.2862757],[-97.7359831,30.2864466]]]}},{"type":"Feature","properties":{"b":"gdc","band":"sbar_roof","lyr":"solid","cap":1,"wd":"#d8cfbd","wg":"#deccb4","wn":"#1f2026","base":28.7,"h":29.5,"rd":"#aaa69c","rg":"#b8aa98","rn":"#1a1c22"},"geometry":{"type":"Polygon","coordinates":[[[-97.735955,30.2864671],[-97.7368827,30.2865355],[-97.736904,30.2863198],[-97.7359764,30.2862514],[-97.735955,30.2864671]]]}},{"type":"Feature","properties":{"b":"gdc","band":"nbar_ground","lyr":"solid","cap":0,"wd":"#6b5b4e","wg":"#836b56","wn":"#131319","base":0.0,"h":4.6},"geometry":{"type":"Polygon","coordinates":[[[-97.7363253,30.2861455],[-97.7368911,30.2861872],[-97.7369072,30.2860243],[-97.7363415,30.2859826],[-97.7363253,30.2861455]]]}},{"type":"Feature","properties":{"b":"gdc","band":"nbar_body","lyr":"brick","cap":0,"wd":"#d8ccb6","wg":"#decaae","wn":"#1f2025","base":4.6,"h":28.7},"geometry":{"type":"Polygon","coordinates":[[[-97.7363253,30.2861455],[-97.7368911,30.2861872],[-97.7369072,30.2860243],[-97.7363415,30.2859826],[-97.7363253,30.2861455]]]}},{"type":"Feature","properties":{"b":"gdc","band":"nbar_roof","lyr":"solid","cap":1,"wd":"#d8cfbd","wg":"#deccb4","wn":"#1f2026","base":28.7,"h":29.5,"rd":"#aaa69c","rg":"#b8aa98","rn":"#1a1c22"},"geometry":{"type":"Polygon","coordinates":[[[-97.7362972,30.286166],[-97.7369148,30.2862115],[-97.7369353,30.2860039],[-97.7363178,30.2859583],[-97.7362972,30.286166]]]}},{"type":"Feature","properties":{"b":"gdc","band":"link_ground","lyr":"solid","cap":0,"wd":"#6b5b4e","wg":"#836b56","wn":"#131319","base":0.0,"h":4.6},"geometry":{"type":"Polygon","coordinates":[[[-97.7364924,30.286312],[-97.73665,30.2863236],[-97.7366651,30.2861706],[-97.7365076,30.2861589],[-97.7364924,30.286312]]]}},{"type":"Feature","properties":{"b":"gdc","band":"link_body","lyr":"brick","cap":0,"wd":"#d8ccb6","wg":"#decaae","wn":"#1f2025","base":4.6,"h":24.6},"geometry":{"type":"Polygon","coordinates":[[[-97.7364924,30.286312],[-97.73665,30.2863236],[-97.7366651,30.2861706],[-97.7365076,30.2861589],[-97.7364924,30.286312]]]}},{"type":"Feature","properties":{"b":"gdc","band":"atrium","lyr":"glass","cap":0,"wd":"#4f86b4","wg":"#6b8fac","wn":"#101825","base":0.0,"h":24.6,"wp0":[[-97.7368955,30.2863219],[-97.7369038,30.2863225],[-97.736915,30.2862088],[-97.7369067,30.2862082],[-97.7368955,30.2863219]],"wpd":[-3.52e-05,2.6e-06]},"geometry":{"type":"Polygon","coordinates":[[[-97.7368602,30.2863193],[-97.7368685,30.2863199],[-97.7368798,30.2862062],[-97.7368715,30.2862056],[-97.7368602,30.2863193]]]}},{"type":"Feature","properties":{"b":"gdc","band":"atrium_roof","lyr":"solid","cap":1,"wd":"#d8cfbd","wg":"#deccb4","wn":"#1f2026","base":24.6,"h":25.4,"rd":"#aaa69c","rg":"#b8aa98","rn":"#1a1c22"},"geometry":{"type":"Polygon","coordinates":[[[-97.7364665,30.2863101],[-97.7368666,30.2863396],[-97.7368817,30.2861865],[-97.7364816,30.286157],[-97.7364665,30.2863101]]]}},{"type":"Feature","properties":{"b":"nhb","band":"base","lyr":"solid","cap":0,"wd":"#cfc9ba","wg":"#d7c7b1","wn":"#1e1f25","base":0.0,"h":9.0},"geometry":{"type":"Polygon","coordinates":[[[-97.7372856,30.2874961],[-97.7372651,30.287676],[-97.737795,30.2877167],[-97.738227,30.2877499],[-97.7387525,30.2877902],[-97.7387755,30.2875963],[-97.7372863,30.28749],[-97.7372856,30.2874961]]]}},{"type":"Feature","properties":{"b":"nhb","band":"body","lyr":"nbrick","cap":0,"wd":"#c9a37c","wg":"#d2a77d","wn":"#1e1b1e","base":9.0,"h":28.6},"geometry":{"type":"Polygon","coordinates":[[[-97.7372856,30.2874961],[-97.7372651,30.287676],[-97.737795,30.2877167],[-97.738227,30.2877499],[-97.7387525,30.2877902],[-97.7387755,30.2875963],[-97.7372863,30.28749],[-97.7372856,30.2874961]]]}},{"type":"Feature","properties":{"b":"nhb","band":"parapet","lyr":"solid","cap":0,"wd":"#cfc9ba","wg":"#d7c7b1","wn":"#1e1f25","base":28.6,"h":30.1},"geometry":{"type":"Polygon","coordinates":[[[-97.7372856,30.2874961],[-97.7372651,30.287676],[-97.737795,30.2877167],[-97.738227,30.2877499],[-97.7387525,30.2877902],[-97.7387755,30.2875963],[-97.7372863,30.28749],[-97.7372856,30.2874961]]]}},{"type":"Feature","properties":{"b":"nhb","band":"deck","lyr":"solid","cap":1,"wd":"#b6b3a8","wg":"#c2b5a2","wn":"#1c1d23","base":30.1,"h":30.8,"rd":"#a5a298","rg":"#b3a694","rn":"#1a1b22"},"geometry":{"type":"Polygon","coordinates":[[[-97.7372597,30.2874939],[-97.7372366,30.2876964],[-97.7377927,30.2877391],[-97.7382247,30.2877723],[-97.7387758,30.2878145],[-97.7388041,30.2875758],[-97.7372629,30.2874658],[-97.7372597,30.2874939]]]}},{"type":"Feature","properties":{"b":"nhb","band":"louvre","lyr":"solid","cap":0,"wd":"#8e969c","wg":"#a09c98","wn":"#171a22","base":30.8,"h":32.3},"geometry":{"type":"Polygon","coordinates":[[[-97.7382015,30.2875356],[-97.7375276,30.2874875],[-97.7375054,30.2877194],[-97.7381793,30.2877675],[-97.7382015,30.2875356]]]}},{"type":"Feature","properties":{"b":"nhb","band":"glassvol","lyr":"glassb","cap":0,"wd":"#2f5c94","wg":"#506c91","wn":"#0d1321","base":12.9,"h":28.6},"geometry":{"type":"Polygon","coordinates":[[[-97.7377852,30.2875225],[-97.7373705,30.2874929],[-97.7373695,30.2875041],[-97.7377842,30.2875337],[-97.7377852,30.2875225]]]}}],"replacedBuildingIds":["8f0abac0-44ed-4e4a-861a-cc95dfc7b429","44e418d6-dd3a-48da-8e9d-c29e59593299","f8a072d5-4751-4e9b-8939-49239919913a"],"authoredRoofIds":["8f0abac0-44ed-4e4a-861a-cc95dfc7b429","44e418d6-dd3a-48da-8e9d-c29e59593299","f8a072d5-4751-4e9b-8939-49239919913a"],"heroHeights":{"8f0abac0-44ed-4e4a-861a-cc95dfc7b429":40.5,"44e418d6-dd3a-48da-8e9d-c29e59593299":29.5,"f8a072d5-4751-4e9b-8939-49239919913a":32.3}}