{"type":"FeatureCollection","features":[{"type":"Feature","properties":{"kind":"pitch"},"geometry":{"type":"Polygon","coordinates":[[[-97.7270168,30.2858384],[-97.7269112,30.2858142],[-97.726426,30.285703],[-97.7261053,30.2867465],[-97.7266961,30.2868819],[-97.7270168,30.2858384]]]}},{"type":"Feature","properties":{"kind":"pitch"},"geometry":{"type":"Polygon","coordinates":[[[-97.7259235,30.2855796],[-97.7256564,30.286405],[-97.7261388,30.2865153],[-97.7263943,30.2856813],[-97.7259235,30.2855796]]]}},{"type":"Feature","properties":{"kind":"pitch"},"geometry":{"type":"Polygon","coordinates":[[[-97.7273513,30.2845126],[-97.7268203,30.2843906],[-97.7265356,30.285353],[-97.727025,30.2854651],[-97.7273513,30.2845126]]]}},{"type":"Feature","properties":{"kind":"pitch"},"geometry":{"type":"Polygon","coordinates":[[[-97.7270803,30.2838628],[-97.7269458,30.2843128],[-97.7274479,30.2844247],[-97.7275824,30.2839746],[-97.7270803,30.2838628]]]}},{"type":"Feature","properties":{"kind":"pitch"},"geometry":{"type":"Polygon","coordinates":[[[-97.7357065,30.2812094],[-97.7355598,30.2811982],[-97.7355395,30.2813961],[-97.7356863,30.2814073],[-97.7357065,30.2812094]]]}},{"type":"Feature","properties":{"kind":"pitch"},"geometry":{"type":"Polygon","coordinates":[[[-97.7267147,30.2804534],[-97.7264954,30.2805252],[-97.7258981,30.2805105],[-97.7256887,30.2803732],[-97.7254901,30.2798764],[-97.7255173,30.2796621],[-97.7256311,30.279652],[-97.726161,30.2794698],[-97.7265618,30.2794134],[-97.7266557,30.2794713],[-97.7267162,30.2797848],[-97.7267147,30.2804534]]]}},{"type":"Feature","properties":{"kind":"pitch"},"geometry":{"type":"Polygon","coordinates":[[[-97.7302635,30.2831214],[-97.7305471,30.282201],[-97.729861,30.2820433],[-97.7295774,30.2829637],[-97.7302635,30.2831214]]]}},{"type":"Feature","properties":{"kind":"pitch"},"geometry":{"type":"Polygon","coordinates":[[[-97.7327476,30.2841772],[-97.732848,30.2831908],[-97.7323417,30.2831524],[-97.7322414,30.2841388],[-97.7327476,30.2841772]]]}},{"type":"Feature","properties":{"kind":"fountain"},"geometry":{"type":"Polygon","coordinates":[[[-97.7396563,30.2840736],[-97.7395453,30.2840644],[-97.739556,30.283941],[-97.7395396,30.2839449],[-97.7395254,30.2839407],[-97.7395145,30.2839297],[-97.7395097,30.2839148],[-97.7394929,30.2839036],[-97.7394788,30.2838788],[-97.7394726,30.2838519],[-97.7394856,30.2838296],[-97.7394992,30.2838143],[-97.7395243,30.2837985],[-97.7395608,30.2837865],[-97.739597,30.2837812],[-97.7396423,30.2837816],[-97.7396766,30.2837897],[-97.7397109,30.2838016],[-97.7397423,30.2838199],[-97.7397622,30.2838466],[-97.7397663,30.2838778],[-97.7397542,30.283908],[-97.7397351,30.2839276],[-97.739714,30.2839415],[-97.7397042,30.2839554],[-97.7396858,30.2839612],[-97.7396657,30.2839566],[-97.7396563,30.2840736]]]}},{"type":"Feature","properties":{"kind":"pitch"},"geometry":{"type":"Polygon","coordinates":[[[-97.7319243,30.2903289],[-97.7316364,30.2904437],[-97.7314813,30.290154],[-97.7317692,30.2900391],[-97.7319243,30.2903289]]]}},{"type":"Feature","properties":{"kind":"pitch"},"geometry":{"type":"Polygon","coordinates":[[[-97.7392922,30.2946775],[-97.7390933,30.2945432],[-97.7391907,30.2944357],[-97.7393896,30.2945699],[-97.7392922,30.2946775]]]}},{"type":"Feature","properties":{"kind":"pitch"},"geometry":{"type":"Polygon","coordinates":[[[-97.7503031,30.2791724],[-97.7497855,30.2791817],[-97.749756,30.2781787],[-97.7502736,30.2781671],[-97.7503031,30.2791724]]]}},{"type":"Feature","properties":{"kind":"pitch"},"geometry":{"type":"Polygon","coordinates":[[[-97.7500283,30.277354],[-97.7489907,30.2770377],[-97.7488835,30.277005],[-97.748993,30.2767008],[-97.7498996,30.2769556],[-97.7500283,30.277354]]]}},{"type":"Feature","properties":{"kind":"pitch"},"geometry":{"type":"Polygon","coordinates":[[[-97.7424913,30.2896222],[-97.7423146,30.2896091],[-97.7423249,30.2895048],[-97.7425016,30.2895179],[-97.7424913,30.2896222]]]}},{"type":"Feature","properties":{"kind":"pitch"},"geometry":{"type":"Polygon","coordinates":[[[-97.7484921,30.2915117],[-97.7482621,30.291497],[-97.7482704,30.2914006],[-97.7485004,30.2914154],[-97.7484921,30.2915117]]]}},{"type":"Feature","properties":{"kind":"pitch"},"geometry":{"type":"Polygon","coordinates":[[[-97.7520474,30.2881963],[-97.7520298,30.2879805],[-97.7519148,30.2879875],[-97.7519324,30.2882033],[-97.7520474,30.2881963]]]}},{"type":"Feature","properties":{"kind":"pitch"},"geometry":{"type":"Polygon","coordinates":[[[-97.7518984,30.2882054],[-97.7518807,30.2879896],[-97.7517657,30.2879966],[-97.7517833,30.2882124],[-97.7518984,30.2882054]]]}},{"type":"Feature","properties":{"kind":"pitch"},"geometry":{"type":"Polygon","coordinates":[[[-97.7518516,30.281852],[-97.7519754,30.2817669],[-97.7518023,30.2815792],[-97.7516786,30.2816643],[-97.7518516,30.281852]]]}},{"type":"Feature","properties":{"kind":"pitch"},"geometry":{"type":"Polygon","coordinates":[[[-97.7486314,30.2907129],[-97.7486235,30.2908143],[-97.7488497,30.2908275],[-97.7488576,30.290726],[-97.7486314,30.2907129]]]}},{"type":"Feature","properties":{"kind":"pitch"},"geometry":{"type":"Polygon","coordinates":[[[-97.7272576,30.2815792],[-97.7272403,30.281367],[-97.7271241,30.281374],[-97.7271414,30.2815863],[-97.7272576,30.2815792]]]}},{"type":"Feature","properties":{"kind":"pitch"},"geometry":{"type":"Polygon","coordinates":[[[-97.7270688,30.2815892],[-97.7270516,30.281377],[-97.7269354,30.281384],[-97.7269527,30.2815963],[-97.7270688,30.2815892]]]}},{"type":"Feature","properties":{"kind":"pitch"},"geometry":{"type":"Polygon","coordinates":[[[-97.726877,30.2816045],[-97.7268598,30.2813923],[-97.7267436,30.2813993],[-97.7267609,30.2816116],[-97.726877,30.2816045]]]}},{"type":"Feature","properties":{"kind":"pitch"},"geometry":{"type":"Polygon","coordinates":[[[-97.7266475,30.2816172],[-97.7266303,30.2814049],[-97.726514,30.281412],[-97.7265313,30.2816242],[-97.7266475,30.2816172]]]}},{"type":"Feature","properties":{"kind":"pitch"},"geometry":{"type":"Polygon","coordinates":[[[-97.7264519,30.2816311],[-97.7264346,30.2814189],[-97.7263184,30.2814259],[-97.7263357,30.2816382],[-97.7264519,30.2816311]]]}},{"type":"Feature","properties":{"kind":"pitch"},"geometry":{"type":"Polygon","coordinates":[[[-97.7262608,30.2816391],[-97.7262436,30.2814269],[-97.7261274,30.2814339],[-97.7261446,30.2816462],[-97.7262608,30.2816391]]]}},{"type":"Feature","properties":{"kind":"pitch"},"geometry":{"type":"Polygon","coordinates":[[[-97.7271762,30.281121],[-97.7271589,30.2809087],[-97.7270427,30.2809158],[-97.72706,30.281128],[-97.7271762,30.281121]]]}},{"type":"Feature","properties":{"kind":"pitch"},"geometry":{"type":"Polygon","coordinates":[[[-97.7269857,30.281134],[-97.7269685,30.2809217],[-97.7268522,30.2809288],[-97.7268695,30.281141],[-97.7269857,30.281134]]]}},{"type":"Feature","properties":{"kind":"pitch"},"geometry":{"type":"Polygon","coordinates":[[[-97.7267962,30.2811483],[-97.726779,30.280936],[-97.7266628,30.2809431],[-97.7266801,30.2811553],[-97.7267962,30.2811483]]]}},{"type":"Feature","properties":{"kind":"pitch"},"geometry":{"type":"Polygon","coordinates":[[[-97.7266076,30.2811579],[-97.7265903,30.2809456],[-97.7264741,30.2809527],[-97.7264914,30.2811649],[-97.7266076,30.2811579]]]}},{"type":"Feature","properties":{"kind":"pitch"},"geometry":{"type":"Polygon","coordinates":[[[-97.7264189,30.2811713],[-97.7264017,30.2809591],[-97.7262855,30.2809661],[-97.7263027,30.2811784],[-97.7264189,30.2811713]]]}},{"type":"Feature","properties":{"kind":"pitch"},"geometry":{"type":"Polygon","coordinates":[[[-97.726225,30.2811818],[-97.7262077,30.2809696],[-97.7260915,30.2809766],[-97.7261088,30.2811889],[-97.726225,30.2811818]]]}},{"type":"Feature","properties":{"kind":"pitch"},"geometry":{"type":"Polygon","coordinates":[[[-97.7318732,30.2902942],[-97.7317684,30.2903377],[-97.7316592,30.2901415],[-97.7317639,30.290098],[-97.7318732,30.2902942]]]}},{"type":"Feature","properties":{"kind":"pitch"},"geometry":{"type":"Polygon","coordinates":[[[-97.7317484,30.2903456],[-97.7316421,30.2903884],[-97.7315362,30.2901923],[-97.7316424,30.2901495],[-97.7317484,30.2903456]]]}},{"type":"Feature","properties":{"kind":"pitch"},"geometry":{"type":"Polygon","coordinates":[[[-97.7313749,30.2908635],[-97.7312484,30.2908422],[-97.7312887,30.2906632],[-97.7314153,30.2906845],[-97.7313749,30.2908635]]]}},{"type":"Feature","properties":{"kind":"pitch"},"geometry":{"type":"Polygon","coordinates":[[[-97.7355179,30.281195],[-97.7353712,30.2811838],[-97.7353509,30.2813817],[-97.7354976,30.2813929],[-97.7355179,30.281195]]]}},{"type":"Feature","properties":{"kind":"pitch"},"geometry":{"type":"Polygon","coordinates":[[[-97.7355421,30.2809562],[-97.7353954,30.280945],[-97.7353751,30.2811429],[-97.7355219,30.2811541],[-97.7355421,30.2809562]]]}},{"type":"Feature","properties":{"kind":"pitch"},"geometry":{"type":"Polygon","coordinates":[[[-97.7357289,30.2809697],[-97.7355822,30.2809585],[-97.7355619,30.2811564],[-97.7357086,30.2811676],[-97.7357289,30.2809697]]]}},{"type":"Feature","properties":{"kind":"pitch"},"geometry":{"type":"Polygon","coordinates":[[[-97.7472727,30.2889796],[-97.7472574,30.2891602],[-97.747147,30.2891532],[-97.7471624,30.2889726],[-97.7472727,30.2889796]]]}},{"type":"Feature","properties":{"kind":"pitch"},"geometry":{"type":"Polygon","coordinates":[[[-97.7338156,30.2900572],[-97.7337365,30.2901807],[-97.7335194,30.2900771],[-97.7335985,30.2899536],[-97.7338156,30.2900572]]]}},{"type":"Feature","properties":{"kind":"pitch"},"geometry":{"type":"Polygon","coordinates":[[[-97.7423771,30.2924341],[-97.7422227,30.2924255],[-97.7422431,30.2922452],[-97.7423921,30.2922552],[-97.7423771,30.2924341]]]}},{"type":"Feature","properties":{"kind":"pitch"},"geometry":{"type":"Polygon","coordinates":[[[-97.7423543,30.2834858],[-97.7423346,30.2837055],[-97.742168,30.2836944],[-97.7421877,30.2834747],[-97.7423543,30.2834858]]]}},{"type":"Feature","properties":{"kind":"pitch"},"geometry":{"type":"Polygon","coordinates":[[[-97.7422762,30.2833146],[-97.7422682,30.2834017],[-97.7422054,30.2833974],[-97.7422134,30.2833103],[-97.7422762,30.2833146]]]}},{"type":"Feature","properties":{"kind":"pitch"},"geometry":{"type":"Polygon","coordinates":[[[-97.7438681,30.2838481],[-97.7437295,30.283838],[-97.743735,30.2837822],[-97.7438736,30.2837923],[-97.7438681,30.2838481]]]}},{"type":"Feature","properties":{"kind":"pitch"},"geometry":{"type":"Polygon","coordinates":[[[-97.7437979,30.2837266],[-97.7436569,30.2837167],[-97.7436621,30.2836614],[-97.7438032,30.2836713],[-97.7437979,30.2837266]]]}},{"type":"Feature","properties":{"kind":"pitch"},"geometry":{"type":"Polygon","coordinates":[[[-97.7498671,30.2884555],[-97.7498611,30.2885272],[-97.7496539,30.2885142],[-97.74966,30.2884425],[-97.7498671,30.2884555]]]}},{"type":"Feature","properties":{"kind":"pitch"},"geometry":{"type":"Polygon","coordinates":[[[-97.7510866,30.2882809],[-97.7509722,30.2882736],[-97.7509856,30.2881164],[-97.7510999,30.2881236],[-97.7510866,30.2882809]]]}},{"type":"Feature","properties":{"kind":"pitch"},"geometry":{"type":"Polygon","coordinates":[[[-97.7451687,30.2909944],[-97.745159,30.2911004],[-97.744972,30.2910877],[-97.7449817,30.2909817],[-97.7451687,30.2909944]]]}},{"type":"Feature","properties":{"kind":"pitch"},"geometry":{"type":"Polygon","coordinates":[[[-97.7488762,30.2896986],[-97.7488836,30.2896025],[-97.7486948,30.2895916],[-97.7486873,30.2896876],[-97.7488762,30.2896986]]]}},{"type":"Feature","properties":{"kind":"pitch"},"geometry":{"type":"Polygon","coordinates":[[[-97.7288645,30.2824616],[-97.7283623,30.2831465],[-97.7288785,30.2832655],[-97.7288645,30.2824616]]]}},{"type":"Feature","properties":{"kind":"pitch"},"geometry":{"type":"Polygon","coordinates":[[[-97.7324594,30.2820471],[-97.7324319,30.2823071],[-97.7329503,30.2823476],[-97.7329804,30.2820869],[-97.7324594,30.2820471]]]}},{"type":"Feature","properties":{"kind":"pitch"},"geometry":{"type":"Polygon","coordinates":[[[-97.7289207,30.2824106],[-97.7289137,30.2826297],[-97.7290538,30.2825976],[-97.7289207,30.2824106]]]}},{"type":"Feature","properties":{"kind":"pitch"},"geometry":{"type":"Polygon","coordinates":[[[-97.7340229,30.2814855],[-97.7344706,30.2817982],[-97.7351319,30.281092],[-97.7346844,30.2807794],[-97.7340229,30.2814855]]]}},{"type":"Feature","properties":{"kind":"pitch"},"geometry":{"type":"Polygon","coordinates":[[[-97.7267147,30.2804534],[-97.7264954,30.2805252],[-97.7258981,30.2805105],[-97.7256887,30.2803732],[-97.7254901,30.2798764],[-97.7255173,30.2796621],[-97.7256311,30.279652],[-97.726161,30.2794698],[-97.7265618,30.2794134],[-97.7266557,30.2794713],[-97.7267162,30.2797848],[-97.7267147,30.2804534]]]}}]}