{"type":"FeatureCollection","features":[{"type":"Feature","properties":{"kind":"wall","band":"plinth","tile":"moody-plinth","wd":"#5a5147","wg":"#746250","wn":"#111219","h":8.31,"base":0.0,"name":"Moody Center","bid":"d8b0698a-4208-4cb3-a233-8be9c247c5ee"},"geometry":{"type":"Polygon","coordinates":[[[-97.7308995,30.2816657],[-97.7309397,30.2816446],[-97.7309676,30.2815655],[-97.7311088,30.2814484],[-97.731163,30.2814021],[-97.7312173,30.2813559],[-97.7313149,30.2812418],[-97.731363,30.2811651],[-97.731412,30.2811729],[-97.7314305,30.2811727],[-97.7314391,30.2811628],[-97.7314485,30.2811107],[-97.7313845,30.2808948],[-97.731302,30.2807811],[-97.7307941,30.2803323],[-97.7306428,30.2802848],[-97.7306132,30.2803304],[-97.730561,30.2803266],[-97.7304432,30.28034],[-97.7302936,30.2804074],[-97.7302468,30.2804324],[-97.7302123,30.2804586],[-97.7301735,30.2804273],[-97.7300892,30.2804883],[-97.7300188,30.2805527],[-97.7299401,30.2806279],[-97.7299934,30.2806664],[-97.7299513,30.2807274],[-97.7299164,30.2808229],[-97.7299058,30.2808814],[-97.7299089,30.2809785],[-97.7298563,30.2809913],[-97.7299005,30.2811032],[-97.7302406,30.2814094],[-97.7304621,30.281589],[-97.7308995,30.2816657]]]}},{"type":"Feature","properties":{"kind":"wall","band":"fins","tile":"moody-fins","wd":"#493c34","wg":"#665140","wn":"#101017","h":17.73,"base":8.31,"name":"Moody Center","bid":"d8b0698a-4208-4cb3-a233-8be9c247c5ee"},"geometry":{"type":"Polygon","coordinates":[[[-97.7308995,30.2816657],[-97.7309397,30.2816446],[-97.7309676,30.2815655],[-97.7311088,30.2814484],[-97.731163,30.2814021],[-97.7312173,30.2813559],[-97.7313149,30.2812418],[-97.731363,30.2811651],[-97.731412,30.2811729],[-97.7314305,30.2811727],[-97.7314391,30.2811628],[-97.7314485,30.2811107],[-97.7313845,30.2808948],[-97.731302,30.2807811],[-97.7307941,30.2803323],[-97.7306428,30.2802848],[-97.7306132,30.2803304],[-97.730561,30.2803266],[-97.7304432,30.28034],[-97.7302936,30.2804074],[-97.7302468,30.2804324],[-97.7302123,30.2804586],[-97.7301735,30.2804273],[-97.7300892,30.2804883],[-97.7300188,30.2805527],[-97.7299401,30.2806279],[-97.7299934,30.2806664],[-97.7299513,30.2807274],[-97.7299164,30.2808229],[-97.7299058,30.2808814],[-97.7299089,30.2809785],[-97.7298563,30.2809913],[-97.7299005,30.2811032],[-97.7302406,30.2814094],[-97.7304621,30.281589],[-97.7308995,30.2816657]]]}},{"type":"Feature","properties":{"kind":"wall","band":"glass","tile":"moody-glass","wd":"#8fa3ad","wg":"#a1a7a6","wn":"#171b24","h":22.16,"base":17.73,"name":"Moody Center","bid":"d8b0698a-4208-4cb3-a233-8be9c247c5ee"},"geometry":{"type":"Polygon","coordinates":[[[-97.7308995,30.2816657],[-97.7309397,30.2816446],[-97.7309676,30.2815655],[-97.7311088,30.2814484],[-97.731163,30.2814021],[-97.7312173,30.2813559],[-97.7313149,30.2812418],[-97.731363,30.2811651],[-97.731412,30.2811729],[-97.7314305,30.2811727],[-97.7314391,30.2811628],[-97.7314485,30.2811107],[-97.7313845,30.2808948],[-97.731302,30.2807811],[-97.7307941,30.2803323],[-97.7306428,30.2802848],[-97.7306132,30.2803304],[-97.730561,30.2803266],[-97.7304432,30.28034],[-97.7302936,30.2804074],[-97.7302468,30.2804324],[-97.7302123,30.2804586],[-97.7301735,30.2804273],[-97.7300892,30.2804883],[-97.7300188,30.2805527],[-97.7299401,30.2806279],[-97.7299934,30.2806664],[-97.7299513,30.2807274],[-97.7299164,30.2808229],[-97.7299058,30.2808814],[-97.7299089,30.2809785],[-97.7298563,30.2809913],[-97.7299005,30.2811032],[-97.7302406,30.2814094],[-97.7304621,30.281589],[-97.7308995,30.2816657]]]}},{"type":"Feature","properties":{"kind":"wall","band":"fascia","tile":"moody-fascia","wd":"#4a423a","wg":"#675646","wn":"#101117","h":26.04,"base":22.16,"name":"Moody Center","bid":"d8b0698a-4208-4cb3-a233-8be9c247c5ee"},"geometry":{"type":"Polygon","coordinates":[[[-97.7309091,30.2817132],[-97.7309837,30.2816741],[-97.7310134,30.2815898],[-97.7311451,30.2814806],[-97.7311995,30.2814341],[-97.7312567,30.2813854],[-97.7313589,30.281266],[-97.7313907,30.2812152],[-97.7314076,30.2812179],[-97.7314567,30.2812173],[-97.7314885,30.2811808],[-97.7315015,30.2811085],[-97.7314329,30.2808769],[-97.7313431,30.2807532],[-97.730823,30.2802936],[-97.730619,30.2802295],[-97.7305842,30.2802832],[-97.7305598,30.2802814],[-97.7304273,30.2802965],[-97.7302679,30.2803683],[-97.7302157,30.2803962],[-97.7302134,30.280398],[-97.7301754,30.2803673],[-97.7300535,30.2804556],[-97.7299806,30.2805222],[-97.7298653,30.2806324],[-97.729926,30.2806763],[-97.7299035,30.2807089],[-97.7298656,30.2808126],[-97.7298537,30.2808785],[-97.7298558,30.2809448],[-97.7297893,30.2809609],[-97.729855,30.2811271],[-97.730204,30.2814413],[-97.7304373,30.2816305],[-97.7309091,30.2817132]]]}},{"type":"Feature","properties":{"kind":"roof","band":"apron","tile":null,"wd":"#c2cddb","wg":"#cccbcd","wn":"#1d2029","h":26.45,"base":26.04,"name":"Moody Center","bid":"d8b0698a-4208-4cb3-a233-8be9c247c5ee"},"geometry":{"type":"Polygon","coordinates":[[[-97.7309091,30.2817132],[-97.7309837,30.2816741],[-97.7310134,30.2815898],[-97.7311451,30.2814806],[-97.7311995,30.2814341],[-97.7312567,30.2813854],[-97.7313589,30.281266],[-97.7313907,30.2812152],[-97.7314076,30.2812179],[-97.7314567,30.2812173],[-97.7314885,30.2811808],[-97.7315015,30.2811085],[-97.7314329,30.2808769],[-97.7313431,30.2807532],[-97.730823,30.2802936],[-97.730619,30.2802295],[-97.7305842,30.2802832],[-97.7305598,30.2802814],[-97.7304273,30.2802965],[-97.7302679,30.2803683],[-97.7302157,30.2803962],[-97.7302134,30.280398],[-97.7301754,30.2803673],[-97.7300535,30.2804556],[-97.7299806,30.2805222],[-97.7298653,30.2806324],[-97.729926,30.2806763],[-97.7299035,30.2807089],[-97.7298656,30.2808126],[-97.7298537,30.2808785],[-97.7298558,30.2809448],[-97.7297893,30.2809609],[-97.729855,30.2811271],[-97.730204,30.2814413],[-97.7304373,30.2816305],[-97.7309091,30.2817132]]]}},{"type":"Feature","properties":{"kind":"roof","band":"membrane","tile":null,"wd":"#dbe6f2","wg":"#e1e0e0","wn":"#20232b","h":27.7,"base":26.45,"name":"Moody Center","bid":"d8b0698a-4208-4cb3-a233-8be9c247c5ee"},"geometry":{"type":"Polygon","coordinates":[[[-97.7308995,30.2816657],[-97.7309397,30.2816446],[-97.7309676,30.2815655],[-97.7311088,30.2814484],[-97.731163,30.2814021],[-97.7312173,30.2813559],[-97.7313149,30.2812418],[-97.731363,30.2811651],[-97.731412,30.2811729],[-97.7314305,30.2811727],[-97.7314391,30.2811628],[-97.7314485,30.2811107],[-97.7313845,30.2808948],[-97.731302,30.2807811],[-97.7307941,30.2803323],[-97.7306428,30.2802848],[-97.7306132,30.2803304],[-97.730561,30.2803266],[-97.7304432,30.28034],[-97.7302936,30.2804074],[-97.7302468,30.2804324],[-97.7302123,30.2804586],[-97.7301735,30.2804273],[-97.7300892,30.2804883],[-97.7300188,30.2805527],[-97.7299401,30.2806279],[-97.7299934,30.2806664],[-97.7299513,30.2807274],[-97.7299164,30.2808229],[-97.7299058,30.2808814],[-97.7299089,30.2809785],[-97.7298563,30.2809913],[-97.7299005,30.2811032],[-97.7302406,30.2814094],[-97.7304621,30.281589],[-97.7308995,30.2816657]]]}},{"type":"Feature","geometry":{"type":"Polygon","coordinates":[[[-97.7308995,30.2816657],[-97.7309397,30.2816446],[-97.7309676,30.2815655],[-97.7311088,30.2814484],[-97.731163,30.2814021],[-97.7312173,30.2813559],[-97.7313149,30.2812418],[-97.731363,30.2811651],[-97.731412,30.2811729],[-97.7314305,30.2811727],[-97.7314391,30.2811628],[-97.7314485,30.2811107],[-97.7313845,30.2808948],[-97.731302,30.2807811],[-97.7307941,30.2803323],[-97.7306428,30.2802848],[-97.7306132,30.2803304],[-97.730561,30.2803266],[-97.7304432,30.28034],[-97.7302936,30.2804074],[-97.7302468,30.2804324],[-97.7302123,30.2804586],[-97.7301735,30.2804273],[-97.7300892,30.2804883],[-97.7300188,30.2805527],[-97.7299401,30.2806279],[-97.7299934,30.2806664],[-97.7299513,30.2807274],[-97.7299164,30.2808229],[-97.7299058,30.2808814],[-97.7299089,30.2809785],[-97.7298563,30.2809913],[-97.7299005,30.2811032],[-97.7302406,30.2814094],[-97.7304621,30.281589],[-97.7308995,30.2816657]]]},"properties":{"kind":"cap","band":"membrane","name":"Moody Center","bid":"d8b0698a-4208-4cb3-a233-8be9c247c5ee","wd":"#dbe6f2","wg":"#e1e0e0","wn":"#20232b","base":27.7,"h":28.7}},{"type":"Feature","properties":{"kind":"wall","band":"podium","tile":"health-podium","wd":"#efe5d8","wg":"#f2dfca","wn":"#222229","h":8.99,"base":0.0,"name":"Health Transformation Building","bid":"866e9c84-7564-4b01-8805-35088be79cd9"},"geometry":{"type":"Polygon","coordinates":[[[-97.735009,30.2777623],[-97.7350982,30.2777861],[-97.7351541,30.2776334],[-97.7351802,30.2775622],[-97.7352259,30.2775748],[-97.7354823,30.276877],[-97.7355325,30.2768897],[-97.735555,30.2768274],[-97.7353921,30.2767803],[-97.7354169,30.2767058],[-97.7350459,30.2765992],[-97.7350193,30.2765915],[-97.7349945,30.2766714],[-97.7350173,30.2766799],[-97.7346822,30.2774548],[-97.735082,30.277563],[-97.7350582,30.277628],[-97.735009,30.2777623]]]}},{"type":"Feature","properties":{"kind":"wall","band":"body","tile":"health-body-cream","wd":"#cfc4b2","wg":"#d7c3aa","wn":"#1e1f24","h":38.49,"base":8.99,"name":"Health Transformation Building","bid":"866e9c84-7564-4b01-8805-35088be79cd9"},"geometry":{"type":"Polygon","coordinates":[[[-97.735009,30.2777623],[-97.7350982,30.2777861],[-97.7351541,30.2776334],[-97.7351802,30.2775622],[-97.7352259,30.2775748],[-97.7354823,30.276877],[-97.7355325,30.2768897],[-97.735555,30.2768274],[-97.7353921,30.2767803],[-97.7354169,30.2767058],[-97.7350459,30.2765992],[-97.7350193,30.2765915],[-97.7349945,30.2766714],[-97.7350173,30.2766799],[-97.7346822,30.2774548],[-97.735082,30.277563],[-97.7350582,30.277628],[-97.735009,30.2777623]]]}},{"type":"Feature","properties":{"kind":"wall","band":"attic","tile":"health-attic-cream","wd":"#b6ac9d","wg":"#c2af99","wn":"#1c1c22","h":46.1,"base":38.49,"name":"Health Transformation Building","bid":"866e9c84-7564-4b01-8805-35088be79cd9"},"geometry":{"type":"Polygon","coordinates":[[[-97.735009,30.2777623],[-97.7350982,30.2777861],[-97.7351541,30.2776334],[-97.7351802,30.2775622],[-97.7352259,30.2775748],[-97.7354823,30.276877],[-97.7355325,30.2768897],[-97.735555,30.2768274],[-97.7353921,30.2767803],[-97.7354169,30.2767058],[-97.7350459,30.2765992],[-97.7350193,30.2765915],[-97.7349945,30.2766714],[-97.7350173,30.2766799],[-97.7346822,30.2774548],[-97.735082,30.277563],[-97.7350582,30.277628],[-97.735009,30.2777623]]]}},{"type":"Feature","geometry":{"type":"Polygon","coordinates":[[[-97.735009,30.2777623],[-97.7350982,30.2777861],[-97.7351541,30.2776334],[-97.7351802,30.2775622],[-97.7352259,30.2775748],[-97.7354823,30.276877],[-97.7355325,30.2768897],[-97.735555,30.2768274],[-97.7353921,30.2767803],[-97.7354169,30.2767058],[-97.7350459,30.2765992],[-97.7350193,30.2765915],[-97.7349945,30.2766714],[-97.7350173,30.2766799],[-97.7346822,30.2774548],[-97.735082,30.277563],[-97.7350582,30.277628],[-97.735009,30.2777623]]]},"properties":{"kind":"cap","band":"attic","name":"Health Transformation Building","bid":"866e9c84-7564-4b01-8805-35088be79cd9","wd":"#b6ac9d","wg":"#c2af99","wn":"#1c1c22","base":46.1,"h":47.1}},{"type":"Feature","properties":{"kind":"plant","band":"plant","tile":null,"wd":"#8e9298","wg":"#a09994","wn":"#171922","h":50.6,"base":47.1,"name":"Health Transformation Building","bid":"866e9c84-7564-4b01-8805-35088be79cd9"},"geometry":{"type":"Polygon","coordinates":[[[-97.7351267,30.2777091],[-97.735037,30.2776851],[-97.7350648,30.277609],[-97.7351193,30.2774605],[-97.735165,30.2774731],[-97.7354208,30.2767772],[-97.7354705,30.2767898],[-97.7354383,30.2768789],[-97.7352774,30.2768324],[-97.7353021,30.276758],[-97.7350162,30.2766759],[-97.7350839,30.2766955],[-97.7351059,30.2766249],[-97.7351362,30.2766361],[-97.7348045,30.2774032],[-97.7351996,30.2775101],[-97.7351475,30.2776524],[-97.7351267,30.2777091]]]}},{"type":"Feature","properties":{"kind":"wall","band":"podium","tile":"health-podium","wd":"#efe5d8","wg":"#f2dfca","wn":"#222229","h":9.0,"base":0.0,"name":"Health Discovery Building","bid":"f1ca81ce-4c4b-4add-bb77-e63238bbea1c"},"geometry":{"type":"Polygon","coordinates":[[[-97.735186,30.2778099],[-97.7350982,30.2777861],[-97.735009,30.2777623],[-97.7349124,30.2777345],[-97.734891,30.2777715],[-97.7347086,30.2778596],[-97.7346442,30.2777623],[-97.7344726,30.2778364],[-97.7344569,30.2778077],[-97.7342448,30.2779097],[-97.7343045,30.2780088],[-97.7341829,30.2780588],[-97.7343063,30.2783275],[-97.7349339,30.2785081],[-97.735186,30.2778099]]]}},{"type":"Feature","properties":{"kind":"wall","band":"body","tile":"health-body-grey","wd":"#9e918b","wg":"#ae988a","wn":"#191920","h":36.02,"base":9.0,"name":"Health Discovery Building","bid":"f1ca81ce-4c4b-4add-bb77-e63238bbea1c"},"geometry":{"type":"Polygon","coordinates":[[[-97.735186,30.2778099],[-97.7350982,30.2777861],[-97.735009,30.2777623],[-97.7349124,30.2777345],[-97.734891,30.2777715],[-97.7347086,30.2778596],[-97.7346442,30.2777623],[-97.7344726,30.2778364],[-97.7344569,30.2778077],[-97.7342448,30.2779097],[-97.7343045,30.2780088],[-97.7341829,30.2780588],[-97.7343063,30.2783275],[-97.7349339,30.2785081],[-97.735186,30.2778099]]]}},{"type":"Feature","properties":{"kind":"wall","band":"attic","tile":"health-attic-grey","wd":"#8b807a","wg":"#9e8a7b","wn":"#17171e","h":44.8,"base":36.02,"name":"Health Discovery Building","bid":"f1ca81ce-4c4b-4add-bb77-e63238bbea1c"},"geometry":{"type":"Polygon","coordinates":[[[-97.735186,30.2778099],[-97.7350982,30.2777861],[-97.735009,30.2777623],[-97.7349124,30.2777345],[-97.734891,30.2777715],[-97.7347086,30.2778596],[-97.7346442,30.2777623],[-97.7344726,30.2778364],[-97.7344569,30.2778077],[-97.7342448,30.2779097],[-97.7343045,30.2780088],[-97.7341829,30.2780588],[-97.7343063,30.2783275],[-97.7349339,30.2785081],[-97.735186,30.2778099]]]}},{"type":"Feature","geometry":{"type":"Polygon","coordinates":[[[-97.735186,30.2778099],[-97.7350982,30.2777861],[-97.735009,30.2777623],[-97.7349124,30.2777345],[-97.734891,30.2777715],[-97.7347086,30.2778596],[-97.7346442,30.2777623],[-97.7344726,30.2778364],[-97.7344569,30.2778077],[-97.7342448,30.2779097],[-97.7343045,30.2780088],[-97.7341829,30.2780588],[-97.7343063,30.2783275],[-97.7349339,30.2785081],[-97.735186,30.2778099]]]},"properties":{"kind":"cap","band":"attic","name":"Health Discovery Building","bid":"f1ca81ce-4c4b-4add-bb77-e63238bbea1c","wd":"#8b807a","wg":"#9e8a7b","wn":"#17171e","base":44.8,"h":45.8}},{"type":"Feature","properties":{"kind":"plant","band":"plant","tile":null,"wd":"#8e9298","wg":"#a09994","wn":"#171922","h":50.28,"base":45.8,"name":"Health Discovery Building","bid":"f1ca81ce-4c4b-4add-bb77-e63238bbea1c"},"geometry":{"type":"Polygon","coordinates":[[[-97.7350688,30.2778629],[-97.7350704,30.2778633],[-97.7349804,30.2778393],[-97.7349599,30.2778334],[-97.7349619,30.2778299],[-97.7346733,30.2779693],[-97.7346069,30.2778688],[-97.7344288,30.2779457],[-97.734415,30.2779204],[-97.7343698,30.2779421],[-97.7344323,30.2780458],[-97.7343022,30.2780993],[-97.7343773,30.2782627],[-97.7348729,30.2784053],[-97.7350688,30.2778629]]]}}],"replacedBuildingIds":["d8b0698a-4208-4cb3-a233-8be9c247c5ee","866e9c84-7564-4b01-8805-35088be79cd9","f1ca81ce-4c4b-4add-bb77-e63238bbea1c"],"authoredRoofIds":["d8b0698a-4208-4cb3-a233-8be9c247c5ee","866e9c84-7564-4b01-8805-35088be79cd9","f1ca81ce-4c4b-4add-bb77-e63238bbea1c"]}