{"type": "FeatureCollection", "features": [{"type": "Feature", "geometry": {"type": "Polygon", "coordinates": [[[-97.7414727, 30.2833961], [-97.7414007, 30.2834409], [-97.7413785, 30.2834386], [-97.7412962, 30.2834972], [-97.7412987, 30.2835192], [-97.7412244, 30.2835675], [-97.7411687, 30.2835035], [-97.7411697, 30.2834851], [-97.7411074, 30.2834178], [-97.7410849, 30.2834145], [-97.7410237, 30.283353], [-97.7410876, 30.2833056], [-97.7411162, 30.2833066], [-97.7411952, 30.2832503], [-97.7411976, 30.2832254], [-97.7412658, 30.2831767], [-97.7413232, 30.2832366], [-97.741323, 30.2832587], [-97.7413846, 30.2833279], [-97.7414154, 30.2833273], [-97.7414727, 30.2833961]]]}, "properties": {"osm_id": "way/516187626", "height_m": 94.0, "min_height_m": 6.4, "colour": null, "roof_colour": null, "material": null}}, {"type": "Feature", "geometry": {"type": "Polygon", "coordinates": [[[-97.7409059, 30.2794114], [-97.7411094, 30.2794712], [-97.7409835, 30.279791], [-97.7407743, 30.2797295], [-97.7409059, 30.2794114]]]}, "properties": {"osm_id": "way/516187630", "height_m": 25.6, "min_height_m": 0, "colour": null, "roof_colour": null, "material": null}}, {"type": "Feature", "geometry": {"type": "Polygon", "coordinates": [[[-97.7394917, 30.2861886], [-97.7394732, 30.2863751], [-97.7392393, 30.2863577], [-97.7392579, 30.2861707], [-97.7394917, 30.2861886]]]}, "properties": {"osm_id": "way/516187631", "height_m": 94.0, "min_height_m": 0, "colour": null, "roof_colour": null, "material": null}}, {"type": "Feature", "geometry": {"type": "Polygon", "coordinates": [[[-97.73964, 30.2858994], [-97.7395301, 30.285892], [-97.7395224, 30.2859775], [-97.739277, 30.2859609], [-97.7392847, 30.2858758], [-97.7391877, 30.2858693], [-97.7391979, 30.2857561], [-97.7396502, 30.2857867], [-97.73964, 30.2858994]]]}, "properties": {"osm_id": "way/516187635", "height_m": 12.8, "min_height_m": 0, "colour": null, "roof_colour": null, "material": null}}, {"type": "Feature", "geometry": {"type": "Polygon", "coordinates": [[[-97.739515, 30.2814881], [-97.7395391, 30.2814319], [-97.7394795, 30.2814289], [-97.7394554, 30.2814851], [-97.739515, 30.2814881]]]}, "properties": {"osm_id": "way/516187640", "height_m": 19.0, "min_height_m": 0, "colour": null, "roof_colour": null, "material": null}}, {"type": "Feature", "geometry": {"type": "Polygon", "coordinates": [[[-97.7376956, 30.2779877], [-97.7380319, 30.2780846], [-97.738106, 30.2781075], [-97.7380082, 30.2783684], [-97.7376047, 30.2782543], [-97.7372973, 30.2781706], [-97.7373278, 30.2780743], [-97.7373952, 30.2779062], [-97.7376149, 30.277963], [-97.7376956, 30.2779877]]]}, "properties": {"osm_id": "way/516282868", "height_m": 38.4, "min_height_m": 0, "colour": null, "roof_colour": null, "material": null}}, {"type": "Feature", "geometry": {"type": "Polygon", "coordinates": [[[-97.7411548, 30.2848779], [-97.7411335, 30.2850805], [-97.7405068, 30.2850314], [-97.7405281, 30.2848287], [-97.7411548, 30.2848779]]]}, "properties": {"osm_id": "way/656119771", "height_m": 10.0, "min_height_m": 0, "colour": "#deb887", "roof_colour": "#872e08", "material": null}}, {"type": "Feature", "geometry": {"type": "Polygon", "coordinates": [[[-97.7406768, 30.2848718], [-97.7406705, 30.2849369], [-97.7406411, 30.2849347], [-97.7406474, 30.2848697], [-97.7406768, 30.2848718]]]}, "properties": {"osm_id": "way/656391314", "height_m": 12.0, "min_height_m": 10.0, "colour": "#deb887", "roof_colour": "#872e08", "material": null}}, {"type": "Feature", "geometry": {"type": "Polygon", "coordinates": [[[-97.7408224, 30.2848827], [-97.7408511, 30.2848846], [-97.7408453, 30.2849493], [-97.7408166, 30.2849474], [-97.7408224, 30.2848827]]]}, "properties": {"osm_id": "way/660001715", "height_m": 12.0, "min_height_m": 10.0, "colour": "#deb887", "roof_colour": "#872e08", "material": null}}, {"type": "Feature", "geometry": {"type": "Polygon", "coordinates": [[[-97.7409936, 30.2848952], [-97.7410243, 30.2848975], [-97.7410179, 30.2849617], [-97.7409872, 30.2849594], [-97.7409936, 30.2848952]]]}, "properties": {"osm_id": "way/660001716", "height_m": 12.0, "min_height_m": 10.0, "colour": "#deb887", "roof_colour": "#872e08", "material": null}}, {"type": "Feature", "geometry": {"type": "Polygon", "coordinates": [[[-97.7410242, 30.2849858], [-97.7406332, 30.2849548], [-97.7406272, 30.2850112], [-97.7410182, 30.2850422], [-97.7410242, 30.2849858]]]}, "properties": {"osm_id": "way/660001717", "height_m": 12.0, "min_height_m": 10.0, "colour": "#deb887", "roof_colour": "#872e08", "material": null}}, {"type": "Feature", "geometry": {"type": "Polygon", "coordinates": [[[-97.7410304, 30.2849592], [-97.7410285, 30.2849591], [-97.7410268, 30.2849585], [-97.7410254, 30.2849575], [-97.7410245, 30.2849561], [-97.7410242, 30.2849545], [-97.7410246, 30.284953], [-97.7410254, 30.2849516], [-97.7410268, 30.2849505], [-97.7410285, 30.2849499], [-97.7410304, 30.2849499], [-97.741032, 30.2849503], [-97.7410334, 30.2849511], [-97.7410345, 30.2849523], [-97.741035, 30.2849537], [-97.7410351, 30.2849552], [-97.7410346, 30.2849566], [-97.7410336, 30.2849578], [-97.7410321, 30.2849587], [-97.7410304, 30.2849592]]]}, "properties": {"osm_id": "way/660344202", "height_m": 14.0, "min_height_m": 10.0, "colour": "#deb887", "roof_colour": "#872e08", "material": null}}, {"type": "Feature", "geometry": {"type": "Polygon", "coordinates": [[[-97.7409566, 30.2849507], [-97.7409782, 30.2849526], [-97.7409754, 30.2849762], [-97.7409538, 30.2849743], [-97.7409566, 30.2849507]]]}, "properties": {"osm_id": "way/660344205", "height_m": 15.0, "min_height_m": 10.0, "colour": "#deb887", "roof_colour": "#872e08", "material": null}}, {"type": "Feature", "geometry": {"type": "Polygon", "coordinates": [[[-97.7406844, 30.2849308], [-97.7407059, 30.2849327], [-97.7407031, 30.2849563], [-97.7406816, 30.2849543], [-97.7406844, 30.2849308]]]}, "properties": {"osm_id": "way/660344207", "height_m": 15.0, "min_height_m": 10.0, "colour": "#deb887", "roof_colour": "#872e08", "material": null}}, {"type": "Feature", "geometry": {"type": "Polygon", "coordinates": [[[-97.7379878, 30.27985], [-97.7380735, 30.2796192], [-97.7379411, 30.2795825], [-97.7372913, 30.2794026], [-97.7372055, 30.279634], [-97.737565, 30.2797335], [-97.7374533, 30.2800344], [-97.7370899, 30.2799339], [-97.736999, 30.280179], [-97.7375654, 30.2803358], [-97.7376561, 30.2800915], [-97.7376299, 30.2800843], [-97.7376858, 30.2799338], [-97.7377421, 30.2797821], [-97.7377846, 30.2797944], [-97.7378735, 30.2798196], [-97.73798, 30.2798478], [-97.7379878, 30.27985]]]}, "properties": {"osm_id": "way/1063324790", "height_m": 44.8, "min_height_m": 0, "colour": null, "roof_colour": null, "material": null}}, {"type": "Feature", "geometry": {"type": "Polygon", "coordinates": [[[-97.7376561, 30.2800915], [-97.7377388, 30.2801146], [-97.7376804, 30.2802712], [-97.7376592, 30.280328], [-97.7376478, 30.2803585], [-97.736999, 30.280179], [-97.7372913, 30.2794026], [-97.7379411, 30.2795825], [-97.7380735, 30.2796192], [-97.7381612, 30.2796431], [-97.7381308, 30.2797245], [-97.7380748, 30.2798748], [-97.7379878, 30.27985], [-97.73798, 30.2798478], [-97.7378735, 30.2798196], [-97.7377846, 30.2797944], [-97.7377421, 30.2797821], [-97.7376858, 30.2799338], [-97.7376299, 30.2800843], [-97.7376561, 30.2800915]]]}, "properties": {"osm_id": "way/1063324791", "height_m": 19.2, "min_height_m": 0, "colour": null, "roof_colour": null, "material": null}}, {"type": "Feature", "geometry": {"type": "Polygon", "coordinates": [[[-97.7378166, 30.2799705], [-97.7376858, 30.2799338], [-97.7377421, 30.2797821], [-97.7377846, 30.2797944], [-97.7377822, 30.2798034], [-97.7377812, 30.2798124], [-97.7377826, 30.2798234], [-97.7377847, 30.2798341], [-97.7377901, 30.2798537], [-97.7377994, 30.2798733], [-97.7378178, 30.2799095], [-97.7378212, 30.2799262], [-97.7378222, 30.2799428], [-97.7378166, 30.2799705]]]}, "properties": {"osm_id": "way/1063324794", "height_m": 9.6, "min_height_m": 0, "colour": null, "roof_colour": null, "material": null}}, {"type": "Feature", "geometry": {"type": "Polygon", "coordinates": [[[-97.7376295, 30.2791686], [-97.7376052, 30.2792369], [-97.737424, 30.2791875], [-97.7375309, 30.2791441], [-97.7376295, 30.2791686]]]}, "properties": {"osm_id": "way/1113772590", "height_m": 3.2, "min_height_m": 0, "colour": null, "roof_colour": null, "material": "brick"}}, {"type": "Feature", "geometry": {"type": "Polygon", "coordinates": [[[-97.7408926, 30.2894587], [-97.7408291, 30.2894558], [-97.7408313, 30.289419], [-97.7408948, 30.2894219], [-97.7408926, 30.2894587]]]}, "properties": {"osm_id": "way/1430720837", "height_m": 22.17, "min_height_m": 0, "colour": null, "roof_colour": null, "material": null}}, {"type": "Feature", "geometry": {"type": "Polygon", "coordinates": [[[-97.7406435, 30.2894386], [-97.7405817, 30.2894347], [-97.7405845, 30.2894012], [-97.7406463, 30.289405], [-97.7406435, 30.2894386]]]}, "properties": {"osm_id": "way/1430720838", "height_m": 22.17, "min_height_m": 0, "colour": null, "roof_colour": null, "material": null}}, {"type": "Feature", "geometry": {"type": "Polygon", "coordinates": [[[-97.7408092, 30.2894511], [-97.7407505, 30.2894487], [-97.740658, 30.289445], [-97.7406603, 30.2894039], [-97.7408115, 30.2894102], [-97.7408092, 30.2894511]]]}, "properties": {"osm_id": "way/1430720840", "height_m": 23.37, "min_height_m": 0, "colour": null, "roof_colour": null, "material": null}}, {"type": "Feature", "geometry": {"type": "Polygon", "coordinates": [[[-97.7407478, 30.2894976], [-97.7406553, 30.2894938], [-97.740658, 30.289445], [-97.7407505, 30.2894487], [-97.7407478, 30.2894976]]]}, "properties": {"osm_id": "way/1430720841", "height_m": 22.17, "min_height_m": 0, "colour": null, "roof_colour": null, "material": null}}, {"type": "Feature", "geometry": {"type": "Polygon", "coordinates": [[[-97.740913, 30.2896188], [-97.7405255, 30.2895924], [-97.7405358, 30.28948], [-97.7405426, 30.2894059], [-97.7405551, 30.2894067], [-97.7405578, 30.2893761], [-97.7405454, 30.2893752], [-97.7405598, 30.2892173], [-97.7408858, 30.2892395], [-97.7409488, 30.2892438], [-97.7409408, 30.2893304], [-97.7409342, 30.2894027], [-97.7409222, 30.2894019], [-97.7409197, 30.2894292], [-97.7409303, 30.2894299], [-97.740913, 30.2896188]]]}, "properties": {"osm_id": "way/1430721483", "height_m": 20.12, "min_height_m": 0, "colour": null, "roof_colour": null, "material": null}}]}