{"type":"FeatureCollection","features":[{"type":"Feature","geometry":{"type":"Polygon","coordinates":[[[-97.743533,30.283007],[-97.743551,30.282815],[-97.743521,30.282813],[-97.743524,30.282762],[-97.743557,30.282764],[-97.743561,30.282716],[-97.743254,30.282694],[-97.74324,30.282841],[-97.743254,30.282842],[-97.743244,30.282941],[-97.74323,30.28294],[-97.743216,30.283087],[-97.743524,30.28311],[-97.743528,30.283061],[-97.743497,30.283059],[-97.7435,30.283005],[-97.743533,30.283007]]]},"properties":{"b":16.7,"h":17.36,"tf":0.89,"rd":"#72614d","rg":"#917353","rn":"#10121d"}},{"type":"Feature","geometry":{"type":"Polygon","coordinates":[[[-97.743514,30.282989],[-97.743529,30.282831],[-97.7435,30.282829],[-97.743505,30.282744],[-97.743538,30.282746],[-97.74354,30.282732],[-97.743273,30.282713],[-97.743262,30.282825],[-97.743275,30.282826],[-97.743263,30.28296],[-97.743249,30.282959],[-97.743238,30.283071],[-97.743505,30.283091],[-97.743507,30.283077],[-97.743476,30.283075],[-97.743481,30.282987],[-97.743514,30.282989]]]},"properties":{"b":17.36,"h":18.01,"tf":0.89,"rd":"#72614d","rg":"#917353","rn":"#10121d"}},{"type":"Feature","geometry":{"type":"Polygon","coordinates":[[[-97.743496,30.28297],[-97.743508,30.282847],[-97.743478,30.282845],[-97.743486,30.282725],[-97.74352,30.282727],[-97.743518,30.282748],[-97.743291,30.282731],[-97.743283,30.282809],[-97.743297,30.28281],[-97.743281,30.282978],[-97.743267,30.282977],[-97.743259,30.283056],[-97.743487,30.283073],[-97.743485,30.283093],[-97.743455,30.283091],[-97.743461,30.282968],[-97.743496,30.28297]]]},"properties":{"b":18.01,"h":18.67,"tf":0.89,"rd":"#72614d","rg":"#917353","rn":"#10121d"}},{"type":"Feature","geometry":{"type":"Polygon","coordinates":[[[-97.743477,30.282952],[-97.743486,30.282863],[-97.743457,30.282861],[-97.743467,30.282707],[-97.743501,30.282709],[-97.743496,30.282764],[-97.743309,30.28275],[-97.743305,30.282793],[-97.743319,30.282794],[-97.7433,30.282997],[-97.743285,30.282996],[-97.743281,30.28304],[-97.743468,30.283054],[-97.743463,30.283109],[-97.743434,30.283107],[-97.743442,30.282949],[-97.743477,30.282952]]]},"properties":{"b":18.67,"h":19.32,"tf":0.89,"rd":"#72614d","rg":"#917353","rn":"#10121d"}},{"type":"Feature","geometry":{"type":"Polygon","coordinates":[[[-97.743459,30.282933],[-97.743464,30.282879],[-97.743436,30.282877],[-97.743448,30.282688],[-97.743483,30.28269],[-97.743474,30.282779],[-97.743328,30.282769],[-97.743327,30.282778],[-97.74334,30.282779],[-97.743318,30.283016],[-97.743304,30.283015],[-97.743303,30.283024],[-97.74345,30.283035],[-97.743441,30.283125],[-97.743413,30.283124],[-97.743423,30.282931],[-97.743459,30.282933]]]},"properties":{"b":19.32,"h":19.98,"tf":0.89,"rd":"#72614d","rg":"#917353","rn":"#10121d"}},{"type":"Feature","geometry":{"type":"Polygon","coordinates":[[[-97.743441,30.282915],[-97.743442,30.282895],[-97.743415,30.282893],[-97.743429,30.282669],[-97.743465,30.282672],[-97.743453,30.282795],[-97.743346,30.282788],[-97.743349,30.282762],[-97.743362,30.282763],[-97.743337,30.283035],[-97.743322,30.283034],[-97.743325,30.283008],[-97.743432,30.283016],[-97.74342,30.283141],[-97.743392,30.28314],[-97.743404,30.282912],[-97.743441,30.282915]]]},"properties":{"b":19.98,"h":20.63,"tf":0.89,"rd":"#72614d","rg":"#917353","rn":"#10121d"}},{"type":"Feature","geometry":{"type":"Polygon","coordinates":[[[-97.742133,30.284914],[-97.742302,30.284927],[-97.742306,30.284887],[-97.742375,30.284893],[-97.742413,30.284534],[-97.742301,30.284525],[-97.742295,30.284584],[-97.74231,30.284585],[-97.742298,30.284708],[-97.742155,30.284697],[-97.742152,30.284728],[-97.742048,30.28472],[-97.742033,30.284866],[-97.742137,30.284874],[-97.742133,30.284914]]]},"properties":{"b":19.8,"h":20.23,"tf":0.73,"rd":"#726d66","rg":"#917c67","rn":"#0f121e"}},{"type":"Feature","geometry":{"type":"Polygon","coordinates":[[[-97.742147,30.284904],[-97.74229,30.284915],[-97.742294,30.284875],[-97.742363,30.28488],[-97.742398,30.284544],[-97.742313,30.284537],[-97.742309,30.284573],[-97.742325,30.284575],[-97.74231,30.28472],[-97.742167,30.284709],[-97.742164,30.284741],[-97.74206,30.284733],[-97.742048,30.284856],[-97.742151,30.284864],[-97.742147,30.284904]]]},"properties":{"b":20.23,"h":20.66,"tf":0.73,"rd":"#726d66","rg":"#917c67","rn":"#0f121e"}},{"type":"Feature","geometry":{"type":"Polygon","coordinates":[[[-97.742161,30.284893],[-97.742278,30.284902],[-97.742282,30.284863],[-97.742352,30.284868],[-97.742384,30.284554],[-97.742325,30.28455],[-97.742324,30.284563],[-97.742339,30.284564],[-97.742322,30.284733],[-97.742179,30.284722],[-97.742176,30.284753],[-97.742072,30.284745],[-97.742062,30.284846],[-97.742165,30.284854],[-97.742161,30.284893]]]},"properties":{"b":20.66,"h":21.09,"tf":0.73,"rd":"#726d66","rg":"#917c67","rn":"#0f121e"}},{"type":"Feature","geometry":{"type":"Polygon","coordinates":[[[-97.742176,30.284883],[-97.742266,30.28489],[-97.74227,30.28485],[-97.74234,30.284856],[-97.74237,30.284565],[-97.742337,30.284562],[-97.742338,30.284553],[-97.742353,30.284554],[-97.742334,30.284745],[-97.742191,30.284734],[-97.742188,30.284765],[-97.742084,30.284757],[-97.742076,30.284835],[-97.74218,30.284843],[-97.742176,30.284883]]]},"properties":{"b":21.09,"h":21.52,"tf":0.73,"rd":"#726d66","rg":"#917c67","rn":"#0f121e"}},{"type":"Feature","geometry":{"type":"Polygon","coordinates":[[[-97.74219,30.284873],[-97.742254,30.284878],[-97.742258,30.284838],[-97.742328,30.284843],[-97.742355,30.284575],[-97.742349,30.284574],[-97.742352,30.284542],[-97.742368,30.284543],[-97.742346,30.284757],[-97.742203,30.284746],[-97.7422,30.284778],[-97.742096,30.28477],[-97.742091,30.284825],[-97.742194,30.284833],[-97.74219,30.284873]]]},"properties":{"b":21.52,"h":21.95,"tf":0.73,"rd":"#726d66","rg":"#917c67","rn":"#0f121e"}},{"type":"Feature","geometry":{"type":"Polygon","coordinates":[[[-97.742204,30.284862],[-97.742242,30.284865],[-97.742246,30.284825],[-97.742316,30.284831],[-97.742341,30.284585],[-97.742361,30.284587],[-97.742367,30.284532],[-97.742382,30.284533],[-97.742357,30.28477],[-97.742215,30.284759],[-97.742212,30.28479],[-97.742108,30.284782],[-97.742105,30.284815],[-97.742208,30.284823],[-97.742204,30.284862]]]},"properties":{"b":21.95,"h":22.38,"tf":0.73,"rd":"#726d66","rg":"#917c67","rn":"#0f121e"}},{"type":"Feature","geometry":{"type":"Polygon","coordinates":[[[-97.741125,30.28507],[-97.741144,30.284885],[-97.740538,30.284839],[-97.740519,30.285024],[-97.741125,30.28507]]]},"properties":{"b":14.0,"h":14.65,"tf":0.58,"rd":"#872e08","rg":"#a14b1e","rn":"#13101a"}},{"type":"Feature","geometry":{"type":"Polygon","coordinates":[[[-97.741107,30.285051],[-97.741122,30.284901],[-97.740556,30.284858],[-97.740541,30.285008],[-97.741107,30.285051]]]},"properties":{"b":14.65,"h":15.3,"tf":0.58,"rd":"#872e08","rg":"#a14b1e","rn":"#13101a"}},{"type":"Feature","geometry":{"type":"Polygon","coordinates":[[[-97.741089,30.285032],[-97.7411,30.284917],[-97.740575,30.284877],[-97.740563,30.284992],[-97.741089,30.285032]]]},"properties":{"b":15.3,"h":15.95,"tf":0.58,"rd":"#872e08","rg":"#a14b1e","rn":"#13101a"}},{"type":"Feature","geometry":{"type":"Polygon","coordinates":[[[-97.74107,30.285013],[-97.741079,30.284932],[-97.740593,30.284895],[-97.740584,30.284976],[-97.74107,30.285013]]]},"properties":{"b":15.95,"h":16.6,"tf":0.58,"rd":"#872e08","rg":"#a14b1e","rn":"#13101a"}},{"type":"Feature","geometry":{"type":"Polygon","coordinates":[[[-97.741052,30.284995],[-97.741057,30.284948],[-97.740611,30.284914],[-97.740606,30.284961],[-97.741052,30.284995]]]},"properties":{"b":16.6,"h":17.25,"tf":0.58,"rd":"#872e08","rg":"#a14b1e","rn":"#13101a"}},{"type":"Feature","geometry":{"type":"Polygon","coordinates":[[[-97.741034,30.284976],[-97.741035,30.284964],[-97.740629,30.284933],[-97.740628,30.284945],[-97.741034,30.284976]]]},"properties":{"b":17.25,"h":17.9,"tf":0.58,"rd":"#872e08","rg":"#a14b1e","rn":"#13101a"}},{"type":"Feature","geometry":{"type":"Polygon","coordinates":[[[-97.739871,30.284881],[-97.739863,30.284961],[-97.740334,30.284995],[-97.740348,30.284844],[-97.740339,30.284843],[-97.740167,30.284831],[-97.739878,30.28481],[-97.739871,30.284881]]]},"properties":{"b":20.8,"h":21.33,"tf":0.89,"rd":"#8e432b","rg":"#a75b39","rn":"#12101c"}},{"type":"Feature","geometry":{"type":"Polygon","coordinates":[[[-97.739887,30.284882],[-97.73988,30.284948],[-97.740319,30.28498],[-97.740331,30.284857],[-97.740337,30.284857],[-97.740166,30.284845],[-97.739892,30.284825],[-97.739887,30.284882]]]},"properties":{"b":21.33,"h":21.86,"tf":0.89,"rd":"#8e432b","rg":"#a75b39","rn":"#12101c"}},{"type":"Feature","geometry":{"type":"Polygon","coordinates":[[[-97.739903,30.284883],[-97.739898,30.284935],[-97.740304,30.284964],[-97.740313,30.28487],[-97.740336,30.284871],[-97.740165,30.284859],[-97.739907,30.284841],[-97.739903,30.284883]]]},"properties":{"b":21.86,"h":22.39,"tf":0.89,"rd":"#8e432b","rg":"#a75b39","rn":"#12101c"}},{"type":"Feature","geometry":{"type":"Polygon","coordinates":[[[-97.739919,30.284884],[-97.739916,30.284922],[-97.740289,30.284949],[-97.740295,30.284883],[-97.740335,30.284885],[-97.740163,30.284873],[-97.739922,30.284856],[-97.739919,30.284884]]]},"properties":{"b":22.39,"h":22.93,"tf":0.89,"rd":"#8e432b","rg":"#a75b39","rn":"#12101c"}},{"type":"Feature","geometry":{"type":"Polygon","coordinates":[[[-97.739936,30.284886],[-97.739933,30.284909],[-97.740274,30.284934],[-97.740278,30.284896],[-97.740333,30.2849],[-97.740162,30.284887],[-97.739937,30.284871],[-97.739936,30.284886]]]},"properties":{"b":22.93,"h":23.46,"tf":0.89,"rd":"#8e432b","rg":"#a75b39","rn":"#12101c"}},{"type":"Feature","geometry":{"type":"Polygon","coordinates":[[[-97.739952,30.284887],[-97.739951,30.284896],[-97.740259,30.284919],[-97.74026,30.284909],[-97.740332,30.284914],[-97.74016,30.284901],[-97.739952,30.284886],[-97.739952,30.284887]]]},"properties":{"b":23.46,"h":23.99,"tf":0.89,"rd":"#8e432b","rg":"#a75b39","rn":"#12101c"}},{"type":"Feature","geometry":{"type":"Polygon","coordinates":[[[-97.740422,30.284153],[-97.740436,30.28401],[-97.739965,30.283974],[-97.739951,30.284118],[-97.740194,30.284137],[-97.740419,30.284153],[-97.740422,30.284153]]]},"properties":{"b":18.1,"h":18.61,"tf":0.87,"rd":"#8c422a","rg":"#a55b38","rn":"#12101c"}},{"type":"Feature","geometry":{"type":"Polygon","coordinates":[[[-97.740407,30.284139],[-97.740419,30.284022],[-97.73998,30.283988],[-97.739968,30.284106],[-97.740195,30.284123],[-97.74042,30.28414],[-97.740407,30.284139]]]},"properties":{"b":18.61,"h":19.12,"tf":0.87,"rd":"#8c422a","rg":"#a55b38","rn":"#12101c"}},{"type":"Feature","geometry":{"type":"Polygon","coordinates":[[[-97.740393,30.284124],[-97.740402,30.284034],[-97.739994,30.284003],[-97.739985,30.284093],[-97.740197,30.28411],[-97.740421,30.284126],[-97.740393,30.284124]]]},"properties":{"b":19.12,"h":19.63,"tf":0.87,"rd":"#8c422a","rg":"#a55b38","rn":"#12101c"}},{"type":"Feature","geometry":{"type":"Polygon","coordinates":[[[-97.740379,30.284109],[-97.740386,30.284047],[-97.740008,30.284018],[-97.740001,30.284081],[-97.740198,30.284096],[-97.740423,30.284113],[-97.740379,30.284109]]]},"properties":{"b":19.63,"h":20.13,"tf":0.87,"rd":"#8c422a","rg":"#a55b38","rn":"#12101c"}},{"type":"Feature","geometry":{"type":"Polygon","coordinates":[[[-97.740365,30.284095],[-97.740369,30.284059],[-97.740022,30.284032],[-97.740018,30.284069],[-97.740199,30.284083],[-97.740424,30.284099],[-97.740365,30.284095]]]},"properties":{"b":20.13,"h":20.64,"tf":0.87,"rd":"#8c422a","rg":"#a55b38","rn":"#12101c"}},{"type":"Feature","geometry":{"type":"Polygon","coordinates":[[[-97.740351,30.28408],[-97.740352,30.284071],[-97.740036,30.284047],[-97.740035,30.284057],[-97.740201,30.284069],[-97.740425,30.284086],[-97.740351,30.28408]]]},"properties":{"b":20.64,"h":21.15,"tf":0.87,"rd":"#8c422a","rg":"#a55b38","rn":"#12101c"}},{"type":"Feature","geometry":{"type":"Polygon","coordinates":[[[-97.738776,30.284047],[-97.738752,30.284293],[-97.73874,30.284292],[-97.738732,30.284369],[-97.738725,30.284441],[-97.738738,30.284441],[-97.738718,30.284649],[-97.738714,30.284688],[-97.738898,30.284701],[-97.738922,30.284455],[-97.739188,30.284474],[-97.739203,30.284326],[-97.738897,30.284304],[-97.738921,30.284057],[-97.738776,30.284047]]]},"properties":{"b":21.5,"h":22.01,"tf":0.89,"rd":"#ae5b3f","rg":"#c06e48","rn":"#16131e"}},{"type":"Feature","geometry":{"type":"Polygon","coordinates":[[[-97.73879,30.284061],[-97.738766,30.284308],[-97.738754,30.284307],[-97.738748,30.28437],[-97.738742,30.284428],[-97.738755,30.284429],[-97.738733,30.28465],[-97.738731,30.284676],[-97.738884,30.284686],[-97.738907,30.28444],[-97.739174,30.284459],[-97.739186,30.284338],[-97.73888,30.284316],[-97.738904,30.284069],[-97.73879,30.284061]]]},"properties":{"b":22.01,"h":22.52,"tf":0.89,"rd":"#ae5b3f","rg":"#c06e48","rn":"#16131e"}},{"type":"Feature","geometry":{"type":"Polygon","coordinates":[[[-97.738805,30.284076],[-97.738781,30.284323],[-97.738768,30.284322],[-97.738764,30.284372],[-97.738759,30.284416],[-97.738772,30.284417],[-97.738749,30.284651],[-97.738748,30.284664],[-97.738869,30.284672],[-97.738893,30.284426],[-97.73916,30.284445],[-97.739169,30.284351],[-97.738863,30.284328],[-97.738887,30.284081],[-97.738805,30.284076]]]},"properties":{"b":22.52,"h":23.03,"tf":0.89,"rd":"#ae5b3f","rg":"#c06e48","rn":"#16131e"}},{"type":"Feature","geometry":{"type":"Polygon","coordinates":[[[-97.738819,30.28409],[-97.738795,30.284337],[-97.738783,30.284336],[-97.738779,30.284373],[-97.738776,30.284404],[-97.738789,30.284405],[-97.738765,30.284652],[-97.738765,30.284651],[-97.738855,30.284657],[-97.738879,30.284411],[-97.739145,30.28443],[-97.739152,30.284363],[-97.738846,30.284341],[-97.73887,30.284094],[-97.738819,30.28409]]]},"properties":{"b":23.03,"h":23.53,"tf":0.89,"rd":"#ae5b3f","rg":"#c06e48","rn":"#16131e"}},{"type":"Feature","geometry":{"type":"Polygon","coordinates":[[[-97.738833,30.284105],[-97.738809,30.284352],[-97.738797,30.284351],[-97.738795,30.284374],[-97.738793,30.284391],[-97.738805,30.284392],[-97.73878,30.284653],[-97.738782,30.284639],[-97.738841,30.284643],[-97.738865,30.284396],[-97.739131,30.284416],[-97.739135,30.284375],[-97.738829,30.284353],[-97.738853,30.284106],[-97.738833,30.284105]]]},"properties":{"b":23.53,"h":24.04,"tf":0.89,"rd":"#ae5b3f","rg":"#c06e48","rn":"#16131e"}},{"type":"Feature","geometry":{"type":"Polygon","coordinates":[[[-97.738847,30.284119],[-97.738823,30.284366],[-97.738811,30.284365],[-97.73881,30.284375],[-97.73881,30.284379],[-97.738822,30.28438],[-97.738796,30.284654],[-97.738798,30.284626],[-97.738826,30.284628],[-97.73885,30.284382],[-97.739117,30.284401],[-97.739118,30.284388],[-97.738813,30.284365],[-97.738837,30.284118],[-97.738847,30.284119]]]},"properties":{"b":24.04,"h":24.55,"tf":0.89,"rd":"#ae5b3f","rg":"#c06e48","rn":"#16131e"}},{"type":"Feature","geometry":{"type":"Polygon","coordinates":[[[-97.738911,30.284729],[-97.738696,30.284714],[-97.738696,30.284714],[-97.738682,30.284862],[-97.739146,30.284896],[-97.73916,30.284747],[-97.738911,30.284729]]]},"properties":{"b":21.5,"h":22.02,"tf":0.9,"rd":"#82432e","rg":"#9e5b3b","rn":"#11111c"}},{"type":"Feature","geometry":{"type":"Polygon","coordinates":[[[-97.738909,30.284743],[-97.738694,30.284728],[-97.738711,30.284729],[-97.738699,30.284849],[-97.739131,30.284881],[-97.739143,30.28476],[-97.738909,30.284743]]]},"properties":{"b":22.02,"h":22.55,"tf":0.9,"rd":"#82432e","rg":"#9e5b3b","rn":"#11111c"}},{"type":"Feature","geometry":{"type":"Polygon","coordinates":[[[-97.738908,30.284757],[-97.738693,30.284742],[-97.738726,30.284744],[-97.738717,30.284837],[-97.739117,30.284866],[-97.739126,30.284773],[-97.738908,30.284757]]]},"properties":{"b":22.55,"h":23.07,"tf":0.9,"rd":"#82432e","rg":"#9e5b3b","rn":"#11111c"}},{"type":"Feature","geometry":{"type":"Polygon","coordinates":[[[-97.738907,30.284771],[-97.738692,30.284756],[-97.73874,30.284759],[-97.738734,30.284824],[-97.739102,30.284851],[-97.739108,30.284785],[-97.738907,30.284771]]]},"properties":{"b":23.07,"h":23.59,"tf":0.9,"rd":"#82432e","rg":"#9e5b3b","rn":"#11111c"}},{"type":"Feature","geometry":{"type":"Polygon","coordinates":[[[-97.738906,30.284785],[-97.738691,30.28477],[-97.738755,30.284774],[-97.738751,30.284811],[-97.739087,30.284836],[-97.739091,30.284798],[-97.738906,30.284785]]]},"properties":{"b":23.59,"h":24.12,"tf":0.9,"rd":"#82432e","rg":"#9e5b3b","rn":"#11111c"}},{"type":"Feature","geometry":{"type":"Polygon","coordinates":[[[-97.738904,30.284798],[-97.738689,30.284784],[-97.73877,30.284789],[-97.738769,30.284799],[-97.739073,30.284821],[-97.739074,30.284811],[-97.738904,30.284798]]]},"properties":{"b":24.12,"h":24.64,"tf":0.9,"rd":"#82432e","rg":"#9e5b3b","rn":"#11111c"}},{"type":"Feature","geometry":{"type":"Polygon","coordinates":[[[-97.738939,30.28403],[-97.73923,30.284052],[-97.739244,30.283902],[-97.739133,30.283894],[-97.739014,30.283886],[-97.738784,30.283869],[-97.738769,30.284019],[-97.738763,30.284018],[-97.738939,30.28403]]]},"properties":{"b":21.0,"h":21.53,"tf":0.86,"rd":"#9a5037","rg":"#b06642","rn":"#11111c"}},{"type":"Feature","geometry":{"type":"Polygon","coordinates":[[[-97.73894,30.284017],[-97.739215,30.284036],[-97.739227,30.283915],[-97.739132,30.283908],[-97.739013,30.2839],[-97.738799,30.283884],[-97.738787,30.284006],[-97.738764,30.284004],[-97.73894,30.284017]]]},"properties":{"b":21.53,"h":22.05,"tf":0.86,"rd":"#9a5037","rg":"#b06642","rn":"#11111c"}},{"type":"Feature","geometry":{"type":"Polygon","coordinates":[[[-97.738942,30.284003],[-97.7392,30.284021],[-97.739209,30.283928],[-97.73913,30.283922],[-97.739012,30.283914],[-97.738813,30.283899],[-97.738804,30.283993],[-97.738766,30.28399],[-97.738942,30.284003]]]},"properties":{"b":22.05,"h":22.58,"tf":0.86,"rd":"#9a5037","rg":"#b06642","rn":"#11111c"}},{"type":"Feature","geometry":{"type":"Polygon","coordinates":[[[-97.738943,30.283989],[-97.739186,30.284006],[-97.739192,30.283941],[-97.739129,30.283936],[-97.73901,30.283928],[-97.738828,30.283914],[-97.738822,30.28398],[-97.738767,30.283976],[-97.738943,30.283989]]]},"properties":{"b":22.58,"h":23.1,"tf":0.86,"rd":"#9a5037","rg":"#b06642","rn":"#11111c"}},{"type":"Feature","geometry":{"type":"Polygon","coordinates":[[[-97.738944,30.283975],[-97.739171,30.283991],[-97.739174,30.283953],[-97.739128,30.28395],[-97.739009,30.283941],[-97.738843,30.283929],[-97.738839,30.283968],[-97.738768,30.283962],[-97.738944,30.283975]]]},"properties":{"b":23.1,"h":23.63,"tf":0.86,"rd":"#9a5037","rg":"#b06642","rn":"#11111c"}},{"type":"Feature","geometry":{"type":"Polygon","coordinates":[[[-97.738946,30.283961],[-97.739156,30.283976],[-97.739157,30.283966],[-97.739126,30.283964],[-97.739007,30.283955],[-97.738858,30.283944],[-97.738857,30.283955],[-97.73877,30.283949],[-97.738946,30.283961]]]},"properties":{"b":23.63,"h":24.16,"tf":0.86,"rd":"#9a5037","rg":"#b06642","rn":"#11111c"}},{"type":"Feature","geometry":{"type":"Polygon","coordinates":[[[-97.745595,30.2855],[-97.745582,30.2855],[-97.745568,30.285706],[-97.74564,30.28571],[-97.745642,30.285681],[-97.745783,30.285688],[-97.745781,30.28572],[-97.745862,30.285724],[-97.745875,30.285522],[-97.745864,30.285521],[-97.745863,30.285492],[-97.745801,30.285488],[-97.745786,30.285472],[-97.745771,30.285472],[-97.745761,30.285486],[-97.745758,30.285486],[-97.745755,30.285529],[-97.745794,30.285531],[-97.745789,30.285601],[-97.745654,30.285594],[-97.745659,30.285521],[-97.745696,30.285523],[-97.745699,30.285481],[-97.745693,30.285481],[-97.745681,30.285464],[-97.745662,30.285463],[-97.74565,30.285474],[-97.745597,30.285472],[-97.745595,30.2855]]]},"properties":{"b":16.1,"h":16.35,"tf":0.64,"rd":"#717a67","rg":"#908668","rn":"#10131f"}},{"type":"Feature","geometry":{"type":"Polygon","coordinates":[[[-97.745602,30.285506],[-97.745589,30.285506],[-97.745576,30.2857],[-97.745633,30.285703],[-97.745635,30.285674],[-97.745791,30.285682],[-97.745789,30.285714],[-97.745855,30.285717],[-97.745867,30.285528],[-97.745857,30.285527],[-97.745856,30.285498],[-97.745797,30.285495],[-97.745782,30.285479],[-97.745775,30.285479],[-97.745765,30.285492],[-97.745765,30.285492],[-97.745763,30.285523],[-97.745802,30.285525],[-97.745796,30.285608],[-97.745646,30.2856],[-97.745652,30.285514],[-97.745689,30.285516],[-97.745691,30.285487],[-97.745689,30.285487],[-97.745677,30.285471],[-97.745665,30.28547],[-97.745653,30.28548],[-97.745604,30.285479],[-97.745602,30.285506]]]},"properties":{"b":16.35,"h":16.6,"tf":0.64,"rd":"#717a67","rg":"#908668","rn":"#10131f"}},{"type":"Feature","geometry":{"type":"Polygon","coordinates":[[[-97.745609,30.285513],[-97.745596,30.285513],[-97.745584,30.285694],[-97.745626,30.285696],[-97.745628,30.285667],[-97.745799,30.285675],[-97.745797,30.285707],[-97.745848,30.28571],[-97.745859,30.285534],[-97.745849,30.285533],[-97.745848,30.285504],[-97.745793,30.285501],[-97.745778,30.285485],[-97.745779,30.285485],[-97.745769,30.285499],[-97.745772,30.285499],[-97.745771,30.285516],[-97.74581,30.285518],[-97.745803,30.285615],[-97.745638,30.285607],[-97.745645,30.285507],[-97.745682,30.285509],[-97.745683,30.285494],[-97.745685,30.285494],[-97.745672,30.285477],[-97.745668,30.285477],[-97.745656,30.285487],[-97.745611,30.285486],[-97.745609,30.285513]]]},"properties":{"b":16.6,"h":16.85,"tf":0.64,"rd":"#717a67","rg":"#908668","rn":"#10131f"}},{"type":"Feature","geometry":{"type":"Polygon","coordinates":[[[-97.745616,30.285519],[-97.745603,30.285519],[-97.745592,30.285687],[-97.745619,30.285689],[-97.745621,30.28566],[-97.745807,30.285669],[-97.745805,30.285701],[-97.745841,30.285703],[-97.745851,30.28554],[-97.745842,30.285539],[-97.745841,30.285511],[-97.745789,30.285507],[-97.745774,30.285492],[-97.745783,30.285492],[-97.745773,30.285505],[-97.745779,30.285505],[-97.745779,30.28551],[-97.745818,30.285512],[-97.74581,30.285622],[-97.74563,30.285613],[-97.745638,30.2855],[-97.745675,30.285502],[-97.745675,30.2855],[-97.745681,30.2855],[-97.745668,30.285483],[-97.745671,30.285483],[-97.745659,30.285494],[-97.745618,30.285492],[-97.745616,30.285519]]]},"properties":{"b":16.85,"h":17.09,"tf":0.64,"rd":"#717a67","rg":"#908668","rn":"#10131f"}},{"type":"Feature","geometry":{"type":"Polygon","coordinates":[[[-97.745623,30.285526],[-97.74561,30.285526],[-97.7456,30.285681],[-97.745612,30.285682],[-97.745614,30.285653],[-97.745815,30.285663],[-97.745813,30.285695],[-97.745834,30.285696],[-97.745843,30.285546],[-97.745834,30.285545],[-97.745833,30.285517],[-97.745785,30.285514],[-97.745771,30.285498],[-97.745787,30.285499],[-97.745777,30.285512],[-97.745786,30.285512],[-97.745787,30.285504],[-97.745826,30.285506],[-97.745817,30.285629],[-97.745622,30.285619],[-97.745631,30.285493],[-97.745668,30.285495],[-97.745667,30.285507],[-97.745677,30.285507],[-97.745664,30.285489],[-97.745674,30.28549],[-97.745662,30.285501],[-97.745625,30.285499],[-97.745623,30.285526]]]},"properties":{"b":17.09,"h":17.34,"tf":0.64,"rd":"#717a67","rg":"#908668","rn":"#10131f"}},{"type":"Feature","geometry":{"type":"Polygon","coordinates":[[[-97.745631,30.285533],[-97.745618,30.285533],[-97.745608,30.285675],[-97.745605,30.285675],[-97.745607,30.285646],[-97.745823,30.285657],[-97.745821,30.285689],[-97.745826,30.285689],[-97.745835,30.285552],[-97.745827,30.285551],[-97.745826,30.285523],[-97.745781,30.28552],[-97.745767,30.285505],[-97.745791,30.285506],[-97.745781,30.285519],[-97.745794,30.285519],[-97.745795,30.285498],[-97.745834,30.2855],[-97.745824,30.285636],[-97.745614,30.285625],[-97.745623,30.285486],[-97.745661,30.285488],[-97.745659,30.285514],[-97.745673,30.285514],[-97.745659,30.285496],[-97.745677,30.285497],[-97.745666,30.285507],[-97.745632,30.285506],[-97.745631,30.285533]]]},"properties":{"b":17.34,"h":17.59,"tf":0.64,"rd":"#717a67","rg":"#908668","rn":"#10131f"}},{"type":"Feature","geometry":{"type":"Polygon","coordinates":[[[-97.745406,30.28504],[-97.745405,30.285052],[-97.745339,30.285047],[-97.74534,30.285039],[-97.745408,30.285044],[-97.745408,30.285049],[-97.745364,30.285046],[-97.745368,30.285004],[-97.745348,30.285003],[-97.745348,30.284995],[-97.745413,30.284999],[-97.745412,30.28501],[-97.7453,30.285003],[-97.745298,30.285033],[-97.745406,30.28504]]]},"properties":{"b":14.1,"h":14.93,"tf":0.76,"rd":"#636b5b","rg":"#857b5e","rn":"#0f121e"}},{"type":"Feature","geometry":{"type":"Polygon","coordinates":[[[-97.742402,30.285427],[-97.742376,30.285797],[-97.742704,30.28582],[-97.742715,30.285707],[-97.74271,30.285707],[-97.742711,30.285677],[-97.742573,30.285666],[-97.742569,30.285694],[-97.742528,30.285692],[-97.742551,30.285461],[-97.742491,30.285455],[-97.7425,30.285368],[-97.74276,30.285387],[-97.742777,30.285206],[-97.742742,30.285203],[-97.742739,30.285234],[-97.742424,30.28521],[-97.742408,30.285358],[-97.742418,30.285358],[-97.742411,30.285427],[-97.742402,30.285427]]]},"properties":{"b":19.8,"h":20.2,"tf":0.85,"rd":"#757178","rg":"#937f75","rn":"#121421"}},{"type":"Feature","geometry":{"type":"Polygon","coordinates":[[[-97.742414,30.285437],[-97.742389,30.285788],[-97.742693,30.285808],[-97.742701,30.285717],[-97.742698,30.285717],[-97.742699,30.285686],[-97.742583,30.285678],[-97.742579,30.285705],[-97.742515,30.285702],[-97.742538,30.28547],[-97.742477,30.285465],[-97.742489,30.285356],[-97.742749,30.285375],[-97.742764,30.285215],[-97.742753,30.285215],[-97.74275,30.285246],[-97.742435,30.285222],[-97.742422,30.285348],[-97.742432,30.285348],[-97.742422,30.285437],[-97.742414,30.285437]]]},"properties":{"b":20.2,"h":20.6,"tf":0.85,"rd":"#757178","rg":"#937f75","rn":"#121421"}},{"type":"Feature","geometry":{"type":"Polygon","coordinates":[[[-97.742425,30.285448],[-97.742402,30.285778],[-97.742681,30.285797],[-97.742688,30.285728],[-97.742685,30.285728],[-97.742686,30.285696],[-97.742594,30.285689],[-97.74259,30.285717],[-97.742501,30.285711],[-97.742524,30.28548],[-97.742464,30.285474],[-97.742478,30.285345],[-97.742737,30.285364],[-97.74275,30.285225],[-97.742765,30.285226],[-97.742761,30.285257],[-97.742446,30.285233],[-97.742435,30.285337],[-97.742445,30.285337],[-97.742433,30.285448],[-97.742425,30.285448]]]},"properties":{"b":20.6,"h":20.99,"tf":0.85,"rd":"#757178","rg":"#937f75","rn":"#121421"}},{"type":"Feature","geometry":{"type":"Polygon","coordinates":[[[-97.742437,30.285458],[-97.742415,30.285768],[-97.74267,30.285786],[-97.742675,30.285738],[-97.742673,30.285738],[-97.742674,30.285706],[-97.742605,30.285701],[-97.742601,30.285728],[-97.742488,30.285721],[-97.742511,30.285489],[-97.742451,30.285484],[-97.742467,30.285333],[-97.742726,30.285352],[-97.742737,30.285235],[-97.742776,30.285237],[-97.742773,30.285269],[-97.742457,30.285245],[-97.742449,30.285327],[-97.742459,30.285327],[-97.742445,30.285458],[-97.742437,30.285458]]]},"properties":{"b":20.99,"h":21.39,"tf":0.85,"rd":"#757178","rg":"#937f75","rn":"#121421"}},{"type":"Feature","geometry":{"type":"Polygon","coordinates":[[[-97.742448,30.285469],[-97.742428,30.285758],[-97.742659,30.285774],[-97.742662,30.285749],[-97.74266,30.285749],[-97.742661,30.285715],[-97.742615,30.285712],[-97.742612,30.285739],[-97.742475,30.285731],[-97.742498,30.285499],[-97.742438,30.285493],[-97.742456,30.285322],[-97.742715,30.285341],[-97.742724,30.285244],[-97.742787,30.285249],[-97.742784,30.28528],[-97.742468,30.285256],[-97.742462,30.285316],[-97.742472,30.285316],[-97.742456,30.285469],[-97.742448,30.285469]]]},"properties":{"b":21.39,"h":21.79,"tf":0.85,"rd":"#757178","rg":"#937f75","rn":"#121421"}},{"type":"Feature","geometry":{"type":"Polygon","coordinates":[[[-97.74246,30.285479],[-97.742441,30.285749],[-97.742648,30.285763],[-97.742648,30.285759],[-97.742647,30.285759],[-97.742649,30.285725],[-97.742626,30.285723],[-97.742622,30.28575],[-97.742462,30.285741],[-97.742485,30.285508],[-97.742424,30.285503],[-97.742445,30.285311],[-97.742704,30.28533],[-97.742711,30.285254],[-97.742798,30.28526],[-97.742795,30.285292],[-97.742479,30.285268],[-97.742475,30.285306],[-97.742485,30.285306],[-97.742467,30.285479],[-97.74246,30.285479]]]},"properties":{"b":21.79,"h":22.19,"tf":0.85,"rd":"#757178","rg":"#937f75","rn":"#121421"}},{"type":"Feature","geometry":{"type":"Polygon","coordinates":[[[-97.741319,30.285262],[-97.740975,30.285236],[-97.740978,30.285213],[-97.740925,30.28521],[-97.740884,30.285615],[-97.741239,30.285642],[-97.741237,30.28567],[-97.741322,30.285676],[-97.741325,30.285651],[-97.741372,30.285654],[-97.741404,30.285343],[-97.741389,30.285342],[-97.741408,30.285153],[-97.741331,30.285147],[-97.741319,30.285262]]]},"properties":{"b":12.5,"h":13.32,"tf":0.56,"rd":"#99492e","rg":"#af603b","rn":"#12101c"}},{"type":"Feature","geometry":{"type":"Polygon","coordinates":[[[-97.741342,30.285285],[-97.740948,30.285256],[-97.74095,30.285233],[-97.740948,30.285233],[-97.740911,30.285595],[-97.741267,30.285622],[-97.741264,30.28565],[-97.741299,30.285652],[-97.741302,30.285627],[-97.741349,30.285631],[-97.741376,30.285363],[-97.741362,30.285362],[-97.741381,30.285173],[-97.741354,30.285171],[-97.741342,30.285285]]]},"properties":{"b":13.32,"h":14.15,"tf":0.56,"rd":"#99492e","rg":"#af603b","rn":"#12101c"}},{"type":"Feature","geometry":{"type":"Polygon","coordinates":[[[-97.741365,30.285309],[-97.74092,30.285276],[-97.740923,30.285253],[-97.740971,30.285257],[-97.740939,30.285576],[-97.741294,30.285602],[-97.741291,30.28563],[-97.741276,30.285629],[-97.741279,30.285603],[-97.741326,30.285607],[-97.741349,30.285383],[-97.741334,30.285382],[-97.741353,30.285193],[-97.741377,30.285195],[-97.741365,30.285309]]]},"properties":{"b":14.15,"h":14.97,"tf":0.56,"rd":"#99492e","rg":"#af603b","rn":"#12101c"}},{"type":"Feature","geometry":{"type":"Polygon","coordinates":[[[-97.741388,30.285333],[-97.740893,30.285296],[-97.740895,30.285273],[-97.740994,30.28528],[-97.740966,30.285556],[-97.741322,30.285582],[-97.741319,30.28561],[-97.741253,30.285605],[-97.741256,30.28558],[-97.741303,30.285583],[-97.741322,30.285403],[-97.741307,30.285402],[-97.741326,30.285213],[-97.7414,30.285218],[-97.741388,30.285333]]]},"properties":{"b":14.97,"h":15.79,"tf":0.56,"rd":"#99492e","rg":"#af603b","rn":"#12101c"}},{"type":"Feature","geometry":{"type":"Polygon","coordinates":[[[-97.741411,30.285356],[-97.740866,30.285315],[-97.740868,30.285293],[-97.741017,30.285304],[-97.740994,30.285536],[-97.741349,30.285563],[-97.741346,30.28559],[-97.74123,30.285582],[-97.741233,30.285556],[-97.74128,30.28556],[-97.741294,30.285423],[-97.74128,30.285422],[-97.741299,30.285233],[-97.741423,30.285242],[-97.741411,30.285356]]]},"properties":{"b":15.79,"h":16.61,"tf":0.56,"rd":"#99492e","rg":"#af603b","rn":"#12101c"}},{"type":"Feature","geometry":{"type":"Polygon","coordinates":[[[-97.741434,30.28538],[-97.740838,30.285335],[-97.740841,30.285313],[-97.74104,30.285328],[-97.741021,30.285516],[-97.741376,30.285543],[-97.741374,30.28557],[-97.741207,30.285558],[-97.74121,30.285533],[-97.741257,30.285536],[-97.741267,30.285443],[-97.741252,30.285442],[-97.741271,30.285252],[-97.741446,30.285265],[-97.741434,30.28538]]]},"properties":{"b":16.61,"h":17.44,"tf":0.56,"rd":"#99492e","rg":"#af603b","rn":"#12101c"}},{"type":"Feature","geometry":{"type":"Polygon","coordinates":[[[-97.740559,30.285253],[-97.740553,30.285308],[-97.740529,30.285551],[-97.740523,30.285604],[-97.740698,30.285617],[-97.740733,30.285266],[-97.740559,30.285253]]]},"properties":{"b":23.2,"h":23.73,"tf":0.78,"rd":"#77756e","rg":"#95826d","rn":"#111420"}},{"type":"Feature","geometry":{"type":"Polygon","coordinates":[[[-97.740573,30.285269],[-97.740569,30.285309],[-97.740545,30.285553],[-97.740541,30.285591],[-97.740683,30.285602],[-97.740716,30.285279],[-97.740573,30.285269]]]},"properties":{"b":23.73,"h":24.26,"tf":0.78,"rd":"#77756e","rg":"#95826d","rn":"#111420"}},{"type":"Feature","geometry":{"type":"Polygon","coordinates":[[[-97.740588,30.285284],[-97.740586,30.285311],[-97.740561,30.285554],[-97.740559,30.285578],[-97.740668,30.285586],[-97.740698,30.285292],[-97.740588,30.285284]]]},"properties":{"b":24.26,"h":24.8,"tf":0.78,"rd":"#77756e","rg":"#95826d","rn":"#111420"}},{"type":"Feature","geometry":{"type":"Polygon","coordinates":[[[-97.740603,30.285299],[-97.740602,30.285312],[-97.740578,30.285555],[-97.740577,30.285565],[-97.740654,30.285571],[-97.74068,30.285305],[-97.740603,30.285299]]]},"properties":{"b":24.8,"h":25.33,"tf":0.78,"rd":"#77756e","rg":"#95826d","rn":"#111420"}},{"type":"Feature","geometry":{"type":"Polygon","coordinates":[[[-97.740618,30.285315],[-97.740618,30.285313],[-97.740594,30.285556],[-97.740594,30.285552],[-97.740639,30.285556],[-97.740663,30.285318],[-97.740618,30.285315]]]},"properties":{"b":25.33,"h":25.86,"tf":0.78,"rd":"#77756e","rg":"#95826d","rn":"#111420"}},{"type":"Feature","geometry":{"type":"Polygon","coordinates":[[[-97.740633,30.28533],[-97.740635,30.285314],[-97.74061,30.285557],[-97.740612,30.28554],[-97.740624,30.28554],[-97.740645,30.285331],[-97.740633,30.28533]]]},"properties":{"b":25.86,"h":26.39,"tf":0.78,"rd":"#77756e","rg":"#95826d","rn":"#111420"}},{"type":"Feature","geometry":{"type":"Polygon","coordinates":[[[-97.740341,30.285521],[-97.740495,30.285533],[-97.740517,30.285322],[-97.740361,30.28531],[-97.740368,30.28524],[-97.740204,30.285228],[-97.740169,30.285581],[-97.740334,30.285593],[-97.740341,30.285521]]]},"properties":{"b":22.5,"h":23.11,"tf":0.72,"rd":"#9c4a2f","rg":"#b2613c","rn":"#12101c"}},{"type":"Feature","geometry":{"type":"Polygon","coordinates":[[[-97.740325,30.285504],[-97.740479,30.285515],[-97.740497,30.285336],[-97.740341,30.285324],[-97.740348,30.285254],[-97.740221,30.285245],[-97.740189,30.285566],[-97.740317,30.285576],[-97.740325,30.285504]]]},"properties":{"b":23.11,"h":23.71,"tf":0.72,"rd":"#9c4a2f","rg":"#b2613c","rn":"#12101c"}},{"type":"Feature","geometry":{"type":"Polygon","coordinates":[[[-97.740308,30.285486],[-97.740462,30.285498],[-97.740476,30.285351],[-97.740321,30.285339],[-97.740328,30.285269],[-97.740238,30.285262],[-97.740209,30.285552],[-97.7403,30.285559],[-97.740308,30.285486]]]},"properties":{"b":23.71,"h":24.32,"tf":0.72,"rd":"#9c4a2f","rg":"#b2613c","rn":"#12101c"}},{"type":"Feature","geometry":{"type":"Polygon","coordinates":[[[-97.740291,30.285469],[-97.740445,30.285481],[-97.740456,30.285365],[-97.740301,30.285354],[-97.740308,30.285284],[-97.740255,30.28528],[-97.740229,30.285537],[-97.740283,30.285541],[-97.740291,30.285469]]]},"properties":{"b":24.32,"h":24.92,"tf":0.72,"rd":"#9c4a2f","rg":"#b2613c","rn":"#12101c"}},{"type":"Feature","geometry":{"type":"Polygon","coordinates":[[[-97.740274,30.285452],[-97.740428,30.285463],[-97.740436,30.28538],[-97.74028,30.285368],[-97.740288,30.285298],[-97.740272,30.285297],[-97.740249,30.285522],[-97.740266,30.285524],[-97.740274,30.285452]]]},"properties":{"b":24.92,"h":25.53,"tf":0.72,"rd":"#9c4a2f","rg":"#b2613c","rn":"#12101c"}},{"type":"Feature","geometry":{"type":"Polygon","coordinates":[[[-97.740257,30.285434],[-97.740411,30.285446],[-97.740416,30.285395],[-97.74026,30.285383],[-97.740267,30.285313],[-97.740289,30.285315],[-97.740269,30.285508],[-97.74025,30.285506],[-97.740257,30.285434]]]},"properties":{"b":25.53,"h":26.14,"tf":0.72,"rd":"#9c4a2f","rg":"#b2613c","rn":"#12101c"}},{"type":"Feature","geometry":{"type":"Polygon","coordinates":[[[-97.739451,30.287286],[-97.740055,30.287331],[-97.740073,30.287151],[-97.739469,30.287106],[-97.739451,30.287286]]]},"properties":{"b":15.6,"h":16.24,"tf":0.94,"rd":"#a44e31","rg":"#b8643e","rn":"#12101c"}},{"type":"Feature","geometry":{"type":"Polygon","coordinates":[[[-97.739472,30.28727],[-97.740037,30.287312],[-97.740052,30.287166],[-97.739487,30.287124],[-97.739472,30.28727]]]},"properties":{"b":16.24,"h":16.87,"tf":0.94,"rd":"#a44e31","rg":"#b8643e","rn":"#12101c"}},{"type":"Feature","geometry":{"type":"Polygon","coordinates":[[[-97.739493,30.287255],[-97.740019,30.287294],[-97.740031,30.287181],[-97.739505,30.287142],[-97.739493,30.287255]]]},"properties":{"b":16.87,"h":17.51,"tf":0.94,"rd":"#a44e31","rg":"#b8643e","rn":"#12101c"}},{"type":"Feature","geometry":{"type":"Polygon","coordinates":[[[-97.739515,30.28724],[-97.740002,30.287276],[-97.74001,30.287197],[-97.739522,30.28716],[-97.739515,30.28724]]]},"properties":{"b":17.51,"h":18.14,"tf":0.94,"rd":"#a44e31","rg":"#b8643e","rn":"#12101c"}},{"type":"Feature","geometry":{"type":"Polygon","coordinates":[[[-97.739536,30.287224],[-97.739984,30.287258],[-97.739988,30.287212],[-97.73954,30.287179],[-97.739536,30.287224]]]},"properties":{"b":18.14,"h":18.78,"tf":0.94,"rd":"#a44e31","rg":"#b8643e","rn":"#12101c"}},{"type":"Feature","geometry":{"type":"Polygon","coordinates":[[[-97.739557,30.287209],[-97.739966,30.287239],[-97.739967,30.287227],[-97.739558,30.287197],[-97.739557,30.287209]]]},"properties":{"b":18.78,"h":19.41,"tf":0.94,"rd":"#a44e31","rg":"#b8643e","rn":"#12101c"}},{"type":"Feature","geometry":{"type":"Polygon","coordinates":[[[-97.740318,30.287539],[-97.740291,30.287537],[-97.740283,30.287619],[-97.740365,30.287624],[-97.740373,30.287543],[-97.740318,30.287539]]]},"properties":{"b":9.0,"h":9.83,"tf":0.77,"rd":"#6c4d33","rg":"#8c633f","rn":"#10111c"}},{"type":"Feature","geometry":{"type":"Polygon","coordinates":[[[-97.740323,30.287482],[-97.740231,30.287476],[-97.740212,30.287671],[-97.740425,30.287685],[-97.740443,30.287491],[-97.740323,30.287482]]]},"properties":{"b":9.83,"h":10.67,"tf":0.77,"rd":"#6c4d33","rg":"#8c633f","rn":"#10111c"}},{"type":"Feature","geometry":{"type":"Polygon","coordinates":[[[-97.740328,30.287426],[-97.74017,30.287415],[-97.740142,30.287723],[-97.740485,30.287746],[-97.740514,30.287438],[-97.740328,30.287426]]]},"properties":{"b":10.67,"h":11.5,"tf":0.77,"rd":"#6c4d33","rg":"#8c633f","rn":"#10111c"}},{"type":"Feature","geometry":{"type":"Polygon","coordinates":[[[-97.740333,30.28737],[-97.74011,30.287354],[-97.740071,30.287775],[-97.740545,30.287807],[-97.740584,30.287386],[-97.740333,30.28737]]]},"properties":{"b":11.5,"h":12.33,"tf":0.77,"rd":"#6c4d33","rg":"#8c633f","rn":"#10111c"}},{"type":"Feature","geometry":{"type":"Polygon","coordinates":[[[-97.740338,30.287313],[-97.74005,30.287294],[-97.74,30.287827],[-97.740605,30.287868],[-97.740655,30.287334],[-97.740338,30.287313]]]},"properties":{"b":12.33,"h":13.17,"tf":0.77,"rd":"#6c4d33","rg":"#8c633f","rn":"#10111c"}},{"type":"Feature","geometry":{"type":"Polygon","coordinates":[[[-97.740343,30.287257],[-97.73999,30.287233],[-97.73993,30.287879],[-97.740665,30.287929],[-97.740726,30.287282],[-97.740343,30.287257]]]},"properties":{"b":13.17,"h":14.0,"tf":0.77,"rd":"#6c4d33","rg":"#8c633f","rn":"#10111c"}},{"type":"Feature","geometry":{"type":"Polygon","coordinates":[[[-97.741122,30.288015],[-97.741118,30.288053],[-97.741158,30.288056],[-97.741157,30.288065],[-97.741194,30.288067],[-97.741199,30.288018],[-97.741341,30.288028],[-97.741345,30.287993],[-97.741389,30.287996],[-97.741401,30.287868],[-97.741392,30.287868],[-97.741395,30.287836],[-97.741359,30.287833],[-97.741359,30.287826],[-97.741216,30.287815],[-97.741218,30.287801],[-97.741149,30.287796],[-97.741147,30.287813],[-97.741084,30.287808],[-97.741081,30.287841],[-97.741051,30.287838],[-97.741038,30.287967],[-97.741069,30.28797],[-97.741065,30.288011],[-97.741122,30.288015]]]},"properties":{"b":23.6,"h":24.11,"tf":0.79,"rd":"#6f6c72","rg":"#8f7b70","rn":"#0f121f"}},{"type":"Feature","geometry":{"type":"Polygon","coordinates":[[[-97.741139,30.288002],[-97.741135,30.28804],[-97.741175,30.288043],[-97.741174,30.288052],[-97.74118,30.288053],[-97.741185,30.288004],[-97.741327,30.288014],[-97.741331,30.287979],[-97.741374,30.287982],[-97.741384,30.287881],[-97.741375,30.287881],[-97.741378,30.287848],[-97.741341,30.287845],[-97.741342,30.287838],[-97.741199,30.287827],[-97.741201,30.287813],[-97.741163,30.28781],[-97.741161,30.287827],[-97.741099,30.287822],[-97.741096,30.287856],[-97.741065,30.287853],[-97.741055,30.287955],[-97.741086,30.287958],[-97.741082,30.287998],[-97.741139,30.288002]]]},"properties":{"b":24.11,"h":24.62,"tf":0.79,"rd":"#6f6c72","rg":"#8f7b70","rn":"#0f121f"}},{"type":"Feature","geometry":{"type":"Polygon","coordinates":[[[-97.741156,30.28799],[-97.741152,30.288028],[-97.741192,30.288031],[-97.741191,30.28804],[-97.741165,30.288038],[-97.74117,30.287989],[-97.741313,30.287999],[-97.741317,30.287964],[-97.74136,30.287967],[-97.741367,30.287895],[-97.741358,30.287895],[-97.741361,30.28786],[-97.741324,30.287857],[-97.741324,30.287851],[-97.741181,30.28784],[-97.741183,30.287826],[-97.741177,30.287825],[-97.741175,30.287842],[-97.741113,30.287837],[-97.74111,30.287871],[-97.74108,30.287868],[-97.741072,30.287943],[-97.741103,30.287946],[-97.741099,30.287986],[-97.741156,30.28799]]]},"properties":{"b":24.62,"h":25.13,"tf":0.79,"rd":"#6f6c72","rg":"#8f7b70","rn":"#0f121f"}},{"type":"Feature","geometry":{"type":"Polygon","coordinates":[[[-97.741173,30.287978],[-97.741169,30.288016],[-97.741209,30.288019],[-97.741208,30.288028],[-97.741151,30.288024],[-97.741156,30.287975],[-97.741299,30.287985],[-97.741303,30.28795],[-97.741346,30.287953],[-97.74135,30.287908],[-97.741341,30.287908],[-97.741344,30.287873],[-97.741306,30.287869],[-97.741307,30.287863],[-97.741164,30.287852],[-97.741166,30.287838],[-97.741191,30.28784],[-97.741189,30.287857],[-97.741127,30.287852],[-97.741124,30.287886],[-97.741094,30.287883],[-97.741089,30.287931],[-97.741119,30.287934],[-97.741116,30.287974],[-97.741173,30.287978]]]},"properties":{"b":25.13,"h":25.64,"tf":0.79,"rd":"#6f6c72","rg":"#8f7b70","rn":"#0f121f"}},{"type":"Feature","geometry":{"type":"Polygon","coordinates":[[[-97.74119,30.287965],[-97.741186,30.288004],[-97.741226,30.288007],[-97.741225,30.288015],[-97.741137,30.288009],[-97.741142,30.28796],[-97.741285,30.28797],[-97.741289,30.287935],[-97.741331,30.287938],[-97.741333,30.287922],[-97.741324,30.287922],[-97.741327,30.287885],[-97.741289,30.287882],[-97.741289,30.287875],[-97.741146,30.287864],[-97.741148,30.28785],[-97.741205,30.287854],[-97.741203,30.287871],[-97.741142,30.287867],[-97.741139,30.287901],[-97.741108,30.287898],[-97.741106,30.287919],[-97.741136,30.287922],[-97.741133,30.287961],[-97.74119,30.287965]]]},"properties":{"b":25.64,"h":26.15,"tf":0.79,"rd":"#6f6c72","rg":"#8f7b70","rn":"#0f121f"}},{"type":"Feature","geometry":{"type":"Polygon","coordinates":[[[-97.741207,30.287953],[-97.741203,30.287991],[-97.741243,30.287994],[-97.741243,30.288003],[-97.741123,30.287994],[-97.741128,30.287946],[-97.741271,30.287956],[-97.741275,30.287921],[-97.741317,30.287924],[-97.741316,30.287935],[-97.741307,30.287935],[-97.74131,30.287897],[-97.741271,30.287894],[-97.741272,30.287887],[-97.741129,30.287876],[-97.741131,30.287862],[-97.741219,30.287869],[-97.741217,30.287886],[-97.741156,30.287881],[-97.741153,30.287916],[-97.741122,30.287913],[-97.741123,30.287907],[-97.741153,30.28791],[-97.741149,30.287949],[-97.741207,30.287953]]]},"properties":{"b":26.15,"h":26.66,"tf":0.79,"rd":"#6f6c72","rg":"#8f7b70","rn":"#0f121f"}},{"type":"Feature","geometry":{"type":"Polygon","coordinates":[[[-97.742281,30.28659],[-97.742267,30.286746],[-97.742436,30.286757],[-97.742437,30.286745],[-97.742566,30.286753],[-97.742574,30.286668],[-97.742463,30.286661],[-97.742461,30.286684],[-97.742364,30.286678],[-97.742371,30.286596],[-97.742281,30.28659]]]},"properties":{"b":15.9,"h":16.15,"tf":0.82,"rd":"#715035","rg":"#906641","rn":"#10111c"}},{"type":"Feature","geometry":{"type":"Polygon","coordinates":[[[-97.742288,30.286597],[-97.742276,30.28674],[-97.742429,30.28675],[-97.74243,30.286738],[-97.742559,30.286746],[-97.742565,30.286674],[-97.74247,30.286668],[-97.742468,30.286691],[-97.742355,30.286684],[-97.742362,30.286602],[-97.742288,30.286597]]]},"properties":{"b":16.15,"h":16.41,"tf":0.82,"rd":"#715035","rg":"#906641","rn":"#10111c"}},{"type":"Feature","geometry":{"type":"Polygon","coordinates":[[[-97.742295,30.286605],[-97.742284,30.286733],[-97.742421,30.286742],[-97.742422,30.28673],[-97.742552,30.286738],[-97.742557,30.286681],[-97.742477,30.286676],[-97.742475,30.286698],[-97.742347,30.286691],[-97.742354,30.286609],[-97.742295,30.286605]]]},"properties":{"b":16.41,"h":16.66,"tf":0.82,"rd":"#715035","rg":"#906641","rn":"#10111c"}},{"type":"Feature","geometry":{"type":"Polygon","coordinates":[[[-97.742303,30.286612],[-97.742292,30.286727],[-97.742414,30.286735],[-97.742415,30.286723],[-97.742544,30.286731],[-97.742549,30.286687],[-97.742485,30.286683],[-97.742483,30.286706],[-97.742339,30.286697],[-97.742346,30.286615],[-97.742303,30.286612]]]},"properties":{"b":16.66,"h":16.91,"tf":0.82,"rd":"#715035","rg":"#906641","rn":"#10111c"}},{"type":"Feature","geometry":{"type":"Polygon","coordinates":[[[-97.74231,30.286619],[-97.742301,30.286721],[-97.742407,30.286728],[-97.742408,30.286716],[-97.742537,30.286724],[-97.74254,30.286693],[-97.742492,30.28669],[-97.74249,30.286713],[-97.74233,30.286703],[-97.742337,30.286621],[-97.74231,30.286619]]]},"properties":{"b":16.91,"h":17.16,"tf":0.82,"rd":"#715035","rg":"#906641","rn":"#10111c"}},{"type":"Feature","geometry":{"type":"Polygon","coordinates":[[[-97.742317,30.286626],[-97.742309,30.286715],[-97.7424,30.286721],[-97.742401,30.286709],[-97.74253,30.286717],[-97.742532,30.286699],[-97.742499,30.286697],[-97.742497,30.28672],[-97.742322,30.286709],[-97.742329,30.286627],[-97.742317,30.286626]]]},"properties":{"b":17.16,"h":17.42,"tf":0.82,"rd":"#715035","rg":"#906641","rn":"#10111c"}},{"type":"Feature","geometry":{"type":"Polygon","coordinates":[[[-97.742405,30.289308],[-97.742391,30.289458],[-97.742393,30.289438],[-97.74245,30.289442],[-97.742462,30.289312],[-97.742405,30.289308]]]},"properties":{"b":17.9,"h":18.73,"tf":0.89,"rd":"#5e6b73","rg":"#817b71","rn":"#0e121f"}},{"type":"Feature","geometry":{"type":"Polygon","coordinates":[[[-97.742803,30.289628],[-97.74284,30.289285],[-97.742674,30.289272],[-97.742637,30.289615],[-97.742803,30.289628]]]},"properties":{"b":16.0,"h":16.51,"tf":0.8,"rd":"#7c6954","rg":"#997959","rn":"#10121d"}},{"type":"Feature","geometry":{"type":"Polygon","coordinates":[[[-97.742789,30.289614],[-97.742823,30.289298],[-97.742688,30.289287],[-97.742654,30.289603],[-97.742789,30.289614]]]},"properties":{"b":16.51,"h":17.01,"tf":0.8,"rd":"#7c6954","rg":"#997959","rn":"#10121d"}},{"type":"Feature","geometry":{"type":"Polygon","coordinates":[[[-97.742775,30.289599],[-97.742806,30.28931],[-97.742702,30.289301],[-97.742671,30.289591],[-97.742775,30.289599]]]},"properties":{"b":17.01,"h":17.52,"tf":0.8,"rd":"#7c6954","rg":"#997959","rn":"#10121d"}},{"type":"Feature","geometry":{"type":"Polygon","coordinates":[[[-97.742761,30.289584],[-97.742789,30.289322],[-97.742716,30.289316],[-97.742688,30.289579],[-97.742761,30.289584]]]},"properties":{"b":17.52,"h":18.02,"tf":0.8,"rd":"#7c6954","rg":"#997959","rn":"#10121d"}},{"type":"Feature","geometry":{"type":"Polygon","coordinates":[[[-97.742747,30.28957],[-97.742772,30.289334],[-97.74273,30.289331],[-97.742705,30.289566],[-97.742747,30.28957]]]},"properties":{"b":18.02,"h":18.53,"tf":0.8,"rd":"#7c6954","rg":"#997959","rn":"#10121d"}},{"type":"Feature","geometry":{"type":"Polygon","coordinates":[[[-97.742733,30.289555],[-97.742755,30.289346],[-97.742744,30.289345],[-97.742722,30.289554],[-97.742733,30.289555]]]},"properties":{"b":18.53,"h":19.03,"tf":0.8,"rd":"#7c6954","rg":"#997959","rn":"#10121d"}},{"type":"Feature","geometry":{"type":"Polygon","coordinates":[[[-97.745226,30.288615],[-97.745229,30.288582],[-97.745216,30.288582],[-97.745213,30.288614],[-97.745226,30.288615]]]},"properties":{"b":7.7,"h":8.53,"tf":0.93,"rd":"#5d6772","rg":"#817870","rn":"#0e121f"}},{"type":"Feature","geometry":{"type":"Polygon","coordinates":[[[-97.745287,30.288675],[-97.745298,30.28853],[-97.745155,30.288521],[-97.745144,30.288667],[-97.745287,30.288675]]]},"properties":{"b":8.53,"h":9.37,"tf":0.93,"rd":"#5d6772","rg":"#817870","rn":"#0e121f"}},{"type":"Feature","geometry":{"type":"Polygon","coordinates":[[[-97.745349,30.288734],[-97.745368,30.288477],[-97.745093,30.288461],[-97.745074,30.28872],[-97.745349,30.288734]]]},"properties":{"b":9.37,"h":10.2,"tf":0.93,"rd":"#5d6772","rg":"#817870","rn":"#0e121f"}},{"type":"Feature","geometry":{"type":"Polygon","coordinates":[[[-97.74541,30.288794],[-97.745437,30.288425],[-97.745032,30.288401],[-97.745005,30.288774],[-97.74541,30.288794]]]},"properties":{"b":10.2,"h":11.03,"tf":0.93,"rd":"#5d6772","rg":"#817870","rn":"#0e121f"}},{"type":"Feature","geometry":{"type":"Polygon","coordinates":[[[-97.745471,30.288854],[-97.745507,30.288372],[-97.744971,30.28834],[-97.744935,30.288827],[-97.745471,30.288854]]]},"properties":{"b":11.03,"h":11.87,"tf":0.93,"rd":"#5d6772","rg":"#817870","rn":"#0e121f"}},{"type":"Feature","geometry":{"type":"Polygon","coordinates":[[[-97.745532,30.288914],[-97.745577,30.288319],[-97.74491,30.28828],[-97.744865,30.28888],[-97.745532,30.288914]]]},"properties":{"b":11.87,"h":12.7,"tf":0.93,"rd":"#5d6772","rg":"#817870","rn":"#0e121f"}},{"type":"Feature","geometry":{"type":"Polygon","coordinates":[[[-97.737307,30.289096],[-97.737334,30.289098],[-97.737341,30.289017],[-97.737355,30.288877],[-97.737362,30.288811],[-97.737339,30.28881],[-97.737401,30.288164],[-97.73743,30.288166],[-97.737457,30.287881],[-97.73743,30.287878],[-97.737433,30.287843],[-97.737368,30.287838],[-97.737364,30.287872],[-97.737315,30.287869],[-97.737319,30.287834],[-97.737256,30.287829],[-97.737253,30.287865],[-97.737227,30.287863],[-97.7372,30.288143],[-97.737167,30.28814],[-97.737103,30.288801],[-97.737132,30.288804],[-97.737105,30.289081],[-97.737127,30.289082],[-97.737124,30.289116],[-97.737189,30.289121],[-97.737192,30.289088],[-97.73724,30.289092],[-97.737237,30.289124],[-97.737304,30.289129],[-97.737307,30.289096]]]},"properties":{"b":26.3,"h":26.93,"tf":0.95,"rd":"#894731","rg":"#a35f3e","rn":"#11111c"}},{"type":"Feature","geometry":{"type":"Polygon","coordinates":[[[-97.73729,30.289078],[-97.737316,30.28908],[-97.737322,30.289016],[-97.737336,30.288876],[-97.737341,30.288827],[-97.737318,30.288825],[-97.737384,30.288146],[-97.737412,30.288148],[-97.737437,30.287896],[-97.737409,30.287894],[-97.737412,30.287858],[-97.737385,30.287856],[-97.737382,30.28789],[-97.737295,30.287884],[-97.737298,30.287849],[-97.737274,30.287847],[-97.73727,30.287883],[-97.737245,30.287881],[-97.737217,30.288161],[-97.737184,30.288158],[-97.737123,30.288786],[-97.737153,30.288788],[-97.737126,30.289065],[-97.737148,30.289067],[-97.737145,30.289101],[-97.737171,30.289103],[-97.737174,30.28907],[-97.737261,30.289076],[-97.737258,30.289109],[-97.737286,30.289111],[-97.73729,30.289078]]]},"properties":{"b":26.93,"h":27.55,"tf":0.95,"rd":"#894731","rg":"#a35f3e","rn":"#11111c"}},{"type":"Feature","geometry":{"type":"Polygon","coordinates":[[[-97.737272,30.28906],[-97.737298,30.289062],[-97.737302,30.289014],[-97.737317,30.288874],[-97.73732,30.288842],[-97.737297,30.28884],[-97.737366,30.288128],[-97.737394,30.28813],[-97.737416,30.287911],[-97.737388,30.287909],[-97.737391,30.287873],[-97.737403,30.287874],[-97.7374,30.287908],[-97.737274,30.287899],[-97.737277,30.287864],[-97.737291,30.287865],[-97.737288,30.287901],[-97.737262,30.287899],[-97.737235,30.288179],[-97.737202,30.288176],[-97.737144,30.288771],[-97.737174,30.288773],[-97.737147,30.28905],[-97.737169,30.289052],[-97.737166,30.289086],[-97.737153,30.289085],[-97.737157,30.289052],[-97.737282,30.289061],[-97.737279,30.289094],[-97.737269,30.289093],[-97.737272,30.28906]]]},"properties":{"b":27.55,"h":28.18,"tf":0.95,"rd":"#894731","rg":"#a35f3e","rn":"#11111c"}},{"type":"Feature","geometry":{"type":"Polygon","coordinates":[[[-97.737254,30.289042],[-97.73728,30.289044],[-97.737283,30.289013],[-97.737298,30.288873],[-97.737299,30.288857],[-97.737276,30.288855],[-97.737349,30.28811],[-97.737377,30.288112],[-97.737395,30.287926],[-97.737367,30.287924],[-97.737371,30.287888],[-97.737421,30.287892],[-97.737417,30.287927],[-97.737253,30.287914],[-97.737256,30.287879],[-97.737309,30.287883],[-97.737306,30.287919],[-97.73728,30.287917],[-97.737253,30.288197],[-97.73722,30.288194],[-97.737165,30.288756],[-97.737194,30.288758],[-97.737167,30.289035],[-97.737189,30.289036],[-97.737186,30.28907],[-97.737136,30.289067],[-97.737139,30.289035],[-97.737303,30.289046],[-97.7373,30.289079],[-97.737251,30.289075],[-97.737254,30.289042]]]},"properties":{"b":28.18,"h":28.81,"tf":0.95,"rd":"#894731","rg":"#a35f3e","rn":"#11111c"}},{"type":"Feature","geometry":{"type":"Polygon","coordinates":[[[-97.737237,30.289024],[-97.737263,30.289026],[-97.737264,30.289012],[-97.737279,30.288871],[-97.737279,30.288872],[-97.737255,30.28887],[-97.737331,30.288093],[-97.737359,30.288095],[-97.737374,30.287941],[-97.737346,30.287939],[-97.73735,30.287904],[-97.737438,30.28791],[-97.737435,30.287945],[-97.737232,30.287929],[-97.737236,30.287894],[-97.737327,30.287901],[-97.737323,30.287937],[-97.737297,30.287935],[-97.73727,30.288215],[-97.737237,30.288212],[-97.737186,30.288741],[-97.737215,30.288743],[-97.737188,30.28902],[-97.73721,30.289021],[-97.737207,30.289055],[-97.737118,30.289049],[-97.737122,30.289017],[-97.737324,30.289031],[-97.737321,30.289063],[-97.737234,30.289057],[-97.737237,30.289024]]]},"properties":{"b":28.81,"h":29.44,"tf":0.95,"rd":"#894731","rg":"#a35f3e","rn":"#11111c"}},{"type":"Feature","geometry":{"type":"Polygon","coordinates":[[[-97.737219,30.289006],[-97.737245,30.289008],[-97.737245,30.28901],[-97.737259,30.28887],[-97.737258,30.288887],[-97.737235,30.288886],[-97.737313,30.288075],[-97.737342,30.288077],[-97.737353,30.287957],[-97.737325,30.287954],[-97.737329,30.287919],[-97.737456,30.287928],[-97.737452,30.287963],[-97.737211,30.287944],[-97.737215,30.28791],[-97.737344,30.287919],[-97.737341,30.287955],[-97.737315,30.287953],[-97.737288,30.288233],[-97.737255,30.28823],[-97.737207,30.288725],[-97.737236,30.288728],[-97.737209,30.289005],[-97.737231,30.289006],[-97.737228,30.28904],[-97.737101,30.289031],[-97.737104,30.288999],[-97.737345,30.289015],[-97.737341,30.289048],[-97.737216,30.289039],[-97.737219,30.289006]]]},"properties":{"b":29.44,"h":30.06,"tf":0.95,"rd":"#894731","rg":"#a35f3e","rn":"#11111c"}},{"type":"Feature","geometry":{"type":"Polygon","coordinates":[[[-97.738442,30.28721],[-97.739066,30.287257],[-97.739084,30.287077],[-97.738636,30.287044],[-97.738656,30.28684],[-97.738783,30.286849],[-97.738798,30.286706],[-97.738511,30.286685],[-97.738477,30.287028],[-97.73846,30.287027],[-97.738442,30.28721]]]},"properties":{"b":15.2,"h":15.76,"tf":0.54,"rd":"#8d4932","rg":"#a6603e","rn":"#11111c"}},{"type":"Feature","geometry":{"type":"Polygon","coordinates":[[[-97.73846,30.287197],[-97.739051,30.287241],[-97.739066,30.28709],[-97.738617,30.287057],[-97.738641,30.286824],[-97.738768,30.286833],[-97.738779,30.286719],[-97.738527,30.286701],[-97.738493,30.287044],[-97.738475,30.287043],[-97.73846,30.287197]]]},"properties":{"b":15.76,"h":16.31,"tf":0.54,"rd":"#8d4932","rg":"#a6603e","rn":"#11111c"}},{"type":"Feature","geometry":{"type":"Polygon","coordinates":[[[-97.738479,30.287183],[-97.739035,30.287225],[-97.739047,30.287104],[-97.738599,30.287071],[-97.738625,30.286808],[-97.738752,30.286817],[-97.738761,30.286733],[-97.738542,30.286717],[-97.738508,30.28706],[-97.738491,30.287059],[-97.738479,30.287183]]]},"properties":{"b":16.31,"h":16.87,"tf":0.54,"rd":"#8d4932","rg":"#a6603e","rn":"#11111c"}},{"type":"Feature","geometry":{"type":"Polygon","coordinates":[[[-97.738497,30.28717],[-97.73902,30.287209],[-97.739029,30.287117],[-97.73858,30.287084],[-97.73861,30.286792],[-97.738737,30.286801],[-97.738742,30.286746],[-97.738558,30.286733],[-97.738524,30.287076],[-97.738506,30.287075],[-97.738497,30.28717]]]},"properties":{"b":16.87,"h":17.43,"tf":0.54,"rd":"#8d4932","rg":"#a6603e","rn":"#11111c"}},{"type":"Feature","geometry":{"type":"Polygon","coordinates":[[[-97.738516,30.287156],[-97.739004,30.287193],[-97.73901,30.287131],[-97.738562,30.287097],[-97.738594,30.286776],[-97.738721,30.286785],[-97.738724,30.28676],[-97.738574,30.286749],[-97.738539,30.287092],[-97.738522,30.287091],[-97.738516,30.287156]]]},"properties":{"b":17.43,"h":17.98,"tf":0.54,"rd":"#8d4932","rg":"#a6603e","rn":"#11111c"}},{"type":"Feature","geometry":{"type":"Polygon","coordinates":[[[-97.738534,30.287143],[-97.738989,30.287177],[-97.738992,30.287144],[-97.738543,30.287111],[-97.738579,30.28676],[-97.738706,30.286769],[-97.738705,30.286773],[-97.738589,30.286764],[-97.738555,30.287108],[-97.738538,30.287107],[-97.738534,30.287143]]]},"properties":{"b":17.98,"h":18.54,"tf":0.54,"rd":"#8d4932","rg":"#a6603e","rn":"#11111c"}},{"type":"Feature","geometry":{"type":"Polygon","coordinates":[[[-97.738168,30.285984],[-97.738151,30.286154],[-97.738642,30.286191],[-97.738649,30.286122],[-97.738659,30.286022],[-97.738415,30.286003],[-97.738409,30.286003],[-97.738168,30.285984]]]},"properties":{"b":15.7,"h":16.3,"tf":0.97,"rd":"#85452f","rg":"#a05d3c","rn":"#11111c"}},{"type":"Feature","geometry":{"type":"Polygon","coordinates":[[[-97.738185,30.286001],[-97.738171,30.286139],[-97.738625,30.286173],[-97.738631,30.286121],[-97.738639,30.286036],[-97.738413,30.286019],[-97.738407,30.286019],[-97.738185,30.286001]]]},"properties":{"b":16.3,"h":16.89,"tf":0.97,"rd":"#85452f","rg":"#a05d3c","rn":"#11111c"}},{"type":"Feature","geometry":{"type":"Polygon","coordinates":[[[-97.738201,30.286018],[-97.738191,30.286125],[-97.738609,30.286156],[-97.738612,30.28612],[-97.738619,30.28605],[-97.738411,30.286035],[-97.738405,30.286034],[-97.738201,30.286018]]]},"properties":{"b":16.89,"h":17.49,"tf":0.97,"rd":"#85452f","rg":"#a05d3c","rn":"#11111c"}},{"type":"Feature","geometry":{"type":"Polygon","coordinates":[[[-97.738218,30.286035],[-97.738211,30.286111],[-97.738592,30.286139],[-97.738594,30.286118],[-97.738599,30.286065],[-97.73841,30.286051],[-97.738403,30.28605],[-97.738218,30.286035]]]},"properties":{"b":17.49,"h":18.09,"tf":0.97,"rd":"#85452f","rg":"#a05d3c","rn":"#11111c"}},{"type":"Feature","geometry":{"type":"Polygon","coordinates":[[[-97.738235,30.286053],[-97.738231,30.286096],[-97.738575,30.286122],[-97.738576,30.286117],[-97.738579,30.286079],[-97.738408,30.286066],[-97.738402,30.286066],[-97.738235,30.286053]]]},"properties":{"b":18.09,"h":18.69,"tf":0.97,"rd":"#85452f","rg":"#a05d3c","rn":"#11111c"}},{"type":"Feature","geometry":{"type":"Polygon","coordinates":[[[-97.738252,30.28607],[-97.73825,30.286082],[-97.738558,30.286105],[-97.738557,30.286115],[-97.73856,30.286094],[-97.738406,30.286082],[-97.7384,30.286082],[-97.738252,30.28607]]]},"properties":{"b":18.69,"h":19.28,"tf":0.97,"rd":"#85452f","rg":"#a05d3c","rn":"#11111c"}},{"type":"Feature","geometry":{"type":"Polygon","coordinates":[[[-97.738236,30.285232],[-97.73873,30.285269],[-97.738754,30.285021],[-97.738569,30.285007],[-97.73856,30.285101],[-97.738251,30.285078],[-97.738243,30.285154],[-97.738236,30.285232]]]},"properties":{"b":13.9,"h":14.45,"tf":0.9,"rd":"#af5b3f","rg":"#c16e48","rn":"#17131e"}},{"type":"Feature","geometry":{"type":"Polygon","coordinates":[[[-97.738254,30.285219],[-97.738715,30.285253],[-97.738736,30.285034],[-97.738585,30.285023],[-97.738576,30.285117],[-97.738266,30.285094],[-97.73826,30.285155],[-97.738254,30.285219]]]},"properties":{"b":14.45,"h":15.0,"tf":0.9,"rd":"#af5b3f","rg":"#c16e48","rn":"#17131e"}},{"type":"Feature","geometry":{"type":"Polygon","coordinates":[[[-97.738272,30.285206],[-97.738699,30.285238],[-97.738717,30.285047],[-97.7386,30.285039],[-97.738591,30.285133],[-97.738282,30.285109],[-97.738277,30.285156],[-97.738272,30.285206]]]},"properties":{"b":15.0,"h":15.55,"tf":0.9,"rd":"#af5b3f","rg":"#c16e48","rn":"#17131e"}},{"type":"Feature","geometry":{"type":"Polygon","coordinates":[[[-97.73829,30.285192],[-97.738684,30.285222],[-97.738699,30.28506],[-97.738616,30.285054],[-97.738607,30.285148],[-97.738297,30.285125],[-97.738294,30.285158],[-97.73829,30.285192]]]},"properties":{"b":15.55,"h":16.1,"tf":0.9,"rd":"#af5b3f","rg":"#c16e48","rn":"#17131e"}},{"type":"Feature","geometry":{"type":"Polygon","coordinates":[[[-97.738309,30.285179],[-97.738668,30.285206],[-97.738681,30.285074],[-97.738631,30.28507],[-97.738622,30.285164],[-97.738312,30.285141],[-97.738311,30.285159],[-97.738309,30.285179]]]},"properties":{"b":16.1,"h":16.65,"tf":0.9,"rd":"#af5b3f","rg":"#c16e48","rn":"#17131e"}},{"type":"Feature","geometry":{"type":"Polygon","coordinates":[[[-97.738327,30.285166],[-97.738653,30.28519],[-97.738663,30.285087],[-97.738646,30.285086],[-97.738638,30.28518],[-97.738328,30.285157],[-97.738328,30.28516],[-97.738327,30.285166]]]},"properties":{"b":16.65,"h":17.2,"tf":0.9,"rd":"#af5b3f","rg":"#c16e48","rn":"#17131e"}},{"type":"Feature","geometry":{"type":"Polygon","coordinates":[[[-97.737489,30.285373],[-97.737664,30.285386],[-97.737675,30.285279],[-97.737691,30.285113],[-97.737708,30.284944],[-97.737719,30.284838],[-97.737544,30.284825],[-97.737532,30.284939],[-97.737499,30.285267],[-97.737489,30.285373]]]},"properties":{"b":25.8,"h":26.33,"tf":0.89,"rd":"#ac5134","rg":"#be6640","rn":"#13111c"}},{"type":"Feature","geometry":{"type":"Polygon","coordinates":[[[-97.737506,30.28536],[-97.737649,30.285371],[-97.737658,30.285278],[-97.737675,30.285112],[-97.737692,30.284943],[-97.737701,30.28485],[-97.737559,30.28484],[-97.737549,30.284941],[-97.737516,30.285268],[-97.737506,30.28536]]]},"properties":{"b":26.33,"h":26.87,"tf":0.89,"rd":"#ac5134","rg":"#be6640","rn":"#13111c"}},{"type":"Feature","geometry":{"type":"Polygon","coordinates":[[[-97.737524,30.285347],[-97.737634,30.285355],[-97.737642,30.285276],[-97.737658,30.28511],[-97.737675,30.284942],[-97.737683,30.284863],[-97.737574,30.284855],[-97.737565,30.284942],[-97.737532,30.28527],[-97.737524,30.285347]]]},"properties":{"b":26.87,"h":27.4,"tf":0.89,"rd":"#ac5134","rg":"#be6640","rn":"#13111c"}},{"type":"Feature","geometry":{"type":"Polygon","coordinates":[[[-97.737542,30.285334],[-97.737619,30.28534],[-97.737626,30.285275],[-97.737642,30.285109],[-97.737659,30.284941],[-97.737666,30.284876],[-97.737588,30.28487],[-97.737581,30.284943],[-97.737548,30.285271],[-97.737542,30.285334]]]},"properties":{"b":27.4,"h":27.93,"tf":0.89,"rd":"#ac5134","rg":"#be6640","rn":"#13111c"}},{"type":"Feature","geometry":{"type":"Polygon","coordinates":[[[-97.73756,30.285321],[-97.737604,30.285325],[-97.737609,30.285274],[-97.737626,30.285108],[-97.737643,30.284939],[-97.737648,30.284889],[-97.737603,30.284886],[-97.737598,30.284944],[-97.737565,30.285272],[-97.73756,30.285321]]]},"properties":{"b":27.93,"h":28.47,"tf":0.89,"rd":"#ac5134","rg":"#be6640","rn":"#13111c"}},{"type":"Feature","geometry":{"type":"Polygon","coordinates":[[[-97.737577,30.285309],[-97.737589,30.285309],[-97.737593,30.285273],[-97.737609,30.285107],[-97.737626,30.284938],[-97.73763,30.284902],[-97.737618,30.284901],[-97.737614,30.284945],[-97.737581,30.285273],[-97.737577,30.285309]]]},"properties":{"b":28.47,"h":29.0,"tf":0.89,"rd":"#ac5134","rg":"#be6640","rn":"#13111c"}}]}