{"type":"FeatureCollection","features":[{"type":"Feature","geometry":{"type":"Polygon","coordinates":[[[-97.732027,30.284253],[-97.732944,30.284318],[-97.733066,30.283035],[-97.732149,30.28297],[-97.732027,30.284253]],[[-97.732244,30.283068],[-97.732954,30.283118],[-97.732849,30.284221],[-97.732139,30.284171],[-97.732244,30.283068]]]},"properties":{"h":18.9,"name":"DKR Memorial Stadium"}},{"type":"Feature","geometry":{"type":"Polygon","coordinates":[[[-97.731915,30.284336],[-97.73304,30.284415],[-97.733178,30.282953],[-97.732053,30.282873],[-97.731915,30.284336]],[[-97.732027,30.284253],[-97.732944,30.284318],[-97.733066,30.283035],[-97.732149,30.28297],[-97.732027,30.284253]]]},"properties":{"h":36.54,"name":"DKR Memorial Stadium"}},{"type":"Feature","geometry":{"type":"Polygon","coordinates":[[[-97.731809,30.284413],[-97.733129,30.284507],[-97.733284,30.282875],[-97.731964,30.282782],[-97.731809,30.284413]],[[-97.731915,30.284336],[-97.73304,30.284415],[-97.733178,30.282953],[-97.732053,30.282873],[-97.731915,30.284336]]]},"properties":{"h":54.18,"name":"DKR Memorial Stadium"}}]}