{"type":"FeatureCollection","features":[{"type":"Feature","properties":{"kind":"wall","part":"mb-base","base":0.0,"h":6.8,"wd":"#b9a98d","wg":"#c4ac8b","wn":"#12101c","fam":"twbase","pat":"twbase"},"geometry":{"type":"Polygon","coordinates":[[[-97.7391187,30.2863555],[-97.739138,30.2861618],[-97.7392579,30.2861707],[-97.7392393,30.2863577],[-97.7394732,30.2863751],[-97.7394917,30.2861886],[-97.7395496,30.2861934],[-97.7395263,30.2863857],[-97.7396986,30.2864015],[-97.7397431,30.2859549],[-97.7397721,30.2856638],[-97.7396233,30.2856527],[-97.7396112,30.2857736],[-97.7395049,30.2857657],[-97.7394161,30.2857591],[-97.7393273,30.2857525],[-97.7392123,30.285744],[-97.7392237,30.2856291],[-97.7390754,30.2856181],[-97.7390483,30.2858901],[-97.7390425,30.2859485],[-97.7389849,30.2859443],[-97.7389819,30.2859798],[-97.7389453,30.2863427],[-97.7391187,30.2863555]]]}},{"type":"Feature","properties":{"kind":"wall","part":"mb-piano","base":6.8,"h":17.2,"wd":"#c9bb9f","wg":"#d2bb9a","wn":"#12101c","fam":"twwall","pat":"twwall"},"geometry":{"type":"Polygon","coordinates":[[[-97.7391187,30.2863555],[-97.739138,30.2861618],[-97.7392579,30.2861707],[-97.7392393,30.2863577],[-97.7394732,30.2863751],[-97.7394917,30.2861886],[-97.7395496,30.2861934],[-97.7395263,30.2863857],[-97.7396986,30.2864015],[-97.7397431,30.2859549],[-97.73976,30.285785],[-97.7390639,30.2857333],[-97.7390483,30.2858901],[-97.7390425,30.2859485],[-97.7389849,30.2859443],[-97.7389819,30.2859798],[-97.7389453,30.2863427],[-97.7391187,30.2863555]]]}},{"type":"Feature","properties":{"kind":"wall","part":"mb-entab","base":17.2,"h":20.2,"wd":"#e7ddc9","wg":"#ebd8be","wn":"#12101c","fam":"twplain","pat":"twplain"},"geometry":{"type":"Polygon","coordinates":[[[-97.7391187,30.2863555],[-97.739138,30.2861618],[-97.7392579,30.2861707],[-97.7392393,30.2863577],[-97.7394732,30.2863751],[-97.7394917,30.2861886],[-97.7395496,30.2861934],[-97.7395263,30.2863857],[-97.7396986,30.2864015],[-97.7397431,30.2859549],[-97.73976,30.285785],[-97.7390639,30.2857333],[-97.7390483,30.2858901],[-97.7390425,30.2859485],[-97.7389849,30.2859443],[-97.7389819,30.2859798],[-97.7389453,30.2863427],[-97.7391187,30.2863555]]]}},{"type":"Feature","properties":{"kind":"wall","part":"mb-pw","base":6.8,"h":8.4,"wd":"#e7ddc9","wg":"#ebd8be","wn":"#12101c","fam":"twplain","pat":"twplain"},"geometry":{"type":"Polygon","coordinates":[[[-97.7395996,30.2857731],[-97.73976,30.285785],[-97.7397721,30.2856638],[-97.7396233,30.2856527],[-97.7396112,30.2857736],[-97.7395997,30.2857727],[-97.7395996,30.2857731]]]}},{"type":"Feature","properties":{"kind":"wall","part":"mb-pe","base":6.8,"h":8.4,"wd":"#e7ddc9","wg":"#ebd8be","wn":"#12101c","fam":"twplain","pat":"twplain"},"geometry":{"type":"Polygon","coordinates":[[[-97.7392265,30.2857453],[-97.7392265,30.2857451],[-97.7392123,30.285744],[-97.7392237,30.2856291],[-97.7390754,30.2856181],[-97.7390639,30.2857333],[-97.7392265,30.2857453]]]}},{"type":"Feature","properties":{"kind":"wall","part":"mb-attic-w","base":20.2,"h":24.4,"wd":"#8e6a55","wg":"#a0775c","wn":"#12101c","fam":"twattic","pat":"twattic"},"geometry":{"type":"Polygon","coordinates":[[[-97.7395859,30.2860159],[-97.7395488,30.2863878],[-97.7396986,30.2864015],[-97.7397359,30.2860271],[-97.7395859,30.2860159]]]}},{"type":"Feature","properties":{"kind":"roof","part":"mb-roof-w","base":24.4,"h":25.93,"wd":"#9c4a2f","wg":"#b2613c","wn":"#12101c"},"geometry":{"type":"Polygon","coordinates":[[[-97.7395859,30.2860159],[-97.7395488,30.2863878],[-97.7396986,30.2864015],[-97.7397359,30.2860271],[-97.7395859,30.2860159]]]}},{"type":"Feature","properties":{"kind":"roof","part":"mb-roof-w","base":25.93,"h":27.47,"wd":"#9c4a2f","wg":"#b2613c","wn":"#12101c"},"geometry":{"type":"Polygon","coordinates":[[[-97.73961,30.2860407],[-97.7395775,30.2863674],[-97.7396745,30.2863763],[-97.7397072,30.2860479],[-97.73961,30.2860407]]]}},{"type":"Feature","properties":{"kind":"roof","part":"mb-roof-w","base":27.47,"h":29.0,"wd":"#9c4a2f","wg":"#b2613c","wn":"#12101c"},"geometry":{"type":"Polygon","coordinates":[[[-97.7396342,30.2860655],[-97.7396061,30.2863469],[-97.7396504,30.286351],[-97.7396785,30.2860688],[-97.7396342,30.2860655]]]}},{"type":"Feature","properties":{"kind":"wall","part":"mb-attic-e","base":20.2,"h":24.4,"wd":"#8e6a55","wg":"#a0775c","wn":"#12101c","fam":"twattic","pat":"twattic"},"geometry":{"type":"Polygon","coordinates":[[[-97.7391187,30.2863555],[-97.739138,30.2861618],[-97.7391536,30.286163],[-97.7391713,30.2859851],[-97.7389826,30.2859711],[-97.7389819,30.2859798],[-97.7389453,30.2863427],[-97.7391187,30.2863555]]]}},{"type":"Feature","properties":{"kind":"roof","part":"mb-roof-e","base":24.4,"h":25.93,"wd":"#9c4a2f","wg":"#b2613c","wn":"#12101c"},"geometry":{"type":"Polygon","coordinates":[[[-97.7391187,30.2863555],[-97.739138,30.2861618],[-97.7391536,30.286163],[-97.7391713,30.2859851],[-97.7389826,30.2859711],[-97.7389819,30.2859798],[-97.7389453,30.2863427],[-97.7391187,30.2863555]]]}},{"type":"Feature","properties":{"kind":"roof","part":"mb-roof-e","base":25.93,"h":27.47,"wd":"#9c4a2f","wg":"#b2613c","wn":"#12101c"},"geometry":{"type":"Polygon","coordinates":[[[-97.7390945,30.2863307],[-97.7391138,30.286137],[-97.7391294,30.2861382],[-97.7391426,30.286006],[-97.7390068,30.2859959],[-97.738974,30.2863218],[-97.7390945,30.2863307]]]}},{"type":"Feature","properties":{"kind":"roof","part":"mb-roof-e","base":27.47,"h":29.0,"wd":"#9c4a2f","wg":"#b2613c","wn":"#12101c"},"geometry":{"type":"Polygon","coordinates":[[[-97.7390704,30.286306],[-97.7390897,30.2861122],[-97.7391053,30.2861134],[-97.7391139,30.2860268],[-97.7390309,30.2860207],[-97.7390027,30.286301],[-97.7390704,30.286306]]]}},{"type":"Feature","properties":{"kind":"wall","part":"mb-attic-s","base":20.2,"h":24.4,"wd":"#8e6a55","wg":"#a0775c","wn":"#12101c","fam":"twattic","pat":"twattic"},"geometry":{"type":"Polygon","coordinates":[[[-97.7397457,30.2859286],[-97.73976,30.285785],[-97.7390639,30.2857333],[-97.7390496,30.2858769],[-97.7397457,30.2859286]]]}},{"type":"Feature","properties":{"kind":"roof","part":"mb-roof-s","base":24.4,"h":25.93,"wd":"#9c4a2f","wg":"#b2613c","wn":"#12101c"},"geometry":{"type":"Polygon","coordinates":[[[-97.7397457,30.2859286],[-97.73976,30.285785],[-97.7390639,30.2857333],[-97.7390496,30.2858769],[-97.7397457,30.2859286]]]}},{"type":"Feature","properties":{"kind":"roof","part":"mb-roof-s","base":25.93,"h":27.47,"wd":"#9c4a2f","wg":"#b2613c","wn":"#12101c"},"geometry":{"type":"Polygon","coordinates":[[[-97.7397216,30.2859038],[-97.7397313,30.2858058],[-97.7390881,30.285758],[-97.7390783,30.285856],[-97.7397216,30.2859038]]]}},{"type":"Feature","properties":{"kind":"roof","part":"mb-roof-s","base":27.47,"h":29.0,"wd":"#9c4a2f","wg":"#b2613c","wn":"#12101c"},"geometry":{"type":"Polygon","coordinates":[[[-97.7396974,30.2858791],[-97.7397026,30.2858267],[-97.7391122,30.2857828],[-97.739107,30.2858352],[-97.7396974,30.2858791]]]}},{"type":"Feature","properties":{"kind":"wall","part":"shaft","base":15.0,"h":66.3,"wd":"#d5c9b5","wg":"#dcc7ad","wn":"#b03a15","fam":"twshaft","pat":"twshaft"},"geometry":{"type":"Polygon","coordinates":[[[-97.7394917,30.2861886],[-97.7392579,30.2861713],[-97.7392393,30.2863578],[-97.7394731,30.2863751],[-97.7394917,30.2861886]]]}},{"type":"Feature","properties":{"kind":"wall","part":"cornice","base":66.3,"h":70.1,"wd":"#ddd2c0","wg":"#e2cfb6","wn":"#c9501c","fam":"twplain","pat":"twplain2"},"geometry":{"type":"Polygon","coordinates":[[[-97.739495,30.2861864],[-97.7392551,30.2861686],[-97.739236,30.28636],[-97.7394759,30.2863778],[-97.739495,30.2861864]]]}},{"type":"Feature","properties":{"kind":"wall","part":"clockstage","base":70.1,"h":78.2,"wd":"#ddd2c0","wg":"#e2cfb6","wn":"#dd6420","fam":"twplain","pat":"twplain3"},"geometry":{"type":"Polygon","coordinates":[[[-97.739474,30.2862005],[-97.739273,30.2861855],[-97.739257,30.2863459],[-97.7394581,30.2863609],[-97.739474,30.2862005]]]}},{"type":"Feature","properties":{"kind":"wall","part":"belfry-foot","base":78.2,"h":79.2,"wd":"#ddd2c0","wg":"#e2cfb6","wn":"#dd6420","fam":"twplain","pat":"twplain3"},"geometry":{"type":"Polygon","coordinates":[[[-97.7394324,30.2862284],[-97.7393085,30.2862192],[-97.7392986,30.286318],[-97.7394225,30.2863272],[-97.7394324,30.2862284]]]}},{"type":"Feature","properties":{"kind":"wall","part":"belfry-entab","base":89.4,"h":90.7,"wd":"#ddd2c0","wg":"#e2cfb6","wn":"#dd6420","fam":"twplain","pat":"twplain3"},"geometry":{"type":"Polygon","coordinates":[[[-97.7394313,30.2862291],[-97.7393094,30.2862201],[-97.7392998,30.2863173],[-97.7394216,30.2863263],[-97.7394313,30.2862291]]]}},{"type":"Feature","properties":{"kind":"wall","part":"cap","base":90.7,"h":92.4,"wd":"#ddd2c0","wg":"#e2cfb6","wn":"#dd6420","fam":"twplain","pat":"twplain3"},"geometry":{"type":"Polygon","coordinates":[[[-97.7394222,30.2862352],[-97.7393172,30.2862274],[-97.7393088,30.2863112],[-97.7394138,30.286319],[-97.7394222,30.2862352]]]}},{"type":"Feature","properties":{"kind":"wall","part":"cap-roof","base":92.4,"h":94.0,"wd":"#6f8477","wg":"#788778","wn":"#1a2028"},"geometry":{"type":"Polygon","coordinates":[[[-97.7394112,30.2862426],[-97.7393265,30.2862363],[-97.7393198,30.2863038],[-97.7394045,30.2863101],[-97.7394112,30.2862426]]]}},{"type":"Feature","properties":{"kind":"wall","part":"belfry-void","base":79.2,"h":89.4,"wd":"#3a352f","wg":"#423a32","wn":"#0d0c10","fam":"twvoid","pat":"twvoid"},"geometry":{"type":"Polygon","coordinates":[[[-97.7394083,30.2862456],[-97.7393288,30.2862397],[-97.7393227,30.2863008],[-97.7394022,30.2863067],[-97.7394083,30.2862456]]]}},{"type":"Feature","properties":{"kind":"post","part":"belfry-pier","base":79.2,"h":89.4,"wd":"#ddd2c0","wg":"#e2cfb6","wn":"#dd6420"},"geometry":{"type":"Polygon","coordinates":[[[-97.7394275,30.2862317],[-97.7394099,30.2862304],[-97.7394083,30.2862456],[-97.739426,30.2862469],[-97.7394275,30.2862317]]]}},{"type":"Feature","properties":{"kind":"post","part":"belfry-pier","base":79.2,"h":89.4,"wd":"#ddd2c0","wg":"#e2cfb6","wn":"#dd6420"},"geometry":{"type":"Polygon","coordinates":[[[-97.7394199,30.286308],[-97.7394022,30.2863067],[-97.7394007,30.2863219],[-97.7394183,30.2863233],[-97.7394199,30.286308]]]}},{"type":"Feature","properties":{"kind":"post","part":"belfry-pier","base":79.2,"h":89.4,"wd":"#ddd2c0","wg":"#e2cfb6","wn":"#dd6420"},"geometry":{"type":"Polygon","coordinates":[[[-97.7393303,30.2862245],[-97.7393127,30.2862231],[-97.7393111,30.2862384],[-97.7393288,30.2862397],[-97.7393303,30.2862245]]]}},{"type":"Feature","properties":{"kind":"post","part":"belfry-pier","base":79.2,"h":89.4,"wd":"#ddd2c0","wg":"#e2cfb6","wn":"#dd6420"},"geometry":{"type":"Polygon","coordinates":[[[-97.7393227,30.2863008],[-97.7393051,30.2862995],[-97.7393035,30.2863147],[-97.7393212,30.286316],[-97.7393227,30.2863008]]]}},{"type":"Feature","properties":{"kind":"post","part":"belfry-col","base":79.2,"h":89.4,"wd":"#ddd2c0","wg":"#e2cfb6","wn":"#dd6420"},"geometry":{"type":"Polygon","coordinates":[[[-97.7394068,30.2862301],[-97.7393954,30.2862293],[-97.7393944,30.2862391],[-97.7394058,30.28624],[-97.7394068,30.2862301]]]}},{"type":"Feature","properties":{"kind":"post","part":"belfry-col","base":79.2,"h":89.4,"wd":"#ddd2c0","wg":"#e2cfb6","wn":"#dd6420"},"geometry":{"type":"Polygon","coordinates":[[[-97.7393987,30.2863119],[-97.7393873,30.286311],[-97.7393863,30.2863209],[-97.7393977,30.2863217],[-97.7393987,30.2863119]]]}},{"type":"Feature","properties":{"kind":"post","part":"belfry-col","base":79.2,"h":89.4,"wd":"#ddd2c0","wg":"#e2cfb6","wn":"#dd6420"},"geometry":{"type":"Polygon","coordinates":[[[-97.7393925,30.2862291],[-97.7393811,30.2862282],[-97.7393801,30.2862381],[-97.7393915,30.2862389],[-97.7393925,30.2862291]]]}},{"type":"Feature","properties":{"kind":"post","part":"belfry-col","base":79.2,"h":89.4,"wd":"#ddd2c0","wg":"#e2cfb6","wn":"#dd6420"},"geometry":{"type":"Polygon","coordinates":[[[-97.7393843,30.2863108],[-97.7393729,30.28631],[-97.739372,30.2863198],[-97.7393834,30.2863207],[-97.7393843,30.2863108]]]}},{"type":"Feature","properties":{"kind":"post","part":"belfry-col","base":79.2,"h":89.4,"wd":"#ddd2c0","wg":"#e2cfb6","wn":"#dd6420"},"geometry":{"type":"Polygon","coordinates":[[[-97.7393591,30.2862266],[-97.7393477,30.2862257],[-97.7393467,30.2862356],[-97.7393581,30.2862364],[-97.7393591,30.2862266]]]}},{"type":"Feature","properties":{"kind":"post","part":"belfry-col","base":79.2,"h":89.4,"wd":"#ddd2c0","wg":"#e2cfb6","wn":"#dd6420"},"geometry":{"type":"Polygon","coordinates":[[[-97.7393509,30.2863083],[-97.7393395,30.2863075],[-97.7393385,30.2863173],[-97.7393499,30.2863182],[-97.7393509,30.2863083]]]}},{"type":"Feature","properties":{"kind":"post","part":"belfry-col","base":79.2,"h":89.4,"wd":"#ddd2c0","wg":"#e2cfb6","wn":"#dd6420"},"geometry":{"type":"Polygon","coordinates":[[[-97.7393447,30.2862255],[-97.7393333,30.2862247],[-97.7393324,30.2862345],[-97.7393438,30.2862354],[-97.7393447,30.2862255]]]}},{"type":"Feature","properties":{"kind":"post","part":"belfry-col","base":79.2,"h":89.4,"wd":"#ddd2c0","wg":"#e2cfb6","wn":"#dd6420"},"geometry":{"type":"Polygon","coordinates":[[[-97.7393366,30.2863073],[-97.7393252,30.2863064],[-97.7393242,30.2863163],[-97.7393356,30.2863171],[-97.7393366,30.2863073]]]}},{"type":"Feature","properties":{"kind":"post","part":"belfry-col","base":79.2,"h":89.4,"wd":"#ddd2c0","wg":"#e2cfb6","wn":"#dd6420"},"geometry":{"type":"Polygon","coordinates":[[[-97.7394258,30.2862487],[-97.7394144,30.2862478],[-97.7394134,30.2862577],[-97.7394248,30.2862585],[-97.7394258,30.2862487]]]}},{"type":"Feature","properties":{"kind":"post","part":"belfry-col","base":79.2,"h":89.4,"wd":"#ddd2c0","wg":"#e2cfb6","wn":"#dd6420"},"geometry":{"type":"Polygon","coordinates":[[[-97.7393224,30.286241],[-97.739311,30.2862402],[-97.73931,30.28625],[-97.7393214,30.2862509],[-97.7393224,30.286241]]]}},{"type":"Feature","properties":{"kind":"post","part":"belfry-col","base":79.2,"h":89.4,"wd":"#ddd2c0","wg":"#e2cfb6","wn":"#dd6420"},"geometry":{"type":"Polygon","coordinates":[[[-97.7394247,30.2862597],[-97.7394133,30.2862589],[-97.7394123,30.2862687],[-97.7394237,30.2862695],[-97.7394247,30.2862597]]]}},{"type":"Feature","properties":{"kind":"post","part":"belfry-col","base":79.2,"h":89.4,"wd":"#ddd2c0","wg":"#e2cfb6","wn":"#dd6420"},"geometry":{"type":"Polygon","coordinates":[[[-97.7393213,30.286252],[-97.7393099,30.2862512],[-97.7393089,30.286261],[-97.7393203,30.2862619],[-97.7393213,30.286252]]]}},{"type":"Feature","properties":{"kind":"post","part":"belfry-col","base":79.2,"h":89.4,"wd":"#ddd2c0","wg":"#e2cfb6","wn":"#dd6420"},"geometry":{"type":"Polygon","coordinates":[[[-97.7394221,30.2862854],[-97.7394107,30.2862845],[-97.7394097,30.2862944],[-97.7394211,30.2862952],[-97.7394221,30.2862854]]]}},{"type":"Feature","properties":{"kind":"post","part":"belfry-col","base":79.2,"h":89.4,"wd":"#ddd2c0","wg":"#e2cfb6","wn":"#dd6420"},"geometry":{"type":"Polygon","coordinates":[[[-97.7393187,30.2862777],[-97.7393073,30.2862769],[-97.7393063,30.2862867],[-97.7393177,30.2862875],[-97.7393187,30.2862777]]]}},{"type":"Feature","properties":{"kind":"post","part":"belfry-col","base":79.2,"h":89.4,"wd":"#ddd2c0","wg":"#e2cfb6","wn":"#dd6420"},"geometry":{"type":"Polygon","coordinates":[[[-97.739421,30.2862964],[-97.7394096,30.2862955],[-97.7394086,30.2863054],[-97.73942,30.2863062],[-97.739421,30.2862964]]]}},{"type":"Feature","properties":{"kind":"post","part":"belfry-col","base":79.2,"h":89.4,"wd":"#ddd2c0","wg":"#e2cfb6","wn":"#dd6420"},"geometry":{"type":"Polygon","coordinates":[[[-97.7393176,30.2862887],[-97.7393062,30.2862879],[-97.7393052,30.2862977],[-97.7393166,30.2862986],[-97.7393176,30.2862887]]]}},{"type":"Feature","properties":{"kind":"slot","part":"slot","base":23.0,"h":65.1,"wd":"#8a7448","wg":"#967b4e","wn":"#2a1a0c"},"geometry":{"type":"Polygon","coordinates":[[[-97.7394244,30.2861809],[-97.7394097,30.2861798],[-97.7394094,30.2861825],[-97.7394241,30.2861836],[-97.7394244,30.2861809]]]}},{"type":"Feature","properties":{"kind":"win","part":"win-lit","base":24.5,"h":26.7,"wd":"#3a4048","wg":"#46484b","wn":"#ffdca8","lit":1},"geometry":{"type":"Polygon","coordinates":[[[-97.7394245,30.2861804],[-97.7394097,30.2861793],[-97.7394094,30.2861825],[-97.7394241,30.2861836],[-97.7394245,30.2861804]]]}},{"type":"Feature","properties":{"kind":"win","part":"win","base":27.96,"h":30.16,"wd":"#3a4048","wg":"#46484b","wn":"#14161c","lit":0},"geometry":{"type":"Polygon","coordinates":[[[-97.7394245,30.2861804],[-97.7394097,30.2861793],[-97.7394094,30.2861825],[-97.7394241,30.2861836],[-97.7394245,30.2861804]]]}},{"type":"Feature","properties":{"kind":"win","part":"win","base":31.42,"h":33.62,"wd":"#3a4048","wg":"#46484b","wn":"#14161c","lit":0},"geometry":{"type":"Polygon","coordinates":[[[-97.7394245,30.2861804],[-97.7394097,30.2861793],[-97.7394094,30.2861825],[-97.7394241,30.2861836],[-97.7394245,30.2861804]]]}},{"type":"Feature","properties":{"kind":"win","part":"win","base":34.88,"h":37.08,"wd":"#3a4048","wg":"#46484b","wn":"#14161c","lit":0},"geometry":{"type":"Polygon","coordinates":[[[-97.7394245,30.2861804],[-97.7394097,30.2861793],[-97.7394094,30.2861825],[-97.7394241,30.2861836],[-97.7394245,30.2861804]]]}},{"type":"Feature","properties":{"kind":"win","part":"win","base":38.34,"h":40.54,"wd":"#3a4048","wg":"#46484b","wn":"#14161c","lit":0},"geometry":{"type":"Polygon","coordinates":[[[-97.7394245,30.2861804],[-97.7394097,30.2861793],[-97.7394094,30.2861825],[-97.7394241,30.2861836],[-97.7394245,30.2861804]]]}},{"type":"Feature","properties":{"kind":"win","part":"win","base":41.8,"h":44.0,"wd":"#3a4048","wg":"#46484b","wn":"#14161c","lit":0},"geometry":{"type":"Polygon","coordinates":[[[-97.7394245,30.2861804],[-97.7394097,30.2861793],[-97.7394094,30.2861825],[-97.7394241,30.2861836],[-97.7394245,30.2861804]]]}},{"type":"Feature","properties":{"kind":"win","part":"win","base":45.26,"h":47.46,"wd":"#3a4048","wg":"#46484b","wn":"#14161c","lit":0},"geometry":{"type":"Polygon","coordinates":[[[-97.7394245,30.2861804],[-97.7394097,30.2861793],[-97.7394094,30.2861825],[-97.7394241,30.2861836],[-97.7394245,30.2861804]]]}},{"type":"Feature","properties":{"kind":"win","part":"win","base":48.72,"h":50.92,"wd":"#3a4048","wg":"#46484b","wn":"#14161c","lit":0},"geometry":{"type":"Polygon","coordinates":[[[-97.7394245,30.2861804],[-97.7394097,30.2861793],[-97.7394094,30.2861825],[-97.7394241,30.2861836],[-97.7394245,30.2861804]]]}},{"type":"Feature","properties":{"kind":"win","part":"win","base":52.18,"h":54.38,"wd":"#3a4048","wg":"#46484b","wn":"#14161c","lit":0},"geometry":{"type":"Polygon","coordinates":[[[-97.7394245,30.2861804],[-97.7394097,30.2861793],[-97.7394094,30.2861825],[-97.7394241,30.2861836],[-97.7394245,30.2861804]]]}},{"type":"Feature","properties":{"kind":"win","part":"win-lit","base":55.64,"h":57.84,"wd":"#3a4048","wg":"#46484b","wn":"#ffdca8","lit":1},"geometry":{"type":"Polygon","coordinates":[[[-97.7394245,30.2861804],[-97.7394097,30.2861793],[-97.7394094,30.2861825],[-97.7394241,30.2861836],[-97.7394245,30.2861804]]]}},{"type":"Feature","properties":{"kind":"win","part":"win-lit","base":59.1,"h":61.3,"wd":"#3a4048","wg":"#46484b","wn":"#ffdca8","lit":1},"geometry":{"type":"Polygon","coordinates":[[[-97.7394245,30.2861804],[-97.7394097,30.2861793],[-97.7394094,30.2861825],[-97.7394241,30.2861836],[-97.7394245,30.2861804]]]}},{"type":"Feature","properties":{"kind":"win","part":"win","base":62.56,"h":64.76,"wd":"#3a4048","wg":"#46484b","wn":"#14161c","lit":0},"geometry":{"type":"Polygon","coordinates":[[[-97.7394245,30.2861804],[-97.7394097,30.2861793],[-97.7394094,30.2861825],[-97.7394241,30.2861836],[-97.7394245,30.2861804]]]}},{"type":"Feature","properties":{"kind":"slot","part":"slot","base":23.0,"h":65.1,"wd":"#8a7448","wg":"#967b4e","wn":"#2a1a0c"},"geometry":{"type":"Polygon","coordinates":[[[-97.7393824,30.2861778],[-97.7393677,30.2861767],[-97.7393674,30.2861794],[-97.7393822,30.2861805],[-97.7393824,30.2861778]]]}},{"type":"Feature","properties":{"kind":"win","part":"win-lit","base":24.5,"h":26.7,"wd":"#3a4048","wg":"#46484b","wn":"#ffdca8","lit":1},"geometry":{"type":"Polygon","coordinates":[[[-97.7393825,30.2861773],[-97.7393678,30.2861762],[-97.7393674,30.2861794],[-97.7393822,30.2861805],[-97.7393825,30.2861773]]]}},{"type":"Feature","properties":{"kind":"win","part":"win-lit","base":27.96,"h":30.16,"wd":"#3a4048","wg":"#46484b","wn":"#ffdca8","lit":1},"geometry":{"type":"Polygon","coordinates":[[[-97.7393825,30.2861773],[-97.7393678,30.2861762],[-97.7393674,30.2861794],[-97.7393822,30.2861805],[-97.7393825,30.2861773]]]}},{"type":"Feature","properties":{"kind":"win","part":"win-lit","base":31.42,"h":33.62,"wd":"#3a4048","wg":"#46484b","wn":"#ffdca8","lit":1},"geometry":{"type":"Polygon","coordinates":[[[-97.7393825,30.2861773],[-97.7393678,30.2861762],[-97.7393674,30.2861794],[-97.7393822,30.2861805],[-97.7393825,30.2861773]]]}},{"type":"Feature","properties":{"kind":"win","part":"win-lit","base":34.88,"h":37.08,"wd":"#3a4048","wg":"#46484b","wn":"#ffdca8","lit":1},"geometry":{"type":"Polygon","coordinates":[[[-97.7393825,30.2861773],[-97.7393678,30.2861762],[-97.7393674,30.2861794],[-97.7393822,30.2861805],[-97.7393825,30.2861773]]]}},{"type":"Feature","properties":{"kind":"win","part":"win-lit","base":38.34,"h":40.54,"wd":"#3a4048","wg":"#46484b","wn":"#ffdca8","lit":1},"geometry":{"type":"Polygon","coordinates":[[[-97.7393825,30.2861773],[-97.7393678,30.2861762],[-97.7393674,30.2861794],[-97.7393822,30.2861805],[-97.7393825,30.2861773]]]}},{"type":"Feature","properties":{"kind":"win","part":"win-lit","base":41.8,"h":44.0,"wd":"#3a4048","wg":"#46484b","wn":"#ffdca8","lit":1},"geometry":{"type":"Polygon","coordinates":[[[-97.7393825,30.2861773],[-97.7393678,30.2861762],[-97.7393674,30.2861794],[-97.7393822,30.2861805],[-97.7393825,30.2861773]]]}},{"type":"Feature","properties":{"kind":"win","part":"win-lit","base":45.26,"h":47.46,"wd":"#3a4048","wg":"#46484b","wn":"#ffdca8","lit":1},"geometry":{"type":"Polygon","coordinates":[[[-97.7393825,30.2861773],[-97.7393678,30.2861762],[-97.7393674,30.2861794],[-97.7393822,30.2861805],[-97.7393825,30.2861773]]]}},{"type":"Feature","properties":{"kind":"win","part":"win-lit","base":48.72,"h":50.92,"wd":"#3a4048","wg":"#46484b","wn":"#ffdca8","lit":1},"geometry":{"type":"Polygon","coordinates":[[[-97.7393825,30.2861773],[-97.7393678,30.2861762],[-97.7393674,30.2861794],[-97.7393822,30.2861805],[-97.7393825,30.2861773]]]}},{"type":"Feature","properties":{"kind":"win","part":"win-lit","base":52.18,"h":54.38,"wd":"#3a4048","wg":"#46484b","wn":"#ffdca8","lit":1},"geometry":{"type":"Polygon","coordinates":[[[-97.7393825,30.2861773],[-97.7393678,30.2861762],[-97.7393674,30.2861794],[-97.7393822,30.2861805],[-97.7393825,30.2861773]]]}},{"type":"Feature","properties":{"kind":"win","part":"win-lit","base":55.64,"h":57.84,"wd":"#3a4048","wg":"#46484b","wn":"#ffdca8","lit":1},"geometry":{"type":"Polygon","coordinates":[[[-97.7393825,30.2861773],[-97.7393678,30.2861762],[-97.7393674,30.2861794],[-97.7393822,30.2861805],[-97.7393825,30.2861773]]]}},{"type":"Feature","properties":{"kind":"win","part":"win-lit","base":59.1,"h":61.3,"wd":"#3a4048","wg":"#46484b","wn":"#ffdca8","lit":1},"geometry":{"type":"Polygon","coordinates":[[[-97.7393825,30.2861773],[-97.7393678,30.2861762],[-97.7393674,30.2861794],[-97.7393822,30.2861805],[-97.7393825,30.2861773]]]}},{"type":"Feature","properties":{"kind":"win","part":"win-lit","base":62.56,"h":64.76,"wd":"#3a4048","wg":"#46484b","wn":"#ffdca8","lit":1},"geometry":{"type":"Polygon","coordinates":[[[-97.7393825,30.2861773],[-97.7393678,30.2861762],[-97.7393674,30.2861794],[-97.7393822,30.2861805],[-97.7393825,30.2861773]]]}},{"type":"Feature","properties":{"kind":"slot","part":"slot","base":23.0,"h":65.1,"wd":"#8a7448","wg":"#967b4e","wn":"#2a1a0c"},"geometry":{"type":"Polygon","coordinates":[[[-97.7393404,30.2861747],[-97.7393257,30.2861736],[-97.7393255,30.2861763],[-97.7393402,30.2861774],[-97.7393404,30.2861747]]]}},{"type":"Feature","properties":{"kind":"win","part":"win-lit","base":24.5,"h":26.7,"wd":"#3a4048","wg":"#46484b","wn":"#ffdca8","lit":1},"geometry":{"type":"Polygon","coordinates":[[[-97.7393405,30.2861741],[-97.7393258,30.2861731],[-97.7393255,30.2861763],[-97.7393402,30.2861774],[-97.7393405,30.2861741]]]}},{"type":"Feature","properties":{"kind":"win","part":"win","base":27.96,"h":30.16,"wd":"#3a4048","wg":"#46484b","wn":"#14161c","lit":0},"geometry":{"type":"Polygon","coordinates":[[[-97.7393405,30.2861741],[-97.7393258,30.2861731],[-97.7393255,30.2861763],[-97.7393402,30.2861774],[-97.7393405,30.2861741]]]}},{"type":"Feature","properties":{"kind":"win","part":"win","base":31.42,"h":33.62,"wd":"#3a4048","wg":"#46484b","wn":"#14161c","lit":0},"geometry":{"type":"Polygon","coordinates":[[[-97.7393405,30.2861741],[-97.7393258,30.2861731],[-97.7393255,30.2861763],[-97.7393402,30.2861774],[-97.7393405,30.2861741]]]}},{"type":"Feature","properties":{"kind":"win","part":"win","base":34.88,"h":37.08,"wd":"#3a4048","wg":"#46484b","wn":"#14161c","lit":0},"geometry":{"type":"Polygon","coordinates":[[[-97.7393405,30.2861741],[-97.7393258,30.2861731],[-97.7393255,30.2861763],[-97.7393402,30.2861774],[-97.7393405,30.2861741]]]}},{"type":"Feature","properties":{"kind":"win","part":"win","base":38.34,"h":40.54,"wd":"#3a4048","wg":"#46484b","wn":"#14161c","lit":0},"geometry":{"type":"Polygon","coordinates":[[[-97.7393405,30.2861741],[-97.7393258,30.2861731],[-97.7393255,30.2861763],[-97.7393402,30.2861774],[-97.7393405,30.2861741]]]}},{"type":"Feature","properties":{"kind":"win","part":"win","base":41.8,"h":44.0,"wd":"#3a4048","wg":"#46484b","wn":"#14161c","lit":0},"geometry":{"type":"Polygon","coordinates":[[[-97.7393405,30.2861741],[-97.7393258,30.2861731],[-97.7393255,30.2861763],[-97.7393402,30.2861774],[-97.7393405,30.2861741]]]}},{"type":"Feature","properties":{"kind":"win","part":"win","base":45.26,"h":47.46,"wd":"#3a4048","wg":"#46484b","wn":"#14161c","lit":0},"geometry":{"type":"Polygon","coordinates":[[[-97.7393405,30.2861741],[-97.7393258,30.2861731],[-97.7393255,30.2861763],[-97.7393402,30.2861774],[-97.7393405,30.2861741]]]}},{"type":"Feature","properties":{"kind":"win","part":"win","base":48.72,"h":50.92,"wd":"#3a4048","wg":"#46484b","wn":"#14161c","lit":0},"geometry":{"type":"Polygon","coordinates":[[[-97.7393405,30.2861741],[-97.7393258,30.2861731],[-97.7393255,30.2861763],[-97.7393402,30.2861774],[-97.7393405,30.2861741]]]}},{"type":"Feature","properties":{"kind":"win","part":"win","base":52.18,"h":54.38,"wd":"#3a4048","wg":"#46484b","wn":"#14161c","lit":0},"geometry":{"type":"Polygon","coordinates":[[[-97.7393405,30.2861741],[-97.7393258,30.2861731],[-97.7393255,30.2861763],[-97.7393402,30.2861774],[-97.7393405,30.2861741]]]}},{"type":"Feature","properties":{"kind":"win","part":"win","base":55.64,"h":57.84,"wd":"#3a4048","wg":"#46484b","wn":"#14161c","lit":0},"geometry":{"type":"Polygon","coordinates":[[[-97.7393405,30.2861741],[-97.7393258,30.2861731],[-97.7393255,30.2861763],[-97.7393402,30.2861774],[-97.7393405,30.2861741]]]}},{"type":"Feature","properties":{"kind":"win","part":"win","base":59.1,"h":61.3,"wd":"#3a4048","wg":"#46484b","wn":"#14161c","lit":0},"geometry":{"type":"Polygon","coordinates":[[[-97.7393405,30.2861741],[-97.7393258,30.2861731],[-97.7393255,30.2861763],[-97.7393402,30.2861774],[-97.7393405,30.2861741]]]}},{"type":"Feature","properties":{"kind":"win","part":"win","base":62.56,"h":64.76,"wd":"#3a4048","wg":"#46484b","wn":"#14161c","lit":0},"geometry":{"type":"Polygon","coordinates":[[[-97.7393405,30.2861741],[-97.7393258,30.2861731],[-97.7393255,30.2861763],[-97.7393402,30.2861774],[-97.7393405,30.2861741]]]}},{"type":"Feature","properties":{"kind":"slot","part":"slot","base":23.0,"h":65.1,"wd":"#8a7448","wg":"#967b4e","wn":"#2a1a0c"},"geometry":{"type":"Polygon","coordinates":[[[-97.7394055,30.2863701],[-97.7393908,30.286369],[-97.7393906,30.2863717],[-97.7394053,30.2863728],[-97.7394055,30.2863701]]]}},{"type":"Feature","properties":{"kind":"win","part":"win-lit","base":24.5,"h":26.7,"wd":"#3a4048","wg":"#46484b","wn":"#ffdca8","lit":1},"geometry":{"type":"Polygon","coordinates":[[[-97.7394055,30.2863701],[-97.7393908,30.286369],[-97.7393905,30.2863723],[-97.7394052,30.2863733],[-97.7394055,30.2863701]]]}},{"type":"Feature","properties":{"kind":"win","part":"win","base":27.96,"h":30.16,"wd":"#3a4048","wg":"#46484b","wn":"#14161c","lit":0},"geometry":{"type":"Polygon","coordinates":[[[-97.7394055,30.2863701],[-97.7393908,30.286369],[-97.7393905,30.2863723],[-97.7394052,30.2863733],[-97.7394055,30.2863701]]]}},{"type":"Feature","properties":{"kind":"win","part":"win","base":31.42,"h":33.62,"wd":"#3a4048","wg":"#46484b","wn":"#14161c","lit":0},"geometry":{"type":"Polygon","coordinates":[[[-97.7394055,30.2863701],[-97.7393908,30.286369],[-97.7393905,30.2863723],[-97.7394052,30.2863733],[-97.7394055,30.2863701]]]}},{"type":"Feature","properties":{"kind":"win","part":"win","base":34.88,"h":37.08,"wd":"#3a4048","wg":"#46484b","wn":"#14161c","lit":0},"geometry":{"type":"Polygon","coordinates":[[[-97.7394055,30.2863701],[-97.7393908,30.286369],[-97.7393905,30.2863723],[-97.7394052,30.2863733],[-97.7394055,30.2863701]]]}},{"type":"Feature","properties":{"kind":"win","part":"win","base":38.34,"h":40.54,"wd":"#3a4048","wg":"#46484b","wn":"#14161c","lit":0},"geometry":{"type":"Polygon","coordinates":[[[-97.7394055,30.2863701],[-97.7393908,30.286369],[-97.7393905,30.2863723],[-97.7394052,30.2863733],[-97.7394055,30.2863701]]]}},{"type":"Feature","properties":{"kind":"win","part":"win","base":41.8,"h":44.0,"wd":"#3a4048","wg":"#46484b","wn":"#14161c","lit":0},"geometry":{"type":"Polygon","coordinates":[[[-97.7394055,30.2863701],[-97.7393908,30.286369],[-97.7393905,30.2863723],[-97.7394052,30.2863733],[-97.7394055,30.2863701]]]}},{"type":"Feature","properties":{"kind":"win","part":"win","base":45.26,"h":47.46,"wd":"#3a4048","wg":"#46484b","wn":"#14161c","lit":0},"geometry":{"type":"Polygon","coordinates":[[[-97.7394055,30.2863701],[-97.7393908,30.286369],[-97.7393905,30.2863723],[-97.7394052,30.2863733],[-97.7394055,30.2863701]]]}},{"type":"Feature","properties":{"kind":"win","part":"win","base":48.72,"h":50.92,"wd":"#3a4048","wg":"#46484b","wn":"#14161c","lit":0},"geometry":{"type":"Polygon","coordinates":[[[-97.7394055,30.2863701],[-97.7393908,30.286369],[-97.7393905,30.2863723],[-97.7394052,30.2863733],[-97.7394055,30.2863701]]]}},{"type":"Feature","properties":{"kind":"win","part":"win","base":52.18,"h":54.38,"wd":"#3a4048","wg":"#46484b","wn":"#14161c","lit":0},"geometry":{"type":"Polygon","coordinates":[[[-97.7394055,30.2863701],[-97.7393908,30.286369],[-97.7393905,30.2863723],[-97.7394052,30.2863733],[-97.7394055,30.2863701]]]}},{"type":"Feature","properties":{"kind":"win","part":"win-lit","base":55.64,"h":57.84,"wd":"#3a4048","wg":"#46484b","wn":"#ffdca8","lit":1},"geometry":{"type":"Polygon","coordinates":[[[-97.7394055,30.2863701],[-97.7393908,30.286369],[-97.7393905,30.2863723],[-97.7394052,30.2863733],[-97.7394055,30.2863701]]]}},{"type":"Feature","properties":{"kind":"win","part":"win-lit","base":59.1,"h":61.3,"wd":"#3a4048","wg":"#46484b","wn":"#ffdca8","lit":1},"geometry":{"type":"Polygon","coordinates":[[[-97.7394055,30.2863701],[-97.7393908,30.286369],[-97.7393905,30.2863723],[-97.7394052,30.2863733],[-97.7394055,30.2863701]]]}},{"type":"Feature","properties":{"kind":"win","part":"win","base":62.56,"h":64.76,"wd":"#3a4048","wg":"#46484b","wn":"#14161c","lit":0},"geometry":{"type":"Polygon","coordinates":[[[-97.7394055,30.2863701],[-97.7393908,30.286369],[-97.7393905,30.2863723],[-97.7394052,30.2863733],[-97.7394055,30.2863701]]]}},{"type":"Feature","properties":{"kind":"slot","part":"slot","base":23.0,"h":65.1,"wd":"#8a7448","wg":"#967b4e","wn":"#2a1a0c"},"geometry":{"type":"Polygon","coordinates":[[[-97.7393636,30.286367],[-97.7393489,30.2863659],[-97.7393486,30.2863686],[-97.7393633,30.2863697],[-97.7393636,30.286367]]]}},{"type":"Feature","properties":{"kind":"win","part":"win-lit","base":24.5,"h":26.7,"wd":"#3a4048","wg":"#46484b","wn":"#ffdca8","lit":1},"geometry":{"type":"Polygon","coordinates":[[[-97.7393636,30.286367],[-97.7393489,30.2863659],[-97.7393485,30.2863691],[-97.7393633,30.2863702],[-97.7393636,30.286367]]]}},{"type":"Feature","properties":{"kind":"win","part":"win-lit","base":27.96,"h":30.16,"wd":"#3a4048","wg":"#46484b","wn":"#ffdca8","lit":1},"geometry":{"type":"Polygon","coordinates":[[[-97.7393636,30.286367],[-97.7393489,30.2863659],[-97.7393485,30.2863691],[-97.7393633,30.2863702],[-97.7393636,30.286367]]]}},{"type":"Feature","properties":{"kind":"win","part":"win-lit","base":31.42,"h":33.62,"wd":"#3a4048","wg":"#46484b","wn":"#ffdca8","lit":1},"geometry":{"type":"Polygon","coordinates":[[[-97.7393636,30.286367],[-97.7393489,30.2863659],[-97.7393485,30.2863691],[-97.7393633,30.2863702],[-97.7393636,30.286367]]]}},{"type":"Feature","properties":{"kind":"win","part":"win-lit","base":34.88,"h":37.08,"wd":"#3a4048","wg":"#46484b","wn":"#ffdca8","lit":1},"geometry":{"type":"Polygon","coordinates":[[[-97.7393636,30.286367],[-97.7393489,30.2863659],[-97.7393485,30.2863691],[-97.7393633,30.2863702],[-97.7393636,30.286367]]]}},{"type":"Feature","properties":{"kind":"win","part":"win-lit","base":38.34,"h":40.54,"wd":"#3a4048","wg":"#46484b","wn":"#ffdca8","lit":1},"geometry":{"type":"Polygon","coordinates":[[[-97.7393636,30.286367],[-97.7393489,30.2863659],[-97.7393485,30.2863691],[-97.7393633,30.2863702],[-97.7393636,30.286367]]]}},{"type":"Feature","properties":{"kind":"win","part":"win-lit","base":41.8,"h":44.0,"wd":"#3a4048","wg":"#46484b","wn":"#ffdca8","lit":1},"geometry":{"type":"Polygon","coordinates":[[[-97.7393636,30.286367],[-97.7393489,30.2863659],[-97.7393485,30.2863691],[-97.7393633,30.2863702],[-97.7393636,30.286367]]]}},{"type":"Feature","properties":{"kind":"win","part":"win-lit","base":45.26,"h":47.46,"wd":"#3a4048","wg":"#46484b","wn":"#ffdca8","lit":1},"geometry":{"type":"Polygon","coordinates":[[[-97.7393636,30.286367],[-97.7393489,30.2863659],[-97.7393485,30.2863691],[-97.7393633,30.2863702],[-97.7393636,30.286367]]]}},{"type":"Feature","properties":{"kind":"win","part":"win-lit","base":48.72,"h":50.92,"wd":"#3a4048","wg":"#46484b","wn":"#ffdca8","lit":1},"geometry":{"type":"Polygon","coordinates":[[[-97.7393636,30.286367],[-97.7393489,30.2863659],[-97.7393485,30.2863691],[-97.7393633,30.2863702],[-97.7393636,30.286367]]]}},{"type":"Feature","properties":{"kind":"win","part":"win-lit","base":52.18,"h":54.38,"wd":"#3a4048","wg":"#46484b","wn":"#ffdca8","lit":1},"geometry":{"type":"Polygon","coordinates":[[[-97.7393636,30.286367],[-97.7393489,30.2863659],[-97.7393485,30.2863691],[-97.7393633,30.2863702],[-97.7393636,30.286367]]]}},{"type":"Feature","properties":{"kind":"win","part":"win-lit","base":55.64,"h":57.84,"wd":"#3a4048","wg":"#46484b","wn":"#ffdca8","lit":1},"geometry":{"type":"Polygon","coordinates":[[[-97.7393636,30.286367],[-97.7393489,30.2863659],[-97.7393485,30.2863691],[-97.7393633,30.2863702],[-97.7393636,30.286367]]]}},{"type":"Feature","properties":{"kind":"win","part":"win-lit","base":59.1,"h":61.3,"wd":"#3a4048","wg":"#46484b","wn":"#ffdca8","lit":1},"geometry":{"type":"Polygon","coordinates":[[[-97.7393636,30.286367],[-97.7393489,30.2863659],[-97.7393485,30.2863691],[-97.7393633,30.2863702],[-97.7393636,30.286367]]]}},{"type":"Feature","properties":{"kind":"win","part":"win-lit","base":62.56,"h":64.76,"wd":"#3a4048","wg":"#46484b","wn":"#ffdca8","lit":1},"geometry":{"type":"Polygon","coordinates":[[[-97.7393636,30.286367],[-97.7393489,30.2863659],[-97.7393485,30.2863691],[-97.7393633,30.2863702],[-97.7393636,30.286367]]]}},{"type":"Feature","properties":{"kind":"slot","part":"slot","base":23.0,"h":65.1,"wd":"#8a7448","wg":"#967b4e","wn":"#2a1a0c"},"geometry":{"type":"Polygon","coordinates":[[[-97.7393216,30.2863639],[-97.7393069,30.2863628],[-97.7393066,30.2863655],[-97.7393213,30.2863666],[-97.7393216,30.2863639]]]}},{"type":"Feature","properties":{"kind":"win","part":"win-lit","base":24.5,"h":26.7,"wd":"#3a4048","wg":"#46484b","wn":"#ffdca8","lit":1},"geometry":{"type":"Polygon","coordinates":[[[-97.7393216,30.2863639],[-97.7393069,30.2863628],[-97.7393066,30.286366],[-97.7393213,30.2863671],[-97.7393216,30.2863639]]]}},{"type":"Feature","properties":{"kind":"win","part":"win","base":27.96,"h":30.16,"wd":"#3a4048","wg":"#46484b","wn":"#14161c","lit":0},"geometry":{"type":"Polygon","coordinates":[[[-97.7393216,30.2863639],[-97.7393069,30.2863628],[-97.7393066,30.286366],[-97.7393213,30.2863671],[-97.7393216,30.2863639]]]}},{"type":"Feature","properties":{"kind":"win","part":"win","base":31.42,"h":33.62,"wd":"#3a4048","wg":"#46484b","wn":"#14161c","lit":0},"geometry":{"type":"Polygon","coordinates":[[[-97.7393216,30.2863639],[-97.7393069,30.2863628],[-97.7393066,30.286366],[-97.7393213,30.2863671],[-97.7393216,30.2863639]]]}},{"type":"Feature","properties":{"kind":"win","part":"win","base":34.88,"h":37.08,"wd":"#3a4048","wg":"#46484b","wn":"#14161c","lit":0},"geometry":{"type":"Polygon","coordinates":[[[-97.7393216,30.2863639],[-97.7393069,30.2863628],[-97.7393066,30.286366],[-97.7393213,30.2863671],[-97.7393216,30.2863639]]]}},{"type":"Feature","properties":{"kind":"win","part":"win","base":38.34,"h":40.54,"wd":"#3a4048","wg":"#46484b","wn":"#14161c","lit":0},"geometry":{"type":"Polygon","coordinates":[[[-97.7393216,30.2863639],[-97.7393069,30.2863628],[-97.7393066,30.286366],[-97.7393213,30.2863671],[-97.7393216,30.2863639]]]}},{"type":"Feature","properties":{"kind":"win","part":"win","base":41.8,"h":44.0,"wd":"#3a4048","wg":"#46484b","wn":"#14161c","lit":0},"geometry":{"type":"Polygon","coordinates":[[[-97.7393216,30.2863639],[-97.7393069,30.2863628],[-97.7393066,30.286366],[-97.7393213,30.2863671],[-97.7393216,30.2863639]]]}},{"type":"Feature","properties":{"kind":"win","part":"win","base":45.26,"h":47.46,"wd":"#3a4048","wg":"#46484b","wn":"#14161c","lit":0},"geometry":{"type":"Polygon","coordinates":[[[-97.7393216,30.2863639],[-97.7393069,30.2863628],[-97.7393066,30.286366],[-97.7393213,30.2863671],[-97.7393216,30.2863639]]]}},{"type":"Feature","properties":{"kind":"win","part":"win","base":48.72,"h":50.92,"wd":"#3a4048","wg":"#46484b","wn":"#14161c","lit":0},"geometry":{"type":"Polygon","coordinates":[[[-97.7393216,30.2863639],[-97.7393069,30.2863628],[-97.7393066,30.286366],[-97.7393213,30.2863671],[-97.7393216,30.2863639]]]}},{"type":"Feature","properties":{"kind":"win","part":"win","base":52.18,"h":54.38,"wd":"#3a4048","wg":"#46484b","wn":"#14161c","lit":0},"geometry":{"type":"Polygon","coordinates":[[[-97.7393216,30.2863639],[-97.7393069,30.2863628],[-97.7393066,30.286366],[-97.7393213,30.2863671],[-97.7393216,30.2863639]]]}},{"type":"Feature","properties":{"kind":"win","part":"win","base":55.64,"h":57.84,"wd":"#3a4048","wg":"#46484b","wn":"#14161c","lit":0},"geometry":{"type":"Polygon","coordinates":[[[-97.7393216,30.2863639],[-97.7393069,30.2863628],[-97.7393066,30.286366],[-97.7393213,30.2863671],[-97.7393216,30.2863639]]]}},{"type":"Feature","properties":{"kind":"win","part":"win","base":59.1,"h":61.3,"wd":"#3a4048","wg":"#46484b","wn":"#14161c","lit":0},"geometry":{"type":"Polygon","coordinates":[[[-97.7393216,30.2863639],[-97.7393069,30.2863628],[-97.7393066,30.286366],[-97.7393213,30.2863671],[-97.7393216,30.2863639]]]}},{"type":"Feature","properties":{"kind":"win","part":"win","base":62.56,"h":64.76,"wd":"#3a4048","wg":"#46484b","wn":"#14161c","lit":0},"geometry":{"type":"Polygon","coordinates":[[[-97.7393216,30.2863639],[-97.7393069,30.2863628],[-97.7393066,30.286366],[-97.7393213,30.2863671],[-97.7393216,30.2863639]]]}},{"type":"Feature","properties":{"kind":"slot","part":"slot","base":23.0,"h":65.1,"wd":"#8a7448","wg":"#967b4e","wn":"#2a1a0c"},"geometry":{"type":"Polygon","coordinates":[[[-97.7394898,30.2862395],[-97.7394867,30.2862393],[-97.7394854,30.286252],[-97.7394885,30.2862522],[-97.7394898,30.2862395]]]}},{"type":"Feature","properties":{"kind":"win","part":"win-lit","base":24.5,"h":26.7,"wd":"#3a4048","wg":"#46484b","wn":"#ffdca8","lit":1},"geometry":{"type":"Polygon","coordinates":[[[-97.7394904,30.2862396],[-97.7394867,30.2862393],[-97.7394854,30.286252],[-97.7394891,30.2862523],[-97.7394904,30.2862396]]]}},{"type":"Feature","properties":{"kind":"win","part":"win","base":27.96,"h":30.16,"wd":"#3a4048","wg":"#46484b","wn":"#14161c","lit":0},"geometry":{"type":"Polygon","coordinates":[[[-97.7394904,30.2862396],[-97.7394867,30.2862393],[-97.7394854,30.286252],[-97.7394891,30.2862523],[-97.7394904,30.2862396]]]}},{"type":"Feature","properties":{"kind":"win","part":"win","base":31.42,"h":33.62,"wd":"#3a4048","wg":"#46484b","wn":"#14161c","lit":0},"geometry":{"type":"Polygon","coordinates":[[[-97.7394904,30.2862396],[-97.7394867,30.2862393],[-97.7394854,30.286252],[-97.7394891,30.2862523],[-97.7394904,30.2862396]]]}},{"type":"Feature","properties":{"kind":"win","part":"win","base":34.88,"h":37.08,"wd":"#3a4048","wg":"#46484b","wn":"#14161c","lit":0},"geometry":{"type":"Polygon","coordinates":[[[-97.7394904,30.2862396],[-97.7394867,30.2862393],[-97.7394854,30.286252],[-97.7394891,30.2862523],[-97.7394904,30.2862396]]]}},{"type":"Feature","properties":{"kind":"win","part":"win","base":38.34,"h":40.54,"wd":"#3a4048","wg":"#46484b","wn":"#14161c","lit":0},"geometry":{"type":"Polygon","coordinates":[[[-97.7394904,30.2862396],[-97.7394867,30.2862393],[-97.7394854,30.286252],[-97.7394891,30.2862523],[-97.7394904,30.2862396]]]}},{"type":"Feature","properties":{"kind":"win","part":"win","base":41.8,"h":44.0,"wd":"#3a4048","wg":"#46484b","wn":"#14161c","lit":0},"geometry":{"type":"Polygon","coordinates":[[[-97.7394904,30.2862396],[-97.7394867,30.2862393],[-97.7394854,30.286252],[-97.7394891,30.2862523],[-97.7394904,30.2862396]]]}},{"type":"Feature","properties":{"kind":"win","part":"win","base":45.26,"h":47.46,"wd":"#3a4048","wg":"#46484b","wn":"#14161c","lit":0},"geometry":{"type":"Polygon","coordinates":[[[-97.7394904,30.2862396],[-97.7394867,30.2862393],[-97.7394854,30.286252],[-97.7394891,30.2862523],[-97.7394904,30.2862396]]]}},{"type":"Feature","properties":{"kind":"win","part":"win","base":48.72,"h":50.92,"wd":"#3a4048","wg":"#46484b","wn":"#14161c","lit":0},"geometry":{"type":"Polygon","coordinates":[[[-97.7394904,30.2862396],[-97.7394867,30.2862393],[-97.7394854,30.286252],[-97.7394891,30.2862523],[-97.7394904,30.2862396]]]}},{"type":"Feature","properties":{"kind":"win","part":"win","base":52.18,"h":54.38,"wd":"#3a4048","wg":"#46484b","wn":"#14161c","lit":0},"geometry":{"type":"Polygon","coordinates":[[[-97.7394904,30.2862396],[-97.7394867,30.2862393],[-97.7394854,30.286252],[-97.7394891,30.2862523],[-97.7394904,30.2862396]]]}},{"type":"Feature","properties":{"kind":"win","part":"win-lit","base":55.64,"h":57.84,"wd":"#3a4048","wg":"#46484b","wn":"#ffdca8","lit":1},"geometry":{"type":"Polygon","coordinates":[[[-97.7394904,30.2862396],[-97.7394867,30.2862393],[-97.7394854,30.286252],[-97.7394891,30.2862523],[-97.7394904,30.2862396]]]}},{"type":"Feature","properties":{"kind":"win","part":"win-lit","base":59.1,"h":61.3,"wd":"#3a4048","wg":"#46484b","wn":"#ffdca8","lit":1},"geometry":{"type":"Polygon","coordinates":[[[-97.7394904,30.2862396],[-97.7394867,30.2862393],[-97.7394854,30.286252],[-97.7394891,30.2862523],[-97.7394904,30.2862396]]]}},{"type":"Feature","properties":{"kind":"win","part":"win","base":62.56,"h":64.76,"wd":"#3a4048","wg":"#46484b","wn":"#14161c","lit":0},"geometry":{"type":"Polygon","coordinates":[[[-97.7394904,30.2862396],[-97.7394867,30.2862393],[-97.7394854,30.286252],[-97.7394891,30.2862523],[-97.7394904,30.2862396]]]}},{"type":"Feature","properties":{"kind":"slot","part":"slot","base":23.0,"h":65.1,"wd":"#8a7448","wg":"#967b4e","wn":"#2a1a0c"},"geometry":{"type":"Polygon","coordinates":[[[-97.7394862,30.2862758],[-97.7394831,30.2862755],[-97.7394818,30.2862882],[-97.7394849,30.2862885],[-97.7394862,30.2862758]]]}},{"type":"Feature","properties":{"kind":"win","part":"win-lit","base":24.5,"h":26.7,"wd":"#3a4048","wg":"#46484b","wn":"#ffdca8","lit":1},"geometry":{"type":"Polygon","coordinates":[[[-97.7394868,30.2862758],[-97.7394831,30.2862755],[-97.7394818,30.2862882],[-97.7394855,30.2862885],[-97.7394868,30.2862758]]]}},{"type":"Feature","properties":{"kind":"win","part":"win-lit","base":27.96,"h":30.16,"wd":"#3a4048","wg":"#46484b","wn":"#ffdca8","lit":1},"geometry":{"type":"Polygon","coordinates":[[[-97.7394868,30.2862758],[-97.7394831,30.2862755],[-97.7394818,30.2862882],[-97.7394855,30.2862885],[-97.7394868,30.2862758]]]}},{"type":"Feature","properties":{"kind":"win","part":"win-lit","base":31.42,"h":33.62,"wd":"#3a4048","wg":"#46484b","wn":"#ffdca8","lit":1},"geometry":{"type":"Polygon","coordinates":[[[-97.7394868,30.2862758],[-97.7394831,30.2862755],[-97.7394818,30.2862882],[-97.7394855,30.2862885],[-97.7394868,30.2862758]]]}},{"type":"Feature","properties":{"kind":"win","part":"win-lit","base":34.88,"h":37.08,"wd":"#3a4048","wg":"#46484b","wn":"#ffdca8","lit":1},"geometry":{"type":"Polygon","coordinates":[[[-97.7394868,30.2862758],[-97.7394831,30.2862755],[-97.7394818,30.2862882],[-97.7394855,30.2862885],[-97.7394868,30.2862758]]]}},{"type":"Feature","properties":{"kind":"win","part":"win-lit","base":38.34,"h":40.54,"wd":"#3a4048","wg":"#46484b","wn":"#ffdca8","lit":1},"geometry":{"type":"Polygon","coordinates":[[[-97.7394868,30.2862758],[-97.7394831,30.2862755],[-97.7394818,30.2862882],[-97.7394855,30.2862885],[-97.7394868,30.2862758]]]}},{"type":"Feature","properties":{"kind":"win","part":"win-lit","base":41.8,"h":44.0,"wd":"#3a4048","wg":"#46484b","wn":"#ffdca8","lit":1},"geometry":{"type":"Polygon","coordinates":[[[-97.7394868,30.2862758],[-97.7394831,30.2862755],[-97.7394818,30.2862882],[-97.7394855,30.2862885],[-97.7394868,30.2862758]]]}},{"type":"Feature","properties":{"kind":"win","part":"win-lit","base":45.26,"h":47.46,"wd":"#3a4048","wg":"#46484b","wn":"#ffdca8","lit":1},"geometry":{"type":"Polygon","coordinates":[[[-97.7394868,30.2862758],[-97.7394831,30.2862755],[-97.7394818,30.2862882],[-97.7394855,30.2862885],[-97.7394868,30.2862758]]]}},{"type":"Feature","properties":{"kind":"win","part":"win-lit","base":48.72,"h":50.92,"wd":"#3a4048","wg":"#46484b","wn":"#ffdca8","lit":1},"geometry":{"type":"Polygon","coordinates":[[[-97.7394868,30.2862758],[-97.7394831,30.2862755],[-97.7394818,30.2862882],[-97.7394855,30.2862885],[-97.7394868,30.2862758]]]}},{"type":"Feature","properties":{"kind":"win","part":"win-lit","base":52.18,"h":54.38,"wd":"#3a4048","wg":"#46484b","wn":"#ffdca8","lit":1},"geometry":{"type":"Polygon","coordinates":[[[-97.7394868,30.2862758],[-97.7394831,30.2862755],[-97.7394818,30.2862882],[-97.7394855,30.2862885],[-97.7394868,30.2862758]]]}},{"type":"Feature","properties":{"kind":"win","part":"win-lit","base":55.64,"h":57.84,"wd":"#3a4048","wg":"#46484b","wn":"#ffdca8","lit":1},"geometry":{"type":"Polygon","coordinates":[[[-97.7394868,30.2862758],[-97.7394831,30.2862755],[-97.7394818,30.2862882],[-97.7394855,30.2862885],[-97.7394868,30.2862758]]]}},{"type":"Feature","properties":{"kind":"win","part":"win-lit","base":59.1,"h":61.3,"wd":"#3a4048","wg":"#46484b","wn":"#ffdca8","lit":1},"geometry":{"type":"Polygon","coordinates":[[[-97.7394868,30.2862758],[-97.7394831,30.2862755],[-97.7394818,30.2862882],[-97.7394855,30.2862885],[-97.7394868,30.2862758]]]}},{"type":"Feature","properties":{"kind":"win","part":"win-lit","base":62.56,"h":64.76,"wd":"#3a4048","wg":"#46484b","wn":"#ffdca8","lit":1},"geometry":{"type":"Polygon","coordinates":[[[-97.7394868,30.2862758],[-97.7394831,30.2862755],[-97.7394818,30.2862882],[-97.7394855,30.2862885],[-97.7394868,30.2862758]]]}},{"type":"Feature","properties":{"kind":"slot","part":"slot","base":23.0,"h":65.1,"wd":"#8a7448","wg":"#967b4e","wn":"#2a1a0c"},"geometry":{"type":"Polygon","coordinates":[[[-97.7394825,30.286312],[-97.7394794,30.2863118],[-97.7394782,30.2863245],[-97.7394813,30.2863247],[-97.7394825,30.286312]]]}},{"type":"Feature","properties":{"kind":"win","part":"win-lit","base":24.5,"h":26.7,"wd":"#3a4048","wg":"#46484b","wn":"#ffdca8","lit":1},"geometry":{"type":"Polygon","coordinates":[[[-97.7394832,30.2863121],[-97.7394794,30.2863118],[-97.7394782,30.2863245],[-97.7394819,30.2863248],[-97.7394832,30.2863121]]]}},{"type":"Feature","properties":{"kind":"win","part":"win","base":27.96,"h":30.16,"wd":"#3a4048","wg":"#46484b","wn":"#14161c","lit":0},"geometry":{"type":"Polygon","coordinates":[[[-97.7394832,30.2863121],[-97.7394794,30.2863118],[-97.7394782,30.2863245],[-97.7394819,30.2863248],[-97.7394832,30.2863121]]]}},{"type":"Feature","properties":{"kind":"win","part":"win","base":31.42,"h":33.62,"wd":"#3a4048","wg":"#46484b","wn":"#14161c","lit":0},"geometry":{"type":"Polygon","coordinates":[[[-97.7394832,30.2863121],[-97.7394794,30.2863118],[-97.7394782,30.2863245],[-97.7394819,30.2863248],[-97.7394832,30.2863121]]]}},{"type":"Feature","properties":{"kind":"win","part":"win","base":34.88,"h":37.08,"wd":"#3a4048","wg":"#46484b","wn":"#14161c","lit":0},"geometry":{"type":"Polygon","coordinates":[[[-97.7394832,30.2863121],[-97.7394794,30.2863118],[-97.7394782,30.2863245],[-97.7394819,30.2863248],[-97.7394832,30.2863121]]]}},{"type":"Feature","properties":{"kind":"win","part":"win","base":38.34,"h":40.54,"wd":"#3a4048","wg":"#46484b","wn":"#14161c","lit":0},"geometry":{"type":"Polygon","coordinates":[[[-97.7394832,30.2863121],[-97.7394794,30.2863118],[-97.7394782,30.2863245],[-97.7394819,30.2863248],[-97.7394832,30.2863121]]]}},{"type":"Feature","properties":{"kind":"win","part":"win","base":41.8,"h":44.0,"wd":"#3a4048","wg":"#46484b","wn":"#14161c","lit":0},"geometry":{"type":"Polygon","coordinates":[[[-97.7394832,30.2863121],[-97.7394794,30.2863118],[-97.7394782,30.2863245],[-97.7394819,30.2863248],[-97.7394832,30.2863121]]]}},{"type":"Feature","properties":{"kind":"win","part":"win","base":45.26,"h":47.46,"wd":"#3a4048","wg":"#46484b","wn":"#14161c","lit":0},"geometry":{"type":"Polygon","coordinates":[[[-97.7394832,30.2863121],[-97.7394794,30.2863118],[-97.7394782,30.2863245],[-97.7394819,30.2863248],[-97.7394832,30.2863121]]]}},{"type":"Feature","properties":{"kind":"win","part":"win","base":48.72,"h":50.92,"wd":"#3a4048","wg":"#46484b","wn":"#14161c","lit":0},"geometry":{"type":"Polygon","coordinates":[[[-97.7394832,30.2863121],[-97.7394794,30.2863118],[-97.7394782,30.2863245],[-97.7394819,30.2863248],[-97.7394832,30.2863121]]]}},{"type":"Feature","properties":{"kind":"win","part":"win","base":52.18,"h":54.38,"wd":"#3a4048","wg":"#46484b","wn":"#14161c","lit":0},"geometry":{"type":"Polygon","coordinates":[[[-97.7394832,30.2863121],[-97.7394794,30.2863118],[-97.7394782,30.2863245],[-97.7394819,30.2863248],[-97.7394832,30.2863121]]]}},{"type":"Feature","properties":{"kind":"win","part":"win","base":55.64,"h":57.84,"wd":"#3a4048","wg":"#46484b","wn":"#14161c","lit":0},"geometry":{"type":"Polygon","coordinates":[[[-97.7394832,30.2863121],[-97.7394794,30.2863118],[-97.7394782,30.2863245],[-97.7394819,30.2863248],[-97.7394832,30.2863121]]]}},{"type":"Feature","properties":{"kind":"win","part":"win","base":59.1,"h":61.3,"wd":"#3a4048","wg":"#46484b","wn":"#14161c","lit":0},"geometry":{"type":"Polygon","coordinates":[[[-97.7394832,30.2863121],[-97.7394794,30.2863118],[-97.7394782,30.2863245],[-97.7394819,30.2863248],[-97.7394832,30.2863121]]]}},{"type":"Feature","properties":{"kind":"win","part":"win","base":62.56,"h":64.76,"wd":"#3a4048","wg":"#46484b","wn":"#14161c","lit":0},"geometry":{"type":"Polygon","coordinates":[[[-97.7394832,30.2863121],[-97.7394794,30.2863118],[-97.7394782,30.2863245],[-97.7394819,30.2863248],[-97.7394832,30.2863121]]]}},{"type":"Feature","properties":{"kind":"slot","part":"slot","base":23.0,"h":65.1,"wd":"#8a7448","wg":"#967b4e","wn":"#2a1a0c"},"geometry":{"type":"Polygon","coordinates":[[[-97.7392528,30.2862219],[-97.7392497,30.2862217],[-97.7392485,30.2862344],[-97.7392516,30.2862346],[-97.7392528,30.2862219]]]}},{"type":"Feature","properties":{"kind":"win","part":"win-lit","base":24.5,"h":26.7,"wd":"#3a4048","wg":"#46484b","wn":"#ffdca8","lit":1},"geometry":{"type":"Polygon","coordinates":[[[-97.7392528,30.2862219],[-97.7392491,30.2862216],[-97.7392478,30.2862343],[-97.7392516,30.2862346],[-97.7392528,30.2862219]]]}},{"type":"Feature","properties":{"kind":"win","part":"win","base":27.96,"h":30.16,"wd":"#3a4048","wg":"#46484b","wn":"#14161c","lit":0},"geometry":{"type":"Polygon","coordinates":[[[-97.7392528,30.2862219],[-97.7392491,30.2862216],[-97.7392478,30.2862343],[-97.7392516,30.2862346],[-97.7392528,30.2862219]]]}},{"type":"Feature","properties":{"kind":"win","part":"win","base":31.42,"h":33.62,"wd":"#3a4048","wg":"#46484b","wn":"#14161c","lit":0},"geometry":{"type":"Polygon","coordinates":[[[-97.7392528,30.2862219],[-97.7392491,30.2862216],[-97.7392478,30.2862343],[-97.7392516,30.2862346],[-97.7392528,30.2862219]]]}},{"type":"Feature","properties":{"kind":"win","part":"win","base":34.88,"h":37.08,"wd":"#3a4048","wg":"#46484b","wn":"#14161c","lit":0},"geometry":{"type":"Polygon","coordinates":[[[-97.7392528,30.2862219],[-97.7392491,30.2862216],[-97.7392478,30.2862343],[-97.7392516,30.2862346],[-97.7392528,30.2862219]]]}},{"type":"Feature","properties":{"kind":"win","part":"win","base":38.34,"h":40.54,"wd":"#3a4048","wg":"#46484b","wn":"#14161c","lit":0},"geometry":{"type":"Polygon","coordinates":[[[-97.7392528,30.2862219],[-97.7392491,30.2862216],[-97.7392478,30.2862343],[-97.7392516,30.2862346],[-97.7392528,30.2862219]]]}},{"type":"Feature","properties":{"kind":"win","part":"win","base":41.8,"h":44.0,"wd":"#3a4048","wg":"#46484b","wn":"#14161c","lit":0},"geometry":{"type":"Polygon","coordinates":[[[-97.7392528,30.2862219],[-97.7392491,30.2862216],[-97.7392478,30.2862343],[-97.7392516,30.2862346],[-97.7392528,30.2862219]]]}},{"type":"Feature","properties":{"kind":"win","part":"win","base":45.26,"h":47.46,"wd":"#3a4048","wg":"#46484b","wn":"#14161c","lit":0},"geometry":{"type":"Polygon","coordinates":[[[-97.7392528,30.2862219],[-97.7392491,30.2862216],[-97.7392478,30.2862343],[-97.7392516,30.2862346],[-97.7392528,30.2862219]]]}},{"type":"Feature","properties":{"kind":"win","part":"win","base":48.72,"h":50.92,"wd":"#3a4048","wg":"#46484b","wn":"#14161c","lit":0},"geometry":{"type":"Polygon","coordinates":[[[-97.7392528,30.2862219],[-97.7392491,30.2862216],[-97.7392478,30.2862343],[-97.7392516,30.2862346],[-97.7392528,30.2862219]]]}},{"type":"Feature","properties":{"kind":"win","part":"win","base":52.18,"h":54.38,"wd":"#3a4048","wg":"#46484b","wn":"#14161c","lit":0},"geometry":{"type":"Polygon","coordinates":[[[-97.7392528,30.2862219],[-97.7392491,30.2862216],[-97.7392478,30.2862343],[-97.7392516,30.2862346],[-97.7392528,30.2862219]]]}},{"type":"Feature","properties":{"kind":"win","part":"win-lit","base":55.64,"h":57.84,"wd":"#3a4048","wg":"#46484b","wn":"#ffdca8","lit":1},"geometry":{"type":"Polygon","coordinates":[[[-97.7392528,30.2862219],[-97.7392491,30.2862216],[-97.7392478,30.2862343],[-97.7392516,30.2862346],[-97.7392528,30.2862219]]]}},{"type":"Feature","properties":{"kind":"win","part":"win-lit","base":59.1,"h":61.3,"wd":"#3a4048","wg":"#46484b","wn":"#ffdca8","lit":1},"geometry":{"type":"Polygon","coordinates":[[[-97.7392528,30.2862219],[-97.7392491,30.2862216],[-97.7392478,30.2862343],[-97.7392516,30.2862346],[-97.7392528,30.2862219]]]}},{"type":"Feature","properties":{"kind":"win","part":"win","base":62.56,"h":64.76,"wd":"#3a4048","wg":"#46484b","wn":"#14161c","lit":0},"geometry":{"type":"Polygon","coordinates":[[[-97.7392528,30.2862219],[-97.7392491,30.2862216],[-97.7392478,30.2862343],[-97.7392516,30.2862346],[-97.7392528,30.2862219]]]}},{"type":"Feature","properties":{"kind":"slot","part":"slot","base":23.0,"h":65.1,"wd":"#8a7448","wg":"#967b4e","wn":"#2a1a0c"},"geometry":{"type":"Polygon","coordinates":[[[-97.7392492,30.2862582],[-97.7392461,30.2862579],[-97.7392448,30.2862706],[-97.739248,30.2862709],[-97.7392492,30.2862582]]]}},{"type":"Feature","properties":{"kind":"win","part":"win-lit","base":24.5,"h":26.7,"wd":"#3a4048","wg":"#46484b","wn":"#ffdca8","lit":1},"geometry":{"type":"Polygon","coordinates":[[[-97.7392492,30.2862582],[-97.7392455,30.2862579],[-97.7392442,30.2862706],[-97.739248,30.2862709],[-97.7392492,30.2862582]]]}},{"type":"Feature","properties":{"kind":"win","part":"win-lit","base":27.96,"h":30.16,"wd":"#3a4048","wg":"#46484b","wn":"#ffdca8","lit":1},"geometry":{"type":"Polygon","coordinates":[[[-97.7392492,30.2862582],[-97.7392455,30.2862579],[-97.7392442,30.2862706],[-97.739248,30.2862709],[-97.7392492,30.2862582]]]}},{"type":"Feature","properties":{"kind":"win","part":"win-lit","base":31.42,"h":33.62,"wd":"#3a4048","wg":"#46484b","wn":"#ffdca8","lit":1},"geometry":{"type":"Polygon","coordinates":[[[-97.7392492,30.2862582],[-97.7392455,30.2862579],[-97.7392442,30.2862706],[-97.739248,30.2862709],[-97.7392492,30.2862582]]]}},{"type":"Feature","properties":{"kind":"win","part":"win-lit","base":34.88,"h":37.08,"wd":"#3a4048","wg":"#46484b","wn":"#ffdca8","lit":1},"geometry":{"type":"Polygon","coordinates":[[[-97.7392492,30.2862582],[-97.7392455,30.2862579],[-97.7392442,30.2862706],[-97.739248,30.2862709],[-97.7392492,30.2862582]]]}},{"type":"Feature","properties":{"kind":"win","part":"win-lit","base":38.34,"h":40.54,"wd":"#3a4048","wg":"#46484b","wn":"#ffdca8","lit":1},"geometry":{"type":"Polygon","coordinates":[[[-97.7392492,30.2862582],[-97.7392455,30.2862579],[-97.7392442,30.2862706],[-97.739248,30.2862709],[-97.7392492,30.2862582]]]}},{"type":"Feature","properties":{"kind":"win","part":"win-lit","base":41.8,"h":44.0,"wd":"#3a4048","wg":"#46484b","wn":"#ffdca8","lit":1},"geometry":{"type":"Polygon","coordinates":[[[-97.7392492,30.2862582],[-97.7392455,30.2862579],[-97.7392442,30.2862706],[-97.739248,30.2862709],[-97.7392492,30.2862582]]]}},{"type":"Feature","properties":{"kind":"win","part":"win-lit","base":45.26,"h":47.46,"wd":"#3a4048","wg":"#46484b","wn":"#ffdca8","lit":1},"geometry":{"type":"Polygon","coordinates":[[[-97.7392492,30.2862582],[-97.7392455,30.2862579],[-97.7392442,30.2862706],[-97.739248,30.2862709],[-97.7392492,30.2862582]]]}},{"type":"Feature","properties":{"kind":"win","part":"win-lit","base":48.72,"h":50.92,"wd":"#3a4048","wg":"#46484b","wn":"#ffdca8","lit":1},"geometry":{"type":"Polygon","coordinates":[[[-97.7392492,30.2862582],[-97.7392455,30.2862579],[-97.7392442,30.2862706],[-97.739248,30.2862709],[-97.7392492,30.2862582]]]}},{"type":"Feature","properties":{"kind":"win","part":"win-lit","base":52.18,"h":54.38,"wd":"#3a4048","wg":"#46484b","wn":"#ffdca8","lit":1},"geometry":{"type":"Polygon","coordinates":[[[-97.7392492,30.2862582],[-97.7392455,30.2862579],[-97.7392442,30.2862706],[-97.739248,30.2862709],[-97.7392492,30.2862582]]]}},{"type":"Feature","properties":{"kind":"win","part":"win-lit","base":55.64,"h":57.84,"wd":"#3a4048","wg":"#46484b","wn":"#ffdca8","lit":1},"geometry":{"type":"Polygon","coordinates":[[[-97.7392492,30.2862582],[-97.7392455,30.2862579],[-97.7392442,30.2862706],[-97.739248,30.2862709],[-97.7392492,30.2862582]]]}},{"type":"Feature","properties":{"kind":"win","part":"win-lit","base":59.1,"h":61.3,"wd":"#3a4048","wg":"#46484b","wn":"#ffdca8","lit":1},"geometry":{"type":"Polygon","coordinates":[[[-97.7392492,30.2862582],[-97.7392455,30.2862579],[-97.7392442,30.2862706],[-97.739248,30.2862709],[-97.7392492,30.2862582]]]}},{"type":"Feature","properties":{"kind":"win","part":"win-lit","base":62.56,"h":64.76,"wd":"#3a4048","wg":"#46484b","wn":"#ffdca8","lit":1},"geometry":{"type":"Polygon","coordinates":[[[-97.7392492,30.2862582],[-97.7392455,30.2862579],[-97.7392442,30.2862706],[-97.739248,30.2862709],[-97.7392492,30.2862582]]]}},{"type":"Feature","properties":{"kind":"slot","part":"slot","base":23.0,"h":65.1,"wd":"#8a7448","wg":"#967b4e","wn":"#2a1a0c"},"geometry":{"type":"Polygon","coordinates":[[[-97.7392456,30.2862944],[-97.7392425,30.2862942],[-97.7392412,30.2863069],[-97.7392443,30.2863071],[-97.7392456,30.2862944]]]}},{"type":"Feature","properties":{"kind":"win","part":"win-lit","base":24.5,"h":26.7,"wd":"#3a4048","wg":"#46484b","wn":"#ffdca8","lit":1},"geometry":{"type":"Polygon","coordinates":[[[-97.7392456,30.2862944],[-97.7392419,30.2862941],[-97.7392406,30.2863068],[-97.7392443,30.2863071],[-97.7392456,30.2862944]]]}},{"type":"Feature","properties":{"kind":"win","part":"win","base":27.96,"h":30.16,"wd":"#3a4048","wg":"#46484b","wn":"#14161c","lit":0},"geometry":{"type":"Polygon","coordinates":[[[-97.7392456,30.2862944],[-97.7392419,30.2862941],[-97.7392406,30.2863068],[-97.7392443,30.2863071],[-97.7392456,30.2862944]]]}},{"type":"Feature","properties":{"kind":"win","part":"win","base":31.42,"h":33.62,"wd":"#3a4048","wg":"#46484b","wn":"#14161c","lit":0},"geometry":{"type":"Polygon","coordinates":[[[-97.7392456,30.2862944],[-97.7392419,30.2862941],[-97.7392406,30.2863068],[-97.7392443,30.2863071],[-97.7392456,30.2862944]]]}},{"type":"Feature","properties":{"kind":"win","part":"win","base":34.88,"h":37.08,"wd":"#3a4048","wg":"#46484b","wn":"#14161c","lit":0},"geometry":{"type":"Polygon","coordinates":[[[-97.7392456,30.2862944],[-97.7392419,30.2862941],[-97.7392406,30.2863068],[-97.7392443,30.2863071],[-97.7392456,30.2862944]]]}},{"type":"Feature","properties":{"kind":"win","part":"win","base":38.34,"h":40.54,"wd":"#3a4048","wg":"#46484b","wn":"#14161c","lit":0},"geometry":{"type":"Polygon","coordinates":[[[-97.7392456,30.2862944],[-97.7392419,30.2862941],[-97.7392406,30.2863068],[-97.7392443,30.2863071],[-97.7392456,30.2862944]]]}},{"type":"Feature","properties":{"kind":"win","part":"win","base":41.8,"h":44.0,"wd":"#3a4048","wg":"#46484b","wn":"#14161c","lit":0},"geometry":{"type":"Polygon","coordinates":[[[-97.7392456,30.2862944],[-97.7392419,30.2862941],[-97.7392406,30.2863068],[-97.7392443,30.2863071],[-97.7392456,30.2862944]]]}},{"type":"Feature","properties":{"kind":"win","part":"win","base":45.26,"h":47.46,"wd":"#3a4048","wg":"#46484b","wn":"#14161c","lit":0},"geometry":{"type":"Polygon","coordinates":[[[-97.7392456,30.2862944],[-97.7392419,30.2862941],[-97.7392406,30.2863068],[-97.7392443,30.2863071],[-97.7392456,30.2862944]]]}},{"type":"Feature","properties":{"kind":"win","part":"win","base":48.72,"h":50.92,"wd":"#3a4048","wg":"#46484b","wn":"#14161c","lit":0},"geometry":{"type":"Polygon","coordinates":[[[-97.7392456,30.2862944],[-97.7392419,30.2862941],[-97.7392406,30.2863068],[-97.7392443,30.2863071],[-97.7392456,30.2862944]]]}},{"type":"Feature","properties":{"kind":"win","part":"win","base":52.18,"h":54.38,"wd":"#3a4048","wg":"#46484b","wn":"#14161c","lit":0},"geometry":{"type":"Polygon","coordinates":[[[-97.7392456,30.2862944],[-97.7392419,30.2862941],[-97.7392406,30.2863068],[-97.7392443,30.2863071],[-97.7392456,30.2862944]]]}},{"type":"Feature","properties":{"kind":"win","part":"win","base":55.64,"h":57.84,"wd":"#3a4048","wg":"#46484b","wn":"#14161c","lit":0},"geometry":{"type":"Polygon","coordinates":[[[-97.7392456,30.2862944],[-97.7392419,30.2862941],[-97.7392406,30.2863068],[-97.7392443,30.2863071],[-97.7392456,30.2862944]]]}},{"type":"Feature","properties":{"kind":"win","part":"win","base":59.1,"h":61.3,"wd":"#3a4048","wg":"#46484b","wn":"#14161c","lit":0},"geometry":{"type":"Polygon","coordinates":[[[-97.7392456,30.2862944],[-97.7392419,30.2862941],[-97.7392406,30.2863068],[-97.7392443,30.2863071],[-97.7392456,30.2862944]]]}},{"type":"Feature","properties":{"kind":"win","part":"win","base":62.56,"h":64.76,"wd":"#3a4048","wg":"#46484b","wn":"#14161c","lit":0},"geometry":{"type":"Polygon","coordinates":[[[-97.7392456,30.2862944],[-97.7392419,30.2862941],[-97.7392406,30.2863068],[-97.7392443,30.2863071],[-97.7392456,30.2862944]]]}},{"type":"Feature","properties":{"kind":"clock","part":"clock-bezel","base":71.8,"h":72.92,"wd":"#d8b247","wg":"#dcb34d","wn":"#fff3cf"},"geometry":{"type":"Polygon","coordinates":[[[-97.7393912,30.2861916],[-97.7393564,30.286189],[-97.7393561,30.2861917],[-97.7393909,30.2861943],[-97.7393912,30.2861916]]]}},{"type":"Feature","properties":{"kind":"clock","part":"clock-bezel","base":72.92,"h":74.04,"wd":"#d8b247","wg":"#dcb34d","wn":"#fff3cf"},"geometry":{"type":"Polygon","coordinates":[[[-97.7394004,30.2861923],[-97.7393472,30.2861883],[-97.7393469,30.286191],[-97.7394001,30.286195],[-97.7394004,30.2861923]]]}},{"type":"Feature","properties":{"kind":"clock","part":"clock-bezel","base":74.04,"h":75.16,"wd":"#d8b247","wg":"#dcb34d","wn":"#fff3cf"},"geometry":{"type":"Polygon","coordinates":[[[-97.7394028,30.2861925],[-97.7393447,30.2861882],[-97.7393445,30.2861908],[-97.7394025,30.2861952],[-97.7394028,30.2861925]]]}},{"type":"Feature","properties":{"kind":"clock","part":"clock-bezel","base":75.16,"h":76.28,"wd":"#d8b247","wg":"#dcb34d","wn":"#fff3cf"},"geometry":{"type":"Polygon","coordinates":[[[-97.7394004,30.2861923],[-97.7393472,30.2861883],[-97.7393469,30.286191],[-97.7394001,30.286195],[-97.7394004,30.2861923]]]}},{"type":"Feature","properties":{"kind":"clock","part":"clock-bezel","base":76.28,"h":77.4,"wd":"#d8b247","wg":"#dcb34d","wn":"#fff3cf"},"geometry":{"type":"Polygon","coordinates":[[[-97.7393912,30.2861916],[-97.7393564,30.286189],[-97.7393561,30.2861917],[-97.7393909,30.2861943],[-97.7393912,30.2861916]]]}},{"type":"Feature","properties":{"kind":"clock","part":"clock-dial","base":73.07,"h":76.12,"wd":"#3d4b56","wg":"#475158","wn":"#f2ecc8"},"geometry":{"type":"Polygon","coordinates":[[[-97.7393898,30.2861895],[-97.7393582,30.2861872],[-97.739358,30.2861886],[-97.7393896,30.2861909],[-97.7393898,30.2861895]]]}},{"type":"Feature","properties":{"kind":"clock","part":"clock-bezel","base":71.8,"h":72.92,"wd":"#d8b247","wg":"#dcb34d","wn":"#fff3cf"},"geometry":{"type":"Polygon","coordinates":[[[-97.7393749,30.2863547],[-97.7393401,30.2863521],[-97.7393398,30.2863548],[-97.7393747,30.2863574],[-97.7393749,30.2863547]]]}},{"type":"Feature","properties":{"kind":"clock","part":"clock-bezel","base":72.92,"h":74.04,"wd":"#d8b247","wg":"#dcb34d","wn":"#fff3cf"},"geometry":{"type":"Polygon","coordinates":[[[-97.7393841,30.2863554],[-97.7393309,30.2863514],[-97.7393306,30.2863541],[-97.7393838,30.2863581],[-97.7393841,30.2863554]]]}},{"type":"Feature","properties":{"kind":"clock","part":"clock-bezel","base":74.04,"h":75.16,"wd":"#d8b247","wg":"#dcb34d","wn":"#fff3cf"},"geometry":{"type":"Polygon","coordinates":[[[-97.7393865,30.2863556],[-97.7393285,30.2863512],[-97.7393282,30.2863539],[-97.7393863,30.2863582],[-97.7393865,30.2863556]]]}},{"type":"Feature","properties":{"kind":"clock","part":"clock-bezel","base":75.16,"h":76.28,"wd":"#d8b247","wg":"#dcb34d","wn":"#fff3cf"},"geometry":{"type":"Polygon","coordinates":[[[-97.7393841,30.2863554],[-97.7393309,30.2863514],[-97.7393306,30.2863541],[-97.7393838,30.2863581],[-97.7393841,30.2863554]]]}},{"type":"Feature","properties":{"kind":"clock","part":"clock-bezel","base":76.28,"h":77.4,"wd":"#d8b247","wg":"#dcb34d","wn":"#fff3cf"},"geometry":{"type":"Polygon","coordinates":[[[-97.7393749,30.2863547],[-97.7393401,30.2863521],[-97.7393398,30.2863548],[-97.7393747,30.2863574],[-97.7393749,30.2863547]]]}},{"type":"Feature","properties":{"kind":"clock","part":"clock-dial","base":73.07,"h":76.12,"wd":"#3d4b56","wg":"#475158","wn":"#f2ecc8"},"geometry":{"type":"Polygon","coordinates":[[[-97.739373,30.2863578],[-97.7393414,30.2863555],[-97.7393412,30.2863569],[-97.7393729,30.2863592],[-97.739373,30.2863578]]]}},{"type":"Feature","properties":{"kind":"clock","part":"clock-bezel","base":71.8,"h":72.92,"wd":"#d8b247","wg":"#dcb34d","wn":"#fff3cf"},"geometry":{"type":"Polygon","coordinates":[[[-97.7394707,30.2862659],[-97.7394675,30.2862656],[-97.7394646,30.2862957],[-97.7394677,30.2862959],[-97.7394707,30.2862659]]]}},{"type":"Feature","properties":{"kind":"clock","part":"clock-bezel","base":72.92,"h":74.04,"wd":"#d8b247","wg":"#dcb34d","wn":"#fff3cf"},"geometry":{"type":"Polygon","coordinates":[[[-97.7394714,30.2862579],[-97.7394683,30.2862577],[-97.7394638,30.2863036],[-97.7394669,30.2863039],[-97.7394714,30.2862579]]]}},{"type":"Feature","properties":{"kind":"clock","part":"clock-bezel","base":74.04,"h":75.16,"wd":"#d8b247","wg":"#dcb34d","wn":"#fff3cf"},"geometry":{"type":"Polygon","coordinates":[[[-97.7394717,30.2862558],[-97.7394685,30.2862556],[-97.7394636,30.2863057],[-97.7394667,30.286306],[-97.7394717,30.2862558]]]}},{"type":"Feature","properties":{"kind":"clock","part":"clock-bezel","base":75.16,"h":76.28,"wd":"#d8b247","wg":"#dcb34d","wn":"#fff3cf"},"geometry":{"type":"Polygon","coordinates":[[[-97.7394714,30.2862579],[-97.7394683,30.2862577],[-97.7394638,30.2863036],[-97.7394669,30.2863039],[-97.7394714,30.2862579]]]}},{"type":"Feature","properties":{"kind":"clock","part":"clock-bezel","base":76.28,"h":77.4,"wd":"#d8b247","wg":"#dcb34d","wn":"#fff3cf"},"geometry":{"type":"Polygon","coordinates":[[[-97.7394707,30.2862659],[-97.7394675,30.2862656],[-97.7394646,30.2862957],[-97.7394677,30.2862959],[-97.7394707,30.2862659]]]}},{"type":"Feature","properties":{"kind":"clock","part":"clock-dial","base":73.07,"h":76.12,"wd":"#3d4b56","wg":"#475158","wn":"#f2ecc8"},"geometry":{"type":"Polygon","coordinates":[[[-97.7394728,30.2862674],[-97.7394711,30.2862673],[-97.7394684,30.2862946],[-97.7394701,30.2862947],[-97.7394728,30.2862674]]]}},{"type":"Feature","properties":{"kind":"clock","part":"clock-bezel","base":71.8,"h":72.92,"wd":"#d8b247","wg":"#dcb34d","wn":"#fff3cf"},"geometry":{"type":"Polygon","coordinates":[[[-97.7392665,30.2862507],[-97.7392633,30.2862505],[-97.7392604,30.2862805],[-97.7392635,30.2862808],[-97.7392665,30.2862507]]]}},{"type":"Feature","properties":{"kind":"clock","part":"clock-bezel","base":72.92,"h":74.04,"wd":"#d8b247","wg":"#dcb34d","wn":"#fff3cf"},"geometry":{"type":"Polygon","coordinates":[[[-97.7392672,30.2862428],[-97.7392641,30.2862425],[-97.7392596,30.2862885],[-97.7392627,30.2862887],[-97.7392672,30.2862428]]]}},{"type":"Feature","properties":{"kind":"clock","part":"clock-bezel","base":74.04,"h":75.16,"wd":"#d8b247","wg":"#dcb34d","wn":"#fff3cf"},"geometry":{"type":"Polygon","coordinates":[[[-97.7392675,30.2862407],[-97.7392643,30.2862404],[-97.7392594,30.2862906],[-97.7392625,30.2862908],[-97.7392675,30.2862407]]]}},{"type":"Feature","properties":{"kind":"clock","part":"clock-bezel","base":75.16,"h":76.28,"wd":"#d8b247","wg":"#dcb34d","wn":"#fff3cf"},"geometry":{"type":"Polygon","coordinates":[[[-97.7392672,30.2862428],[-97.7392641,30.2862425],[-97.7392596,30.2862885],[-97.7392627,30.2862887],[-97.7392672,30.2862428]]]}},{"type":"Feature","properties":{"kind":"clock","part":"clock-bezel","base":76.28,"h":77.4,"wd":"#d8b247","wg":"#dcb34d","wn":"#fff3cf"},"geometry":{"type":"Polygon","coordinates":[[[-97.7392665,30.2862507],[-97.7392633,30.2862505],[-97.7392604,30.2862805],[-97.7392635,30.2862808],[-97.7392665,30.2862507]]]}},{"type":"Feature","properties":{"kind":"clock","part":"clock-dial","base":73.07,"h":76.12,"wd":"#3d4b56","wg":"#475158","wn":"#f2ecc8"},"geometry":{"type":"Polygon","coordinates":[[[-97.7392626,30.2862518],[-97.7392609,30.2862517],[-97.7392582,30.286279],[-97.7392599,30.2862791],[-97.7392626,30.2862518]]]}}],"replacedBuildingIds":["a0af80df-5ca8-4408-ba74-2817533dae1a"],"replacedPartWallColour":"#e5dbc2"}