{"type":"FeatureCollection","features":[{"type":"Feature","geometry":{"type":"Polygon","coordinates":[[[-97.7411548,30.2848779],[-97.7411335,30.2850805],[-97.7405068,30.2850314],[-97.7405281,30.2848287],[-97.7411548,30.2848779]]]},"properties":{"h":10.0,"base":0.0,"wd":"#deb887","wg":"#e3b782","wn":"#3a322d","rd":"#872e08","rg":"#a14b1e","rn":"#13101a","pid":"5846e1c5-fcfa-4d14-bdb2-b953580d0e68"}},{"type":"Feature","geometry":{"type":"Polygon","coordinates":[[[-97.7406768,30.2848718],[-97.7406705,30.2849369],[-97.7406411,30.2849347],[-97.7406474,30.2848697],[-97.7406768,30.2848718]]]},"properties":{"h":12.0,"base":10.0,"wd":"#deb887","wg":"#e3b782","wn":"#3a322d","rd":"#872e08","rg":"#a14b1e","rn":"#13101a","pid":"5846e1c5-fcfa-4d14-bdb2-b953580d0e68"}},{"type":"Feature","geometry":{"type":"Polygon","coordinates":[[[-97.7408224,30.2848827],[-97.7408511,30.2848846],[-97.7408453,30.2849493],[-97.7408166,30.2849474],[-97.7408224,30.2848827]]]},"properties":{"h":12.0,"base":10.0,"wd":"#deb887","wg":"#e3b782","wn":"#3a322d","rd":"#872e08","rg":"#a14b1e","rn":"#13101a","pid":"5846e1c5-fcfa-4d14-bdb2-b953580d0e68"}},{"type":"Feature","geometry":{"type":"Polygon","coordinates":[[[-97.7409936,30.2848952],[-97.7410243,30.2848975],[-97.7410179,30.2849617],[-97.7409872,30.2849594],[-97.7409936,30.2848952]]]},"properties":{"h":12.0,"base":10.0,"wd":"#deb887","wg":"#e3b782","wn":"#3a322d","rd":"#872e08","rg":"#a14b1e","rn":"#13101a","pid":"5846e1c5-fcfa-4d14-bdb2-b953580d0e68"}},{"type":"Feature","geometry":{"type":"Polygon","coordinates":[[[-97.7410242,30.2849858],[-97.7406332,30.2849548],[-97.7406272,30.2850112],[-97.7410182,30.2850422],[-97.7410242,30.2849858]]]},"properties":{"h":12.0,"base":10.0,"wd":"#deb887","wg":"#e3b782","wn":"#3a322d","rd":"#872e08","rg":"#a14b1e","rn":"#13101a","pid":"5846e1c5-fcfa-4d14-bdb2-b953580d0e68"}},{"type":"Feature","geometry":{"type":"Polygon","coordinates":[[[-97.7410304,30.2849592],[-97.7410285,30.2849591],[-97.7410268,30.2849585],[-97.7410254,30.2849575],[-97.7410245,30.2849561],[-97.7410242,30.2849545],[-97.7410246,30.284953],[-97.7410254,30.2849516],[-97.7410268,30.2849505],[-97.7410285,30.2849499],[-97.7410304,30.2849499],[-97.741032,30.2849503],[-97.7410334,30.2849511],[-97.7410345,30.2849523],[-97.741035,30.2849537],[-97.7410351,30.2849552],[-97.7410346,30.2849566],[-97.7410336,30.2849578],[-97.7410321,30.2849587],[-97.7410304,30.2849592]]]},"properties":{"h":14.0,"base":10.0,"wd":"#deb887","wg":"#e3b782","wn":"#3a322d","rd":"#872e08","rg":"#a14b1e","rn":"#13101a","pid":"5846e1c5-fcfa-4d14-bdb2-b953580d0e68"}},{"type":"Feature","geometry":{"type":"Polygon","coordinates":[[[-97.7409566,30.2849507],[-97.7409782,30.2849526],[-97.7409754,30.2849762],[-97.7409538,30.2849743],[-97.7409566,30.2849507]]]},"properties":{"h":15.0,"base":10.0,"wd":"#deb887","wg":"#e3b782","wn":"#3a322d","rd":"#872e08","rg":"#a14b1e","rn":"#13101a","pid":"5846e1c5-fcfa-4d14-bdb2-b953580d0e68"}},{"type":"Feature","geometry":{"type":"Polygon","coordinates":[[[-97.7406844,30.2849308],[-97.7407059,30.2849327],[-97.7407031,30.2849563],[-97.7406816,30.2849543],[-97.7406844,30.2849308]]]},"properties":{"h":15.0,"base":10.0,"wd":"#deb887","wg":"#e3b782","wn":"#3a322d","rd":"#872e08","rg":"#a14b1e","rn":"#13101a","pid":"5846e1c5-fcfa-4d14-bdb2-b953580d0e68"}},{"type":"Feature","geometry":{"type":"Polygon","coordinates":[[[-97.7379878,30.27985],[-97.7380735,30.2796192],[-97.7379411,30.2795825],[-97.7372913,30.2794026],[-97.7372055,30.279634],[-97.737565,30.2797335],[-97.7374533,30.2800344],[-97.7370899,30.2799339],[-97.736999,30.280179],[-97.7375654,30.2803358],[-97.7376561,30.2800915],[-97.7376299,30.2800843],[-97.7376858,30.2799338],[-97.7377421,30.2797821],[-97.7377846,30.2797944],[-97.7378735,30.2798196],[-97.73798,30.2798478],[-97.7379878,30.27985]]]},"properties":{"h":44.8,"base":0.0,"wd":"#8c9ba2","wg":"#9e9f99","wn":"#262b33","rd":"#606a6f","rg":"#837a6e","rn":"#0e121f","pid":"c0e0b704-27eb-4019-bd09-76e21ec594b7"}},{"type":"Feature","geometry":{"type":"Polygon","coordinates":[[[-97.7376561,30.2800915],[-97.7377388,30.2801146],[-97.7376804,30.2802712],[-97.7376592,30.280328],[-97.7376478,30.2803585],[-97.736999,30.280179],[-97.7372913,30.2794026],[-97.7379411,30.2795825],[-97.7380735,30.2796192],[-97.7381612,30.2796431],[-97.7381308,30.2797245],[-97.7380748,30.2798748],[-97.7379878,30.27985],[-97.73798,30.2798478],[-97.7378735,30.2798196],[-97.7377846,30.2797944],[-97.7377421,30.2797821],[-97.7376858,30.2799338],[-97.7376299,30.2800843],[-97.7376561,30.2800915]]]},"properties":{"h":19.2,"base":0.0,"wd":"#8c9ba2","wg":"#9e9f99","wn":"#262b33","rd":"#606a6f","rg":"#837a6e","rn":"#0e121f","pid":"c0e0b704-27eb-4019-bd09-76e21ec594b7"}},{"type":"Feature","geometry":{"type":"Polygon","coordinates":[[[-97.7378166,30.2799705],[-97.7376858,30.2799338],[-97.7377421,30.2797821],[-97.7377846,30.2797944],[-97.7377822,30.2798034],[-97.7377812,30.2798124],[-97.7377826,30.2798234],[-97.7377847,30.2798341],[-97.7377901,30.2798537],[-97.7377994,30.2798733],[-97.7378178,30.2799095],[-97.7378212,30.2799262],[-97.7378222,30.2799428],[-97.7378166,30.2799705]]]},"properties":{"h":9.6,"base":0.0,"wd":"#8c9ba2","wg":"#9e9f99","wn":"#262b33","rd":"#606a6f","rg":"#837a6e","rn":"#0e121f","pid":"c0e0b704-27eb-4019-bd09-76e21ec594b7"}},{"type":"Feature","geometry":{"type":"Polygon","coordinates":[[[-97.7408926,30.2894587],[-97.7408291,30.2894558],[-97.7408313,30.289419],[-97.7408948,30.2894219],[-97.7408926,30.2894587]]]},"properties":{"h":22.2,"base":0.0,"wd":"#ede4d0","wg":"#f0dcc0","wn":"#3e3d3e","rd":"#a44e31","rg":"#b8643e","rn":"#12101c","pid":"cee5ba4e-bf07-4b1c-942b-40890ca0c5ca"}},{"type":"Feature","geometry":{"type":"Polygon","coordinates":[[[-97.7406435,30.2894386],[-97.7405817,30.2894347],[-97.7405845,30.2894012],[-97.7406463,30.289405],[-97.7406435,30.2894386]]]},"properties":{"h":22.2,"base":0.0,"wd":"#ede4d0","wg":"#f0dcc0","wn":"#3e3d3e","rd":"#a44e31","rg":"#b8643e","rn":"#12101c","pid":"cee5ba4e-bf07-4b1c-942b-40890ca0c5ca"}},{"type":"Feature","geometry":{"type":"Polygon","coordinates":[[[-97.7408092,30.2894511],[-97.7407505,30.2894487],[-97.740658,30.289445],[-97.7406603,30.2894039],[-97.7408115,30.2894102],[-97.7408092,30.2894511]]]},"properties":{"h":23.4,"base":0.0,"wd":"#ede4d0","wg":"#f0dcc0","wn":"#3e3d3e","rd":"#a44e31","rg":"#b8643e","rn":"#12101c","pid":"cee5ba4e-bf07-4b1c-942b-40890ca0c5ca"}},{"type":"Feature","geometry":{"type":"Polygon","coordinates":[[[-97.7407478,30.2894976],[-97.7406553,30.2894938],[-97.740658,30.289445],[-97.7407505,30.2894487],[-97.7407478,30.2894976]]]},"properties":{"h":22.2,"base":0.0,"wd":"#ede4d0","wg":"#f0dcc0","wn":"#3e3d3e","rd":"#a44e31","rg":"#b8643e","rn":"#12101c","pid":"cee5ba4e-bf07-4b1c-942b-40890ca0c5ca"}},{"type":"Feature","geometry":{"type":"Polygon","coordinates":[[[-97.740913,30.2896188],[-97.7405255,30.2895924],[-97.7405358,30.28948],[-97.7405426,30.2894059],[-97.7405551,30.2894067],[-97.7405578,30.2893761],[-97.7405454,30.2893752],[-97.7405598,30.2892173],[-97.7408858,30.2892395],[-97.7409488,30.2892438],[-97.7409408,30.2893304],[-97.7409342,30.2894027],[-97.7409222,30.2894019],[-97.7409197,30.2894292],[-97.7409303,30.2894299],[-97.740913,30.2896188]]]},"properties":{"h":20.1,"base":0.0,"wd":"#ede4d0","wg":"#f0dcc0","wn":"#3e3d3e","rd":"#a44e31","rg":"#b8643e","rn":"#12101c","pid":"cee5ba4e-bf07-4b1c-942b-40890ca0c5ca"}},{"type":"Feature","geometry":{"type":"Polygon","coordinates":[[[-97.7394744,30.2831555],[-97.7393912,30.2831555],[-97.7393912,30.2832273],[-97.7394744,30.2832273],[-97.7394744,30.2831555]]]},"properties":{"h":18.9,"base":0.0,"wd":"#dbd4c0","wg":"#e1cfb2","wn":"#39393a","rd":"#405d4f","rg":"#6a7055","rn":"#0e131e","pid":"5d85b423-9d29-416b-98f6-fa5b991736ca"}}]}