{"type": "FeatureCollection", "features": [{"type": "Feature", "geometry": {"type": "Polygon", "coordinates": [[[-97.7471531, 30.2898635], [-97.7471731, 30.2898645], [-97.7471711, 30.2898995], [-97.7471491, 30.2898985], [-97.7471431, 30.2899785], [-97.7471331, 30.2899785], [-97.7471261, 30.2900735], [-97.7471401, 30.2900755], [-97.7471381, 30.2900985], [-97.7471321, 30.2900975], [-97.7471151, 30.2902485], [-97.7471191, 30.2902485], [-97.7471161, 30.2902755], [-97.7471341, 30.2902775], [-97.7471311, 30.2903055], [-97.7473381, 30.2903235], [-97.7473381, 30.2903275], [-97.7474771, 30.2903395], [-97.7474921, 30.2902105], [-97.7475301, 30.2902125], [-97.7475331, 30.2901725], [-97.7475421, 30.2901725], [-97.7475571, 30.2901605], [-97.7475601, 30.2901355], [-97.7475461, 30.2901205], [-97.7475261, 30.2901195], [-97.7475281, 30.2901035], [-97.7475471, 30.2901055], [-97.7475641, 30.2899375], [-97.7475681, 30.2899325], [-97.7475721, 30.2899065], [-97.7475601, 30.2898915], [-97.7475651, 30.2898925], [-97.7475891, 30.2896325], [-97.7475661, 30.2896305], [-97.7475671, 30.2896185], [-97.7475361, 30.2896175], [-97.7475391, 30.2895725], [-97.7473961, 30.2895645], [-97.7473961, 30.2895695], [-97.7473831, 30.2895695], [-97.7473831, 30.2895595], [-97.7473381, 30.2895565], [-97.7473381, 30.2895585], [-97.7472491, 30.2895535], [-97.7472481, 30.2895635], [-97.7471831, 30.2895595], [-97.7471801, 30.2896025], [-97.7471871, 30.2896035], [-97.7471861, 30.2896165], [-97.7471771, 30.2896165], [-97.7471691, 30.2897165], [-97.7471641, 30.2897605], [-97.7471681, 30.2897605], [-97.7471671, 30.2897835], [-97.7471591, 30.2897835], [-97.7471531, 30.2898635]], [[-97.7472751, 30.2900838], [-97.7471891, 30.2900768], [-97.7471991, 30.2899748], [-97.7473691, 30.2899878], [-97.7473701, 30.2899808], [-97.7473861, 30.2899828], [-97.7473851, 30.2899918], [-97.7474291, 30.2899948], [-97.7474221, 30.2900628], [-97.7473731, 30.2900588], [-97.7473711, 30.2900808], [-97.7472761, 30.2900738], [-97.7472751, 30.2900838]]]}, "properties": {"id": "f142fa08-fece-4a8d-8aae-efe0b88b38cf", "name": "Texan Tower", "change_type": "height_changed", "old_height": 30.0, "new_height": 19.5}}]}