{"type": "FeatureCollection", "features": [{"type": "Feature", "geometry": {"type": "Polygon", "coordinates": [[[-97.7404358, 30.2841678], [-97.7404533, 30.2839976], [-97.7399513, 30.2839591], [-97.7399337, 30.2841301], [-97.7400631, 30.2841401], [-97.7401925, 30.28415], [-97.7402245, 30.2841516], [-97.7404171, 30.2841666], [-97.7404358, 30.2841678]]]}, "properties": {"id": "370a06f8-f2c7-4d1d-9a98-ad64d60700e0", "name": "Homer Rainey Hall", "change_type": "height_changed", "old_height": 17.1, "new_height": 16.0}}, {"type": "Feature", "geometry": {"type": "Polygon", "coordinates": [[[-97.742377, 30.2957012], [-97.7423669, 30.2957176], [-97.7424355, 30.295749], [-97.7425183, 30.2956142], [-97.7423696, 30.2955461], [-97.742297, 30.2956645], [-97.742377, 30.2957012]]]}, "properties": {"id": "b86314ad-6894-4647-a81a-bd96b5387aec", "name": null, "change_type": "added", "old_height": null, "new_height": 4.5}}, {"type": "Feature", "geometry": {"type": "Polygon", "coordinates": [[[-97.7422687, 30.2954659], [-97.7422438, 30.2955073], [-97.742338, 30.2955496], [-97.7424331, 30.2953917], [-97.7422681, 30.2953176], [-97.742198, 30.2954341], [-97.7422687, 30.2954659]]]}, "properties": {"id": "93c5dbed-cc33-41b6-ba42-51a87d50c769", "name": null, "change_type": "added", "old_height": null, "new_height": 5.7}}, {"type": "Feature", "geometry": {"type": "Polygon", "coordinates": [[[-97.7388241, 30.2864536], [-97.7388438, 30.2862568], [-97.7387126, 30.286247], [-97.7387099, 30.2862738], [-97.7386372, 30.2862684], [-97.7385551, 30.2862623], [-97.7385578, 30.2862355], [-97.7384265, 30.2862257], [-97.7384068, 30.2864228], [-97.7385394, 30.2864327], [-97.7385408, 30.2864182], [-97.73869, 30.2864294], [-97.7386886, 30.2864434], [-97.7388241, 30.2864536]]]}, "properties": {"id": "ac7ef8b0-f669-4907-ba31-8e72f66993b7", "name": "Dorothy Gebauer Building", "change_type": "height_changed", "old_height": 14.2, "new_height": 21.0}}, {"type": "Feature", "geometry": {"type": "Polygon", "coordinates": [[[-97.73943, 30.2873009], [-97.7400727, 30.2873489], [-97.7400941, 30.2871354], [-97.7394514, 30.2870874], [-97.73943, 30.2873009]]]}, "properties": {"id": "2315bfe2-f103-4cb6-9bb8-f8a9a106327a", "name": "Biological Laboratories", "change_type": "height_changed", "old_height": 14.6, "new_height": 23.0}}, {"type": "Feature", "geometry": {"type": "Polygon", "coordinates": [[[-97.7405437, 30.2852381], [-97.7405368, 30.2853069], [-97.7405124, 30.2855501], [-97.7405057, 30.2856166], [-97.7407131, 30.2856321], [-97.740751, 30.2852536], [-97.7405437, 30.2852381]]]}, "properties": {"id": "c0b36869-bf04-447d-8dd4-40977fa47b56", "name": "West Mall Office Building", "change_type": "height_changed", "old_height": 22.2, "new_height": 20.0}}, {"type": "Feature", "geometry": {"type": "Polygon", "coordinates": [[[-97.7381512, 30.2859663], [-97.7381315, 30.2861683], [-97.7386587, 30.2862077], [-97.7386671, 30.2861236], [-97.7386788, 30.2860071], [-97.7384163, 30.2859875], [-97.7384103, 30.285987], [-97.7381512, 30.2859663]]]}, "properties": {"id": "66d27477-b077-469c-96b8-a1a8c0a0cc18", "name": "Will C. Hogg Building", "change_type": "height_changed", "old_height": 14.7, "new_height": 22.0}}, {"type": "Feature", "geometry": {"type": "Polygon", "coordinates": [[[-97.7382173, 30.2852455], [-97.7387455, 30.285285], [-97.7387721, 30.2850072], [-97.7385537, 30.2849913], [-97.7385449, 30.2850852], [-97.7382357, 30.2850621], [-97.7382266, 30.2851525], [-97.7382173, 30.2852455]]]}, "properties": {"id": "c5562674-6b46-4af9-84e1-efeff7c61c4f", "name": "Garrison Hall", "change_type": "height_changed", "old_height": 12.9, "new_height": 23.0}}, {"type": "Feature", "geometry": {"type": "Polygon", "coordinates": [[[-97.737471, 30.2853858], [-97.7376787, 30.2854014], [-97.7376909, 30.28528], [-97.7377075, 30.2851141], [-97.7377244, 30.2849456], [-97.7377365, 30.2848247], [-97.7375288, 30.2848092], [-97.7375159, 30.2849381], [-97.737483, 30.285266], [-97.737471, 30.2853858]]]}, "properties": {"id": "bb2c550f-7953-499a-b2c1-cde218ab7cc7", "name": "Waggener Hall", "change_type": "height_changed", "old_height": 24.8, "new_height": 23.0}}, {"type": "Feature", "geometry": {"type": "Polygon", "coordinates": [[[-97.7367912, 30.286529], [-97.7368777, 30.2865355], [-97.7369023, 30.2863242], [-97.7366769, 30.2863057], [-97.7366828, 30.2862556], [-97.7366902, 30.2861924], [-97.7369156, 30.2862102], [-97.7369373, 30.2860051], [-97.7368425, 30.2859976], [-97.7366457, 30.2859821], [-97.7363188, 30.2859563], [-97.7362963, 30.2861678], [-97.7364788, 30.2861822], [-97.7364767, 30.2862017], [-97.7364723, 30.286247], [-97.7364694, 30.286285], [-97.7362281, 30.2862664], [-97.7359771, 30.2862471], [-97.735955, 30.2864667], [-97.736306, 30.2864926], [-97.7365621, 30.2865115], [-97.7366319, 30.2865168], [-97.7367019, 30.2865222], [-97.7367912, 30.286529]]]}, "properties": {"id": "44e418d6-dd3a-48da-8e9d-c29e59593299", "name": "Bill and Melinda Gates Computer Science Complex", "change_type": "height_changed", "old_height": 16.8, "new_height": 26.0}}, {"type": "Feature", "geometry": {"type": "Polygon", "coordinates": [[[-97.7422042, 30.2810626], [-97.7421832, 30.2811708], [-97.7422432, 30.2811794], [-97.7422642, 30.2810713], [-97.7422042, 30.2810626]]]}, "properties": {"id": "c16ae031-0f84-4a79-94f9-5018a002c4ad", "name": null, "change_type": "removed", "old_height": 6.9, "new_height": null}}, {"type": "Feature", "geometry": {"type": "Polygon", "coordinates": [[[-97.7420265, 30.2809919], [-97.7421554, 30.2810275], [-97.7422462, 30.280783], [-97.7421173, 30.2807473], [-97.7420265, 30.2809919]]]}, "properties": {"id": "1058edf8-0d0c-477b-a62f-c238bb69d274", "name": null, "change_type": "removed", "old_height": 10.1, "new_height": null}}, {"type": "Feature", "geometry": {"type": "Polygon", "coordinates": [[[-97.7412675, 30.2782035], [-97.7412283, 30.2783085], [-97.7414989, 30.2783838], [-97.741538, 30.2782789], [-97.7412675, 30.2782035]]]}, "properties": {"id": "84496572-f7b3-49af-907d-75f8e943be99", "name": null, "change_type": "removed", "old_height": 5.5, "new_height": null}}, {"type": "Feature", "geometry": {"type": "Polygon", "coordinates": [[[-97.7416899, 30.2827423], [-97.7416824, 30.2829251], [-97.7418391, 30.2829299], [-97.7418466, 30.2827472], [-97.7416899, 30.2827423]]]}, "properties": {"id": "3cd12f52-2853-4cc5-bc73-25f50ded4ffc", "name": null, "change_type": "removed", "old_height": 6.4, "new_height": null}}, {"type": "Feature", "geometry": {"type": "Polygon", "coordinates": [[[-97.7331218, 30.2803295], [-97.7331552, 30.2801905], [-97.7324712, 30.2800679], [-97.7324442, 30.2801803], [-97.7324802, 30.2801867], [-97.7324028, 30.2805087], [-97.7322419, 30.2804799], [-97.7321443, 30.2808863], [-97.7323283, 30.2809192], [-97.7323721, 30.2807371], [-97.7326806, 30.2807924], [-97.732623, 30.2810323], [-97.7328236, 30.2810682], [-97.7328404, 30.280998], [-97.732807, 30.280992], [-97.7328456, 30.2808313], [-97.7328765, 30.2808368], [-97.7330035, 30.2803083], [-97.7331218, 30.2803295]]]}, "properties": {"id": "3fcbe266-e290-46d8-8f81-149d0f98af99", "name": null, "change_type": "removed", "old_height": 9.8, "new_height": null}}, {"type": "Feature", "geometry": {"type": "Polygon", "coordinates": [[[-97.7325133, 30.2809062], [-97.7325174, 30.2808346], [-97.7324425, 30.2808314], [-97.7324384, 30.280903], [-97.7325133, 30.2809062]]]}, "properties": {"id": "873b51b3-c4b4-4b14-84fa-a22d48616abd", "name": null, "change_type": "removed", "old_height": 5.7, "new_height": null}}, {"type": "Feature", "geometry": {"type": "Polygon", "coordinates": [[[-97.75172, 30.2862606], [-97.7517179, 30.2863184], [-97.7518198, 30.2863211], [-97.7518218, 30.2862632], [-97.75172, 30.2862606]]]}, "properties": {"id": "c6c379de-d12b-4309-a898-6daf66314eb7", "name": null, "change_type": "removed", "old_height": 5.2, "new_height": null}}, {"type": "Feature", "geometry": {"type": "Polygon", "coordinates": [[[-97.7500057, 30.2877501], [-97.7500133, 30.2876161], [-97.7497341, 30.2876042], [-97.7497295, 30.2876851], [-97.7499124, 30.2876929], [-97.7499093, 30.287746], [-97.7500057, 30.2877501]]]}, "properties": {"id": "b1f27232-31bf-45ca-a129-d3d74241eaf4", "name": null, "change_type": "removed", "old_height": 8.5, "new_height": null}}, {"type": "Feature", "geometry": {"type": "Polygon", "coordinates": [[[-97.7481083, 30.2884579], [-97.7481097, 30.2884023], [-97.747914, 30.2883985], [-97.7479126, 30.288454], [-97.7481083, 30.2884579]]]}, "properties": {"id": "c50bba3f-e0c5-47be-8bc8-d9890ba32748", "name": null, "change_type": "removed", "old_height": 9.9, "new_height": null}}, {"type": "Feature", "geometry": {"type": "Polygon", "coordinates": [[[-97.7462958, 30.294633], [-97.7463062, 30.2944551], [-97.7461751, 30.2944494], [-97.7461647, 30.2946273], [-97.7462958, 30.294633]]]}, "properties": {"id": "11565aff-4128-4f60-b06e-be57ef858efa", "name": null, "change_type": "removed", "old_height": 5.6, "new_height": null}}, {"type": "Feature", "geometry": {"type": "Polygon", "coordinates": [[[-97.742177, 30.295203], [-97.742132, 30.295183], [-97.74213, 30.295182], [-97.742102, 30.295227], [-97.742149, 30.295249], [-97.742177, 30.295203]]]}, "properties": {"id": "fbd17968-56c0-4975-830f-97cde8b4f65d", "name": null, "change_type": "removed", "old_height": 4.9, "new_height": null}}, {"type": "Feature", "geometry": {"type": "Polygon", "coordinates": [[[-97.7422105, 30.29562], [-97.7424365, 30.2957293], [-97.7425116, 30.2956135], [-97.7424547, 30.2955859], [-97.7424629, 30.2955733], [-97.7423537, 30.2955204], [-97.7424296, 30.2954036], [-97.7422812, 30.2953318], [-97.7422389, 30.295397], [-97.7422358, 30.2954418], [-97.7421921, 30.2954558], [-97.7421028, 30.2955936], [-97.7421978, 30.2956395], [-97.7422105, 30.29562]]]}, "properties": {"id": "6e3e769a-7047-4787-8d8f-baa0ed2dd57f", "name": null, "change_type": "removed", "old_height": 5.3, "new_height": null}}, {"type": "Feature", "geometry": {"type": "Polygon", "coordinates": [[[-97.7422308, 30.2939535], [-97.7423241, 30.293929], [-97.7422869, 30.293823], [-97.7421936, 30.2938474], [-97.7422308, 30.2939535]]]}, "properties": {"id": "4d9c0911-aed6-49a7-a566-6faf920be889", "name": null, "change_type": "removed", "old_height": 6.4, "new_height": null}}, {"type": "Feature", "geometry": {"type": "Polygon", "coordinates": [[[-97.741133, 30.290788], [-97.7409767, 30.2907804], [-97.7409608, 30.2910251], [-97.7411171, 30.2910327], [-97.741133, 30.290788]]]}, "properties": {"id": "4ce93215-df1e-44d6-8194-f71e62a1585f", "name": null, "change_type": "removed", "old_height": 9.4, "new_height": null}}, {"type": "Feature", "geometry": {"type": "Polygon", "coordinates": [[[-97.7457588, 30.2916678], [-97.7457574, 30.291697], [-97.7458443, 30.2917002], [-97.7458477, 30.2916317], [-97.7458357, 30.2916313], [-97.7458381, 30.2915827], [-97.7457605, 30.2915799], [-97.7457598, 30.2915937], [-97.7457263, 30.2915925], [-97.7457226, 30.2916665], [-97.7457588, 30.2916678]]]}, "properties": {"id": "c42835b4-2cfa-4842-a636-22066299312f", "name": null, "change_type": "removed", "old_height": 7.8, "new_height": null}}, {"type": "Feature", "geometry": {"type": "Polygon", "coordinates": [[[-97.7424945, 30.2839222], [-97.7421132, 30.2838968], [-97.7421011, 30.2840326], [-97.7420851, 30.2840316], [-97.742063, 30.2842779], [-97.7421323, 30.2842826], [-97.7421286, 30.284324], [-97.7422285, 30.2843307], [-97.7422262, 30.284356], [-97.742065, 30.2843452], [-97.7420537, 30.2844719], [-97.7424137, 30.2844959], [-97.7424306, 30.2843061], [-97.7422867, 30.2842965], [-97.7423099, 30.2840373], [-97.7424832, 30.2840489], [-97.7424945, 30.2839222]]]}, "properties": {"id": "d0ea298f-2766-431b-91fd-19cea33ca043", "name": null, "change_type": "removed", "old_height": 14.9, "new_height": null}}, {"type": "Feature", "geometry": {"type": "Polygon", "coordinates": [[[-97.7403129, 30.2910327], [-97.7403, 30.2911626], [-97.7406822, 30.2911908], [-97.7406948, 30.2910632], [-97.7405709, 30.2910541], [-97.7406068, 30.2906908], [-97.7407308, 30.2906999], [-97.7407433, 30.2905735], [-97.7403599, 30.2905452], [-97.7403471, 30.2906739], [-97.7404696, 30.290683], [-97.7404652, 30.2907278], [-97.7404477, 30.2907265], [-97.7404206, 30.2910013], [-97.7404366, 30.2910025], [-97.7404327, 30.2910415], [-97.7403129, 30.2910327]]]}, "properties": {"id": "40046b06-5ae6-4eaf-9f25-da23767d403b", "name": null, "change_type": "removed", "old_height": 7.9, "new_height": null}}, {"type": "Feature", "geometry": {"type": "Polygon", "coordinates": [[[-97.741073, 30.2905836], [-97.7407906, 30.2905737], [-97.7407842, 30.290709], [-97.7410666, 30.290719], [-97.741073, 30.2905836]]]}, "properties": {"id": "72e0136f-988e-4aeb-88e8-c797f4fd47e9", "name": null, "change_type": "removed", "old_height": 9.3, "new_height": null}}, {"type": "Feature", "geometry": {"type": "Polygon", "coordinates": [[[-97.7410162, 30.2912203], [-97.7410239, 30.2910863], [-97.740743, 30.2910743], [-97.7407353, 30.2912083], [-97.7410162, 30.2912203]]]}, "properties": {"id": "3889d5d7-9b03-4ebc-95c1-6c7a2661518a", "name": null, "change_type": "removed", "old_height": 7.6, "new_height": null}}, {"type": "Feature", "geometry": {"type": "Polygon", "coordinates": [[[-97.7333652, 30.2901513], [-97.7332326, 30.290095], [-97.7331486, 30.2902422], [-97.7331538, 30.2902444], [-97.7331266, 30.2902922], [-97.7332259, 30.2903344], [-97.7332595, 30.2902755], [-97.7332379, 30.2902663], [-97.7332836, 30.2901862], [-97.7333333, 30.2902073], [-97.7333652, 30.2901513]]]}, "properties": {"id": "ca5daafe-89c4-46a7-a953-f1d9beb93a34", "name": null, "change_type": "removed", "old_height": 6.9, "new_height": null}}, {"type": "Feature", "geometry": {"type": "Polygon", "coordinates": [[[-97.7331029, 30.2902676], [-97.733163, 30.2901259], [-97.7331938, 30.2901357], [-97.7332198, 30.2900744], [-97.7330955, 30.2900351], [-97.7330094, 30.290238], [-97.7331029, 30.2902676]]]}, "properties": {"id": "d7ea75e8-90ea-4199-864a-0caddb133051", "name": null, "change_type": "removed", "old_height": 7.2, "new_height": null}}, {"type": "Feature", "geometry": {"type": "Polygon", "coordinates": [[[-97.729431, 30.2890725], [-97.7294936, 30.2889605], [-97.7291965, 30.2887339], [-97.7291725, 30.2887239], [-97.7291841, 30.2887032], [-97.7291299, 30.2886807], [-97.7290761, 30.2887333], [-97.7290806, 30.2887252], [-97.7290156, 30.2887888], [-97.7289707, 30.2888691], [-97.7289991, 30.2888809], [-97.729019, 30.2888615], [-97.7290594, 30.2888783], [-97.7290437, 30.2889065], [-97.7291295, 30.2889422], [-97.7292546, 30.2888199], [-97.7292899, 30.2888468], [-97.7292582, 30.2888778], [-97.7292278, 30.2889322], [-97.7292602, 30.2889457], [-97.7294209, 30.2890683], [-97.729431, 30.2890725]]]}, "properties": {"id": "354e0ed7-d18b-4b32-8195-74adb4ac719c", "name": null, "change_type": "removed", "old_height": 7.3, "new_height": null}}, {"type": "Feature", "geometry": {"type": "Polygon", "coordinates": [[[-97.731496, 30.2929211], [-97.7313902, 30.2928716], [-97.7313453, 30.2929433], [-97.7314511, 30.2929927], [-97.731496, 30.2929211]]]}, "properties": {"id": "03210688-328f-4f19-85f0-8a235c5ee61d", "name": null, "change_type": "removed", "old_height": 6.1, "new_height": null}}]}