{"type": "FeatureCollection", "features": [{"type": "Feature", "geometry": {"type": "Polygon", "coordinates": [[[-97.7359473, 30.2844036], [-97.7358561, 30.2844013], [-97.7358523, 30.2845179], [-97.7359434, 30.2845202], [-97.7359473, 30.2844036]]]}, "properties": {"id": "21f71fd2-d354-4d90-9da2-c77c276a24b5", "name": null, "change_type": "added", "old_height": null, "new_height": 5.2}}, {"type": "Feature", "geometry": {"type": "Polygon", "coordinates": [[[-97.7379295, 30.2809872], [-97.737933, 30.280974], [-97.7379313, 30.2809605], [-97.7379247, 30.2809483], [-97.7379138, 30.2809385], [-97.7378998, 30.2809324], [-97.7378843, 30.2809305], [-97.7378689, 30.280933], [-97.7378553, 30.2809398], [-97.7378449, 30.2809499], [-97.737839, 30.2809625], [-97.7378381, 30.280976], [-97.7378423, 30.280989], [-97.7378512, 30.2810002], [-97.7378638, 30.2810082], [-97.7378787, 30.2810123], [-97.7378944, 30.281012], [-97.7379091, 30.2810073], [-97.7379212, 30.2809987], [-97.7379295, 30.2809872]]]}, "properties": {"id": "f6fbb1e7-945c-47ff-8071-17af0ea713cc", "name": null, "change_type": "added", "old_height": null, "new_height": 8.0}}, {"type": "Feature", "geometry": {"type": "Polygon", "coordinates": [[[-97.7379031, 30.2809042], [-97.7379066, 30.280891], [-97.7379049, 30.2808775], [-97.7378983, 30.2808653], [-97.7378874, 30.2808555], [-97.7378734, 30.2808494], [-97.7378579, 30.2808475], [-97.7378425, 30.28085], [-97.7378289, 30.2808568], [-97.7378185, 30.2808669], [-97.7378126, 30.2808795], [-97.7378117, 30.280893], [-97.7378159, 30.280906], [-97.7378248, 30.2809172], [-97.7378374, 30.2809252], [-97.7378523, 30.2809293], [-97.737868, 30.280929], [-97.7378827, 30.2809243], [-97.7378948, 30.2809157], [-97.7379031, 30.2809042]]]}, "properties": {"id": "8dcd88b6-50db-40d6-8913-4faa582a191c", "name": null, "change_type": "added", "old_height": null, "new_height": 8.0}}, {"type": "Feature", "geometry": {"type": "Polygon", "coordinates": [[[-97.7379992, 30.280927], [-97.7380027, 30.2809138], [-97.738001, 30.2809003], [-97.7379944, 30.2808881], [-97.7379835, 30.2808783], [-97.7379695, 30.2808722], [-97.737954, 30.2808703], [-97.7379386, 30.2808728], [-97.737925, 30.2808796], [-97.7379146, 30.2808897], [-97.7379087, 30.2809023], [-97.7379078, 30.2809158], [-97.737912, 30.2809288], [-97.7379209, 30.28094], [-97.7379335, 30.280948], [-97.7379484, 30.2809521], [-97.7379641, 30.2809518], [-97.7379788, 30.2809471], [-97.7379909, 30.2809385], [-97.7379992, 30.280927]]]}, "properties": {"id": "4a7b9425-3af6-4aed-b416-9b25ee6f1e2e", "name": null, "change_type": "added", "old_height": null, "new_height": 8.0}}, {"type": "Feature", "geometry": {"type": "Polygon", "coordinates": [[[-97.7380707, 30.2808666], [-97.7380742, 30.2808534], [-97.7380725, 30.2808399], [-97.7380659, 30.2808277], [-97.738055, 30.2808179], [-97.738041, 30.2808118], [-97.7380255, 30.2808099], [-97.7380101, 30.2808124], [-97.7379965, 30.2808192], [-97.7379861, 30.2808293], [-97.7379802, 30.2808419], [-97.7379793, 30.2808554], [-97.7379835, 30.2808684], [-97.7379924, 30.2808796], [-97.738005, 30.2808876], [-97.7380199, 30.2808917], [-97.7380356, 30.2808914], [-97.7380503, 30.2808867], [-97.7380624, 30.2808781], [-97.7380707, 30.2808666]]]}, "properties": {"id": "b8d14732-9d80-4ec1-ab35-117321242d3a", "name": null, "change_type": "added", "old_height": null, "new_height": 8.0}}, {"type": "Feature", "geometry": {"type": "Polygon", "coordinates": [[[-97.7380244, 30.2810109], [-97.7380279, 30.2809977], [-97.7380262, 30.2809842], [-97.7380196, 30.280972], [-97.7380087, 30.2809622], [-97.7379947, 30.2809561], [-97.7379792, 30.2809542], [-97.7379638, 30.2809567], [-97.7379502, 30.2809635], [-97.7379398, 30.2809736], [-97.7379339, 30.2809862], [-97.737933, 30.2809997], [-97.7379372, 30.2810127], [-97.7379461, 30.2810239], [-97.7379587, 30.2810319], [-97.7379736, 30.281036], [-97.7379893, 30.2810357], [-97.738004, 30.281031], [-97.7380161, 30.2810224], [-97.7380244, 30.2810109]]]}, "properties": {"id": "bab781de-605a-4df3-b7d3-3e1870ef9363", "name": null, "change_type": "added", "old_height": null, "new_height": 8.0}}, {"type": "Feature", "geometry": {"type": "Polygon", "coordinates": [[[-97.7380965, 30.2809491], [-97.7381, 30.2809359], [-97.7380983, 30.2809224], [-97.7380917, 30.2809102], [-97.7380808, 30.2809004], [-97.7380668, 30.2808943], [-97.7380513, 30.2808924], [-97.7380359, 30.2808949], [-97.7380223, 30.2809017], [-97.7380119, 30.2809118], [-97.738006, 30.2809244], [-97.7380051, 30.2809379], [-97.7380093, 30.2809509], [-97.7380182, 30.2809621], [-97.7380308, 30.2809701], [-97.7380457, 30.2809742], [-97.7380614, 30.2809739], [-97.7380761, 30.2809692], [-97.7380882, 30.2809606], [-97.7380965, 30.2809491]]]}, "properties": {"id": "15499cfe-be58-4a75-81dd-001238a5538e", "name": null, "change_type": "added", "old_height": null, "new_height": 8.0}}, {"type": "Feature", "geometry": {"type": "Polygon", "coordinates": [[[-97.7381404, 30.2808065], [-97.7381439, 30.2807933], [-97.7381422, 30.2807798], [-97.7381356, 30.2807676], [-97.7381247, 30.2807578], [-97.7381107, 30.2807517], [-97.7380952, 30.2807498], [-97.7380798, 30.2807523], [-97.7380662, 30.2807591], [-97.7380558, 30.2807692], [-97.7380499, 30.2807818], [-97.738049, 30.2807953], [-97.7380532, 30.2808083], [-97.7380621, 30.2808195], [-97.7380747, 30.2808275], [-97.7380896, 30.2808316], [-97.7381053, 30.2808313], [-97.73812, 30.2808266], [-97.7381321, 30.280818], [-97.7381404, 30.2808065]]]}, "properties": {"id": "476da41f-4fb8-4ac4-88d0-da3862c84378", "name": null, "change_type": "added", "old_height": null, "new_height": 8.0}}, {"type": "Feature", "geometry": {"type": "Polygon", "coordinates": [[[-97.7380456, 30.2807825], [-97.7380491, 30.2807693], [-97.7380474, 30.2807558], [-97.7380408, 30.2807436], [-97.7380299, 30.2807338], [-97.7380159, 30.2807277], [-97.7380004, 30.2807258], [-97.737985, 30.2807283], [-97.7379714, 30.2807351], [-97.737961, 30.2807452], [-97.7379551, 30.2807578], [-97.7379542, 30.2807713], [-97.7379584, 30.2807843], [-97.7379673, 30.2807955], [-97.7379799, 30.2808035], [-97.7379948, 30.2808076], [-97.7380105, 30.2808073], [-97.7380252, 30.2808026], [-97.7380373, 30.280794], [-97.7380456, 30.2807825]]]}, "properties": {"id": "fe5816e6-a0eb-486c-981f-86c688e84153", "name": null, "change_type": "added", "old_height": null, "new_height": 8.0}}, {"type": "Feature", "geometry": {"type": "Polygon", "coordinates": [[[-97.7379741, 30.2808415], [-97.7379776, 30.2808283], [-97.7379759, 30.2808148], [-97.7379693, 30.2808026], [-97.7379584, 30.2807928], [-97.7379444, 30.2807867], [-97.7379289, 30.2807848], [-97.7379135, 30.2807873], [-97.7378999, 30.2807941], [-97.7378895, 30.2808042], [-97.7378836, 30.2808168], [-97.7378827, 30.2808303], [-97.7378869, 30.2808433], [-97.7378958, 30.2808545], [-97.7379084, 30.2808625], [-97.7379233, 30.2808666], [-97.737939, 30.2808663], [-97.7379537, 30.2808616], [-97.7379658, 30.280853], [-97.7379741, 30.2808415]]]}, "properties": {"id": "6939670a-b74a-4f4d-b42f-4a87d60ce91f", "name": null, "change_type": "added", "old_height": null, "new_height": 8.0}}, {"type": "Feature", "geometry": {"type": "Polygon", "coordinates": [[[-97.7379497, 30.2807599], [-97.7379532, 30.2807467], [-97.7379515, 30.2807332], [-97.7379449, 30.280721], [-97.737934, 30.2807112], [-97.73792, 30.2807051], [-97.7379045, 30.2807032], [-97.7378891, 30.2807057], [-97.7378755, 30.2807125], [-97.7378651, 30.2807226], [-97.7378592, 30.2807352], [-97.7378583, 30.2807487], [-97.7378625, 30.2807617], [-97.7378714, 30.2807729], [-97.737884, 30.2807809], [-97.7378989, 30.280785], [-97.7379146, 30.2807847], [-97.7379293, 30.28078], [-97.7379414, 30.2807714], [-97.7379497, 30.2807599]]]}, "properties": {"id": "44e5078e-9651-49f4-8e64-6737f39a9bfb", "name": null, "change_type": "added", "old_height": null, "new_height": 8.0}}, {"type": "Feature", "geometry": {"type": "Polygon", "coordinates": [[[-97.7268138, 30.2813112], [-97.7269398, 30.2813089], [-97.7269394, 30.2812916], [-97.7270439, 30.2812896], [-97.7270421, 30.2812155], [-97.7268115, 30.2812199], [-97.7268138, 30.2813112]]]}, "properties": {"id": "fc64b204-5d47-4135-becb-8efd7e7b7c78", "name": null, "change_type": "removed", "old_height": 6.7, "new_height": null}}]}